{"type":"FeatureCollection","crs":{"type":"name","properties":{"name":"EPSG:28992"}},"features":[{"type":"Feature","id":12,"geometry":{"type":"LineString","coordinates":[[109998.0175999999,447010.59329999983],[109994.69999999925,447012.10000000149],[109993.60599999875,447012.61600000039],[109979.66899999976,447018.38800000027],[109956.17700000107,447027.63199999928],[109933.17500000075,447036.60200000182],[109910.64699999988,447044.36400000006],[109887.49599999934,447049.29500000179],[109863.86499999836,447053.36600000039],[109840.40100000054,447059.2349999994],[109816.45499999821,447064.28000000119],[109792.25699999928,447064.95600000024],[109768.63599999994,447060.77800000086],[109745.18400000036,447055.25200000033],[109722.17500000075,447048.20300000161],[109701.49599999934,447040.82299999893],[109679.51399999857,447031.24199999869],[109658.85599999875,447018.93499999866],[109640.29899999872,447003.25600000098],[109623.84699999914,446985.45699999854],[109610.29100000113,446967.00200000033],[109596.69000000134,446945.5709999986],[109584.7340000011,446924.5549999997],[109571.70499999821,446903.93699999899],[109559.63599999994,446889.2650000006],[109542.38899999857,446873.30099999905],[109524.35500000045,446857.80099999905],[109506.18400000036,446842.36600000039],[109487.8900000006,446826.24399999902],[109469.56500000134,446810.58500000089],[109469.0700000003,446810.18899999931]]},"properties":{"ORACLE_OBJECTID":"19","CODE":"163-042-00011","NAAM":"Goejanverwelledijk","OPMERKING":null,"GEOKPOBJECTID":3525,"LAST_EDITED_DATE":1662705528000,"XCOORDINAAT":109733.53999999999,"YCOORDINAAT":446937.57000000001,"HYPERLINK":null,"STATUSOBJECT":"gerealiseerd","STATUSLEGGERWATERVEILIGHEID":"Vastgesteld","TYPEWATERKERING":null,"CATEGORIE":"Primair","SOORTREFERENTIELIJN":"Middenkruinlijn","AARDLEGGERWIJZIGING":null,"OPMERKINGLEGGER":null,"IPOKLASSE":null,"BOVENPEIL":null,"BEGINPUNTBUITENTEEN":null,"BUITENTALUD":null,"KRUINHOOGTE":null,"KRUINBREEDTE":null,"BINNENTALUD":null,"HOOGTEBERMBOVEN":null,"BREEDTEBERM":null,"HOOGTEBERMBENEDEN":null,"BINNENTALUDBENEDENBERM":null,"LENGTE":641,"BEGINPUNTBINNENTEEN":null,"BENEDENPEIL":null,"PVRBUITENTALUD":null,"PVRBOVENKRUINHOOGTE":null,"PVRHOOGTEBERMBOVEN":null,"PVRBINNENTALUDBOVENBERM":null,"PVRBREEDTEBERM":null,"PVRHOOGTEBERMBENEDEN":null,"PVRBINNENTALUDBENEDENBERM":null,"PVRBOVENACHTERLAND":null,"PVRBREEDTEBOVENACHTERLAND":null,"PVRTALUDNAACHTERLAND":null,"BESCHERMINGZONEBINNEN":null,"BESCHERMINGZONEBUITEN":null,"BUITENBESCHZONEBUITEN":null,"BUITENBESCHZONEBINNEN":null,"FICTIEFMAAIVELD":null,"TOETSPEIL":null,"STABILITEITSDEGRADATIE":null,"OPMERKINGDROOGTEGEVOELIGHEID":null,"DROOGTEGEVOELIGHEID":null,"SCHADEFACTOR":null,"LONGITUDE":4.7278960300000001,"LATITUDE":52.008956840000003,"VERKEERSBELASTING":null,"MBSTABSOM":null,"ONTHEFFING":null,"GEWOONONDERHOUD":null,"BUITENGEWOONONDERHOUD":"RIJNLAND","LEVENSDUURHOOGTE":null,"LEVENSDUURSTABILITEIT":null,"INWINNENDEINSTANTIE":null,"METENDEINSTANTIE":null,"INWINNINGSMETHODE":null,"DIMENSIE":null,"NAUWKEURIGHEIDXY":null,"NAUWKEURIGHEIDZ":null,"DATUMINWINNING":null,"BRON":null,"OBJECTID":12,"SHAPE_Length":640.96860955818966}}]}