{"type":"FeatureCollection","crs":{"type":"name","properties":{"name":"EPSG:28992"}},"features":[{"type":"Feature","id":3,"geometry":{"type":"Point","coordinates":[113052,460482]},"properties":{"CODE":"44","NAAM":"Nieuwkoopse plassen Meijepark","KLASSE":"Aanvaardbaar","JAARBEPALINGKLASSE":2025,"DATUMMEETPUNT":null,"OPMERKING":"ROP09477","RICHTING":0,"XCOORDINAAT":113052,"YCOORDINAAT":460482,"HYPERLINK":null,"LONGITUDE":4.7745623999999998,"LATITUDE":52.130949989999998,"ORACLE_OBJECTID":"656","STATUS":null,"OBJECTID2":3}},{"type":"Feature","id":10,"geometry":{"type":"Point","coordinates":[106431.23600000143,461096.66299999878]},"properties":{"CODE":"43","NAAM":"Zegerplas Westoever","KLASSE":"Goed","JAARBEPALINGKLASSE":2025,"DATUMMEETPUNT":null,"OPMERKING":"RO573","RICHTING":0,"XCOORDINAAT":106431.24000000001,"YCOORDINAAT":461096.65999999997,"HYPERLINK":null,"LONGITUDE":4.6777864999999998,"LATITUDE":52.135932339999997,"ORACLE_OBJECTID":"663","STATUS":null,"OBJECTID2":10}},{"type":"Feature","id":25,"geometry":{"type":"Point","coordinates":[97260.472800001502,462923.558699999]},"properties":{"CODE":"55","NAAM":"Vadedoplas","KLASSE":"Uitstekend","JAARBEPALINGKLASSE":2025,"DATUMMEETPUNT":null,"OPMERKING":"RO1023","RICHTING":0,"XCOORDINAAT":97260.470000000001,"YCOORDINAAT":462923.56,"HYPERLINK":null,"LONGITUDE":4.5435368399999998,"LATITUDE":52.151469249999998,"ORACLE_OBJECTID":"652","STATUS":null,"OBJECTID2":25}},{"type":"Feature","id":26,"geometry":{"type":"Point","coordinates":[106803.01649999991,460443.22089999914]},"properties":{"CODE":"51","NAAM":"Zegerplas Zuidoever","KLASSE":"Uitstekend","JAARBEPALINGKLASSE":2025,"DATUMMEETPUNT":null,"OPMERKING":"RO373","RICHTING":0,"XCOORDINAAT":106803.02,"YCOORDINAAT":460443.21999999997,"HYPERLINK":null,"LONGITUDE":4.6833090500000001,"LATITUDE":52.13009212,"ORACLE_OBJECTID":"653","STATUS":null,"OBJECTID2":26}},{"type":"Feature","id":30,"geometry":{"type":"Point","coordinates":[110416.7659999989,449491.89400000125]},"properties":{"CODE":"48","NAAM":"Reeuwijkse plassen Elfhoeven","KLASSE":"Uitstekend","JAARBEPALINGKLASSE":2025,"DATUMMEETPUNT":null,"OPMERKING":"ROP13412","RICHTING":0,"XCOORDINAAT":110416.77,"YCOORDINAAT":449491.89000000001,"HYPERLINK":null,"LONGITUDE":4.7375138300000001,"LATITUDE":52.031969500000002,"ORACLE_OBJECTID":"682","STATUS":null,"OBJECTID2":30}},{"type":"Feature","id":38,"geometry":{"type":"Point","coordinates":[110725.52199999988,452441.03700000048]},"properties":{"CODE":"45","NAAM":"Reeuwijkse Hout","KLASSE":"Uitstekend","JAARBEPALINGKLASSE":2025,"DATUMMEETPUNT":null,"OPMERKING":"ROP01806","RICHTING":0,"XCOORDINAAT":110725.52,"YCOORDINAAT":452441.03999999998,"HYPERLINK":null,"LONGITUDE":4.7416308999999996,"LATITUDE":52.058500029999998,"ORACLE_OBJECTID":"675","STATUS":null,"OBJECTID2":38}}]}