{
"type": "FeatureCollection",
"numberMatched": 5,
"name": "rsa_agglomeraties",
"crs": { "type": "name", "properties": { "name": "urn:ogc:def:crs:EPSG::28992" } },
"features": [
{ "type": "Feature", "id": "rsa_agglomeraties.7e5a5340-ceab-403e-b8ee-c18637d026ab", "properties": { "objectid": 155, "aggstate": "1", "repcode": "NL2022", "aggcode": "NLA10032", "aggname": "OUDEWATER", "aggnuts": "NL310", "agglatitude": 52.01928333, "agglongitude": 4.85435, "agggenerated": "12866", "bigcityid": "", "aggcalculation": "applied weighing factor: combined treated load from connected UWTTP's x 1,013", "aggchanges": "false", "aggchangescomment": "", "aggperiodover": "2005-12-31", "aggdateart3": "1998-12-31", "aggdateart4": "2000-12-31", "aggdateart5": "1998-12-31", "aggc1": "100", "aggmethodc1": "C", "aggc2": "0", "aggmethodc2": "C", "aggpercwithouttreatment": "0", "aggmethodwithouttreatment": "C", "aggpercprimtreatment": "", "aggpercsectreatment": "", "aggpercstringenttreatment": "", "agghaveregistrationsystem": "", "aggexistmaintenanceplan": "", "aggpressuretest": "false", "aggvideoinspections": "false", "aggothermeasures": "false", "aggexplanationother": "", "aggsewagenetwork": "", "aggbesttechnicalknowledge": "", "aggdilutionrates": "false", "aggcapacity": "false", "aggaccoverflows": "false", "aggaccoverflownumber": "", "aggseweroverflowsM3": "", "aggseweroverflowsPe": "", "aggforecast": "", "aggbeginlife": "", "aggendlife": "", "agghyperlink": "", "aggremarks": "The generated loads from agglomerations are by default fully (=100%) connected to public waste water collecting systems in NL" }, "bbox": [ 118423.83631625587, 448015.18564400001, 118423.83631625587, 448015.18564400001 ], "geometry": { "type": "MultiPoint", "coordinates": [ [ 118423.83631625587, 448015.18564400001 ] ] } },
{ "type": "Feature", "id": "rsa_agglomeraties.ddf6b145-cec0-4170-8526-54a2eb19fcb2", "properties": { "objectid": 192, "aggstate": "1", "repcode": "NL2022", "aggcode": "NLA13035", "aggname": "ALPHEN AD RIJN", "aggnuts": "NL33B", "agglatitude": 52.13751666, "agglongitude": 4.67496666, "agggenerated": "102745", "bigcityid": "", "aggcalculation": "applied weighing factor: combined treated load from connected UWTTP's x 1,013", "aggchanges": "false", "aggchangescomment": "", "aggperiodover": "2005-12-31", "aggdateart3": "1998-12-31", "aggdateart4": "2000-12-31", "aggdateart5": "1998-12-31", "aggc1": "100", "aggmethodc1": "C", "aggc2": "0", "aggmethodc2": "C", "aggpercwithouttreatment": "0", "aggmethodwithouttreatment": "C", "aggpercprimtreatment": "", "aggpercsectreatment": "", "aggpercstringenttreatment": "", "agghaveregistrationsystem": "", "aggexistmaintenanceplan": "", "aggpressuretest": "false", "aggvideoinspections": "false", "aggothermeasures": "false", "aggexplanationother": "", "aggsewagenetwork": "", "aggbesttechnicalknowledge": "", "aggdilutionrates": "false", "aggcapacity": "false", "aggaccoverflows": "false", "aggaccoverflownumber": "", "aggseweroverflowsM3": "", "aggseweroverflowsPe": "", "aggforecast": "", "aggbeginlife": "", "aggendlife": "", "agghyperlink": "", "aggremarks": "The generated loads from agglomerations are by default fully (=100%) connected to public waste water collecting systems in NL" }, "bbox": [ 106239.95963154809, 461274.78244322713, 106239.95963154809, 461274.78244322713 ], "geometry": { "type": "MultiPoint", "coordinates": [ [ 106239.95963154809, 461274.78244322713 ] ] } },
{ "type": "Feature", "id": "rsa_agglomeraties.c3728ceb-1df0-4573-bd2c-dc866e4a6f67", "properties": { "objectid": 196, "aggstate": "1", "repcode": "NL2022", "aggcode": "NLA13042", "aggname": "BODEGRAVEN", "aggnuts": "NL33B", "agglatitude": 52.08218333, "agglongitude": 4.7346, "agggenerated": "54530", "bigcityid": "", "aggcalculation": "applied weighing factor: combined treated load from connected UWTTP's x 1,013", "aggchanges": "false", "aggchangescomment": "", "aggperiodover": "2005-12-31", "aggdateart3": "1998-12-31", "aggdateart4": "2000-12-31", "aggdateart5": "1998-12-31", "aggc1": "100", "aggmethodc1": "C", "aggc2": "0", "aggmethodc2": "C", "aggpercwithouttreatment": "0", "aggmethodwithouttreatment": "C", "aggpercprimtreatment": "", "aggpercsectreatment": "", "aggpercstringenttreatment": "", "agghaveregistrationsystem": "", "aggexistmaintenanceplan": "", "aggpressuretest": "false", "aggvideoinspections": "false", "aggothermeasures": "false", "aggexplanationother": "", "aggsewagenetwork": "", "aggbesttechnicalknowledge": "", "aggdilutionrates": "false", "aggcapacity": "false", "aggaccoverflows": "false", "aggaccoverflownumber": "", "aggseweroverflowsM3": "", "aggseweroverflowsPe": "", "aggforecast": "", "aggbeginlife": "", "aggendlife": "", "agghyperlink": "", "aggremarks": "The generated loads from agglomerations are by default fully (=100%) connected to public waste water collecting systems in NL" }, "bbox": [ 110267.04356415218, 455080.1918849395, 110267.04356415218, 455080.1918849395 ], "geometry": { "type": "MultiPoint", "coordinates": [ [ 110267.04356415218, 455080.1918849395 ] ] } },
{ "type": "Feature", "id": "rsa_agglomeraties.a4256c44-b670-4fff-b7c8-2b85c069249b", "properties": { "objectid": 199, "aggstate": "1", "repcode": "NL2022", "aggcode": "NLA13048", "aggname": "WADDINXVEEN", "aggnuts": "NL33B", "agglatitude": 52.05696666, "agglongitude": 4.66615, "agggenerated": "44948", "bigcityid": "", "aggcalculation": "applied weighing factor: combined treated load from connected UWTTP's x 1,013", "aggchanges": "false", "aggchangescomment": "", "aggperiodover": "2005-12-31", "aggdateart3": "1998-12-31", "aggdateart4": "2000-12-31", "aggdateart5": "1998-12-31", "aggc1": "100", "aggmethodc1": "C", "aggc2": "0", "aggmethodc2": "C", "aggpercwithouttreatment": "0", "aggmethodwithouttreatment": "C", "aggpercprimtreatment": "", "aggpercsectreatment": "", "aggpercstringenttreatment": "", "agghaveregistrationsystem": "", "aggexistmaintenanceplan": "", "aggpressuretest": "false", "aggvideoinspections": "false", "aggothermeasures": "false", "aggexplanationother": "", "aggsewagenetwork": "", "aggbesttechnicalknowledge": "", "aggdilutionrates": "false", "aggcapacity": "false", "aggaccoverflows": "false", "aggaccoverflownumber": "", "aggseweroverflowsM3": "", "aggseweroverflowsPe": "", "aggforecast": "", "aggbeginlife": "", "aggendlife": "", "agghyperlink": "", "aggremarks": "The generated loads from agglomerations are by default fully (=100%) connected to public waste water collecting systems in NL" }, "bbox": [ 105547.36567467547, 452319.10776533082, 105547.36567467547, 452319.10776533082 ], "geometry": { "type": "MultiPoint", "coordinates": [ [ 105547.36567467547, 452319.10776533082 ] ] } },
{ "type": "Feature", "id": "rsa_agglomeraties.9c54eb86-04be-4003-94f3-ec425af07d8a", "properties": { "objectid": 200, "aggstate": "1", "repcode": "NL2022", "aggcode": "NLA14002", "aggname": "WOERDEN", "aggnuts": "NL310", "agglatitude": 52.08566666, "agglongitude": 4.85466666, "agggenerated": "50484", "bigcityid": "", "aggcalculation": "applied weighing factor: combined treated load from connected UWTTP's x 1,013", "aggchanges": "false", "aggchangescomment": "", "aggperiodover": "2005-12-31", "aggdateart3": "1998-12-31", "aggdateart4": "2000-12-31", "aggdateart5": "1998-12-31", "aggc1": "100", "aggmethodc1": "C", "aggc2": "0", "aggmethodc2": "C", "aggpercwithouttreatment": "0", "aggmethodwithouttreatment": "C", "aggpercprimtreatment": "", "aggpercsectreatment": "", "aggpercstringenttreatment": "", "agghaveregistrationsystem": "", "aggexistmaintenanceplan": "", "aggpressuretest": "false", "aggvideoinspections": "false", "aggothermeasures": "false", "aggexplanationother": "", "aggsewagenetwork": "", "aggbesttechnicalknowledge": "", "aggdilutionrates": "false", "aggcapacity": "false", "aggaccoverflows": "false", "aggaccoverflownumber": "", "aggseweroverflowsM3": "", "aggseweroverflowsPe": "", "aggforecast": "", "aggbeginlife": "", "aggendlife": "", "agghyperlink": "", "aggremarks": "The generated loads from agglomerations are by default fully (=100%) connected to public waste water collecting systems in NL" }, "bbox": [ 118499.76041983432, 455400.57325419702, 118499.76041983432, 455400.57325419702 ], "geometry": { "type": "MultiPoint", "coordinates": [ [ 118499.76041983432, 455400.57325419702 ] ] } }
],
"bbox": [ 105547.365674675, 448015.185644, 118499.760419834, 461274.782443227 ]
}
