{
"type": "FeatureCollection",
"numberMatched": 6,
"name": "rsa_rwzi",
"crs": { "type": "name", "properties": { "name": "urn:ogc:def:crs:EPSG::28992" } },
"features": [
{ "type": "Feature", "id": "rsa_rwzi.04b88771-b340-40d4-8bb8-7d10197f9e8a", "properties": { "objectid": 158, "uwwstate": "1", "repcode": "NL2022", "uwwcode": "NL10032", "uwwname": "UWWTP OUDEWATER", "uwwcollectingsystem": "ISCON", "uwwdateclosing": "", "uwwhistorie": "", "uwwlatitude": 52.01928333, "uwwlongitude": 4.85435, "uwwnuts": "NL310", "uwwloadenteringuwwtp": "12701", "uwwcapacity": "18000", "uwwprimarytreatment": "true", "uwwsecondarytreatment": "true", "uwwothertreatment": "true", "uwwnremoval": "true", "uwwpremoval": "true", "uwwuv": "false", "uwwchlorination": "false", "uwwozonation": "false", "uwwsandfiltration": "false", "uwwmicrofiltration": "false", "uwwother": "false", "uwwspecification": "", "uwwbod5perf": "P", "uwwcodperf": "P", "uwwtssperf": "NR", "uwwntotperf": "NR", "uwwptotperf": "NR", "uwwotherperf": "", "uwwbadperformance": "false", "uwwaccidents": "false", "uwwbaddesign": "false", "uwwinformation": "", "uwwbodincomingmeasured": 278.16, "uwwbodincomingcalculated": "", "uwwbodincomingestimated": "", "uwwcodincomingmeasured": 611.10654, "uwwcodincomingcalculated": "", "uwwcodincomingestimated": "", "uwwnincomingmeasured": 57.828, "uwwnincomingcalculated": "", "uwwnincomingestimated": "", "uwwpincomingmeasured": 8.046876, "uwwpincomingcalculated": "", "uwwpincomingestimated": "", "uwwboddischargemeasured": 5.3436, "uwwboddischargecalculated": "", "uwwboddischargeestimated": "", "uwwcoddischargemeasured": 47.58, "uwwcoddischargecalculated": "", "uwwcoddischargeestimated": "", "uwwndischargemeasured": 4.7214, "uwwndischargecalculated": "", "uwwndischargeestimated": "", "uwwpdischargemeasured": 0.732, "uwwpdischargecalculated": "", "uwwpdischargeestimated": "", "uwwwastewatertreated": "1166245", "uwwmethodwastewatertreated": "", "uwwwastewaterreuse": "", "uwwbeginlife": "", "uwwendlife": "", "uwwhyperlink": "", "uwwinspireidfacility": "", "uwwremarks": "" }, "bbox": [ 118423.83631625587, 448015.18564400001, 118423.83631625587, 448015.18564400001 ], "geometry": { "type": "MultiPoint", "coordinates": [ [ 118423.83631625587, 448015.18564400001 ] ] } },
{ "type": "Feature", "id": "rsa_rwzi.c923ce49-7d20-4aa9-8720-2a0ff3a31d5b", "properties": { "objectid": 196, "uwwstate": "1", "repcode": "NL2022", "uwwcode": "NL13035", "uwwname": "UWWTP ALPHEN NOORD", "uwwcollectingsystem": "ISCON", "uwwdateclosing": "", "uwwhistorie": "", "uwwlatitude": 52.13751666, "uwwlongitude": 4.67496666, "uwwnuts": "NL33B", "uwwloadenteringuwwtp": "48549", "uwwcapacity": "49500", "uwwprimarytreatment": "true", "uwwsecondarytreatment": "true", "uwwothertreatment": "true", "uwwnremoval": "true", "uwwpremoval": "true", "uwwuv": "false", "uwwchlorination": "false", "uwwozonation": "false", "uwwsandfiltration": "false", "uwwmicrofiltration": "false", "uwwother": "false", "uwwspecification": "", "uwwbod5perf": "P", "uwwcodperf": "P", "uwwtssperf": "NR", "uwwntotperf": "NR", "uwwptotperf": "NR", "uwwotherperf": "", "uwwbadperformance": "false", "uwwaccidents": "false", "uwwbaddesign": "false", "uwwinformation": "", "uwwbodincomingmeasured": 1063.23, "uwwbodincomingcalculated": "", "uwwbodincomingestimated": "", "uwwcodincomingmeasured": 2486.784438, "uwwcodincomingcalculated": "", "uwwcodincomingestimated": "", "uwwnincomingmeasured": 232.044, "uwwnincomingcalculated": "", "uwwnincomingestimated": "", "uwwpincomingmeasured": 28.223724, "uwwpincomingcalculated": "", "uwwpincomingestimated": "", "uwwboddischargemeasured": 12.6636, "uwwboddischargecalculated": "", "uwwboddischargeestimated": "", "uwwcoddischargemeasured": 134.322, "uwwcoddischargecalculated": "", "uwwcoddischargeestimated": "", "uwwndischargemeasured": 13.8348, "uwwndischargecalculated": "", "uwwndischargeestimated": "", "uwwpdischargemeasured": 1.098, "uwwpdischargecalculated": "", "uwwpdischargeestimated": "", "uwwwastewatertreated": "3501443", "uwwmethodwastewatertreated": "", "uwwwastewaterreuse": "", "uwwbeginlife": "", "uwwendlife": "", "uwwhyperlink": "", "uwwinspireidfacility": "", "uwwremarks": "" }, "bbox": [ 106239.95963154809, 461274.78244322713, 106239.95963154809, 461274.78244322713 ], "geometry": { "type": "MultiPoint", "coordinates": [ [ 106239.95963154809, 461274.78244322713 ] ] } },
{ "type": "Feature", "id": "rsa_rwzi.f3560137-5510-4200-b837-8644c1d86ba8", "properties": { "objectid": 200, "uwwstate": "1", "repcode": "NL2022", "uwwcode": "NL13042", "uwwname": "UWWTP BODEGRAVEN", "uwwcollectingsystem": "ISCON", "uwwdateclosing": "", "uwwhistorie": "", "uwwlatitude": 52.08218333, "uwwlongitude": 4.7346, "uwwnuts": "NL33B", "uwwloadenteringuwwtp": "53830", "uwwcapacity": "54000", "uwwprimarytreatment": "true", "uwwsecondarytreatment": "true", "uwwothertreatment": "true", "uwwnremoval": "true", "uwwpremoval": "true", "uwwuv": "false", "uwwchlorination": "false", "uwwozonation": "false", "uwwsandfiltration": "false", "uwwmicrofiltration": "false", "uwwother": "false", "uwwspecification": "", "uwwbod5perf": "P", "uwwcodperf": "P", "uwwtssperf": "NR", "uwwntotperf": "NR", "uwwptotperf": "NR", "uwwotherperf": "", "uwwbadperformance": "false", "uwwaccidents": "false", "uwwbaddesign": "false", "uwwinformation": "", "uwwbodincomingmeasured": 1178.886, "uwwbodincomingcalculated": "", "uwwbodincomingestimated": "", "uwwcodincomingmeasured": 2801.840166, "uwwcodincomingcalculated": "", "uwwcodincomingestimated": "", "uwwnincomingmeasured": 172.02, "uwwnincomingcalculated": "", "uwwnincomingestimated": "", "uwwpincomingmeasured": 27.241014, "uwwpincomingcalculated": "", "uwwpincomingestimated": "", "uwwboddischargemeasured": 13.1394, "uwwboddischargecalculated": "", "uwwboddischargeestimated": "", "uwwcoddischargemeasured": 152.622, "uwwcoddischargecalculated": "", "uwwcoddischargeestimated": "", "uwwndischargemeasured": 12.4074, "uwwndischargecalculated": "", "uwwndischargeestimated": "", "uwwpdischargemeasured": 1.6104, "uwwpdischargecalculated": "", "uwwpdischargeestimated": "", "uwwwastewatertreated": "4158694", "uwwmethodwastewatertreated": "", "uwwwastewaterreuse": "", "uwwbeginlife": "", "uwwendlife": "", "uwwhyperlink": "", "uwwinspireidfacility": "", "uwwremarks": "" }, "bbox": [ 110267.04356415218, 455080.1918849395, 110267.04356415218, 455080.1918849395 ], "geometry": { "type": "MultiPoint", "coordinates": [ [ 110267.04356415218, 455080.1918849395 ] ] } },
{ "type": "Feature", "id": "rsa_rwzi.f6deb2d1-16da-4c81-b847-3496ae473745", "properties": { "objectid": 204, "uwwstate": "1", "repcode": "NL2022", "uwwcode": "NL13048", "uwwname": "UWWTP WADDINXVEEN RANDENBURG", "uwwcollectingsystem": "ISCON", "uwwdateclosing": "", "uwwhistorie": "", "uwwlatitude": 52.05696666, "uwwlongitude": 4.66615, "uwwnuts": "NL33B", "uwwloadenteringuwwtp": "44371", "uwwcapacity": "41670", "uwwprimarytreatment": "true", "uwwsecondarytreatment": "true", "uwwothertreatment": "true", "uwwnremoval": "true", "uwwpremoval": "true", "uwwuv": "false", "uwwchlorination": "false", "uwwozonation": "false", "uwwsandfiltration": "false", "uwwmicrofiltration": "false", "uwwother": "false", "uwwspecification": "", "uwwbod5perf": "P", "uwwcodperf": "P", "uwwtssperf": "NR", "uwwntotperf": "NR", "uwwptotperf": "NR", "uwwotherperf": "", "uwwbadperformance": "false", "uwwaccidents": "false", "uwwbaddesign": "false", "uwwinformation": "", "uwwbodincomingmeasured": 971.73, "uwwbodincomingcalculated": "", "uwwbodincomingestimated": "", "uwwcodincomingmeasured": 2317.505778, "uwwcodincomingcalculated": "", "uwwcodincomingestimated": "", "uwwnincomingmeasured": 197.274, "uwwnincomingcalculated": "", "uwwnincomingestimated": "", "uwwpincomingmeasured": 25.28511, "uwwpincomingcalculated": "", "uwwpincomingestimated": "", "uwwboddischargemeasured": 17.6412, "uwwboddischargecalculated": "", "uwwboddischargeestimated": "", "uwwcoddischargemeasured": 186.294, "uwwcoddischargecalculated": "", "uwwcoddischargeestimated": "", "uwwndischargemeasured": 16.2504, "uwwndischargecalculated": "", "uwwndischargeestimated": "", "uwwpdischargemeasured": 1.098, "uwwpdischargecalculated": "", "uwwpdischargeestimated": "", "uwwwastewatertreated": "4767174", "uwwmethodwastewatertreated": "", "uwwwastewaterreuse": "", "uwwbeginlife": "", "uwwendlife": "", "uwwhyperlink": "", "uwwinspireidfacility": "", "uwwremarks": "" }, "bbox": [ 105547.36567467547, 452319.10776533082, 105547.36567467547, 452319.10776533082 ], "geometry": { "type": "MultiPoint", "coordinates": [ [ 105547.36567467547, 452319.10776533082 ] ] } },
{ "type": "Feature", "id": "rsa_rwzi.ca23cc6f-60db-4074-a66c-16d523f98551", "properties": { "objectid": 205, "uwwstate": "1", "repcode": "NL2022", "uwwcode": "NL13049", "uwwname": "UWWTP ALPHEN KERK & ZANEN", "uwwcollectingsystem": "ISCON", "uwwdateclosing": "", "uwwhistorie": "", "uwwlatitude": 52.12786666, "uwwlongitude": 4.62675, "uwwnuts": "NL33B", "uwwloadenteringuwwtp": "52877", "uwwcapacity": "67500", "uwwprimarytreatment": "true", "uwwsecondarytreatment": "true", "uwwothertreatment": "true", "uwwnremoval": "true", "uwwpremoval": "true", "uwwuv": "false", "uwwchlorination": "false", "uwwozonation": "false", "uwwsandfiltration": "false", "uwwmicrofiltration": "false", "uwwother": "false", "uwwspecification": "", "uwwbod5perf": "P", "uwwcodperf": "P", "uwwtssperf": "NR", "uwwntotperf": "NR", "uwwptotperf": "NR", "uwwotherperf": "", "uwwbadperformance": "false", "uwwaccidents": "false", "uwwbaddesign": "false", "uwwinformation": "", "uwwbodincomingmeasured": 1158.024, "uwwbodincomingcalculated": "", "uwwbodincomingestimated": "", "uwwcodincomingmeasured": 3004.981146, "uwwcodincomingcalculated": "", "uwwcodincomingestimated": "", "uwwnincomingmeasured": 244.854, "uwwnincomingcalculated": "", "uwwnincomingestimated": "", "uwwpincomingmeasured": 33.394206, "uwwpincomingcalculated": "", "uwwpincomingestimated": "", "uwwboddischargemeasured": 17.0922, "uwwboddischargecalculated": "", "uwwboddischargeestimated": "", "uwwcoddischargemeasured": 172.02, "uwwcoddischargecalculated": "", "uwwcoddischargeestimated": "", "uwwndischargemeasured": 23.79, "uwwndischargecalculated": "", "uwwndischargeestimated": "", "uwwpdischargemeasured": 1.3908, "uwwpdischargecalculated": "", "uwwpdischargeestimated": "", "uwwwastewatertreated": "4947323", "uwwmethodwastewatertreated": "", "uwwwastewaterreuse": "", "uwwbeginlife": "", "uwwendlife": "", "uwwhyperlink": "", "uwwinspireidfacility": "", "uwwremarks": "" }, "bbox": [ 102927.84716036638, 460234.66491505591, 102927.84716036638, 460234.66491505591 ], "geometry": { "type": "MultiPoint", "coordinates": [ [ 102927.84716036638, 460234.66491505591 ] ] } },
{ "type": "Feature", "id": "rsa_rwzi.166bdaca-310f-4d33-85d7-fc1f8ea88c71", "properties": { "objectid": 206, "uwwstate": "1", "repcode": "NL2022", "uwwcode": "NL14002", "uwwname": "UWWTP WOERDEN", "uwwcollectingsystem": "ISCON", "uwwdateclosing": "", "uwwhistorie": "", "uwwlatitude": 52.08566666, "uwwlongitude": 4.85466666, "uwwnuts": "NL310", "uwwloadenteringuwwtp": "49836", "uwwcapacity": "56970", "uwwprimarytreatment": "true", "uwwsecondarytreatment": "true", "uwwothertreatment": "true", "uwwnremoval": "true", "uwwpremoval": "true", "uwwuv": "false", "uwwchlorination": "false", "uwwozonation": "false", "uwwsandfiltration": "false", "uwwmicrofiltration": "false", "uwwother": "false", "uwwspecification": "", "uwwbod5perf": "P", "uwwcodperf": "P", "uwwtssperf": "NR", "uwwntotperf": "NR", "uwwptotperf": "NR", "uwwotherperf": "", "uwwbadperformance": "false", "uwwaccidents": "false", "uwwbaddesign": "false", "uwwinformation": "", "uwwbodincomingmeasured": 1091.412, "uwwbodincomingcalculated": "", "uwwbodincomingestimated": "", "uwwcodincomingmeasured": 2623.05429, "uwwcodincomingcalculated": "", "uwwcodincomingestimated": "", "uwwnincomingmeasured": 236.802, "uwwnincomingcalculated": "", "uwwnincomingestimated": "", "uwwpincomingmeasured": 32.778594, "uwwpincomingcalculated": "", "uwwpincomingestimated": "", "uwwboddischargemeasured": 18.8124, "uwwboddischargecalculated": "", "uwwboddischargeestimated": "", "uwwcoddischargemeasured": 210.816, "uwwcoddischargecalculated": "", "uwwcoddischargeestimated": "", "uwwndischargemeasured": 47.214, "uwwndischargecalculated": "", "uwwndischargeestimated": "", "uwwpdischargemeasured": 3.843, "uwwpdischargecalculated": "", "uwwpdischargeestimated": "", "uwwwastewatertreated": "5578998", "uwwmethodwastewatertreated": "", "uwwwastewaterreuse": "", "uwwbeginlife": "", "uwwendlife": "", "uwwhyperlink": "", "uwwinspireidfacility": "", "uwwremarks": "" }, "bbox": [ 118499.76041983432, 455400.57325419702, 118499.76041983432, 455400.57325419702 ], "geometry": { "type": "MultiPoint", "coordinates": [ [ 118499.76041983432, 455400.57325419702 ] ] } }
],
"bbox": [ 102927.847160366, 448015.185644, 118499.760419834, 461274.782443227 ]
}
