{
"type": "FeatureCollection",
"numberMatched": 6,
"name": "rsa_lozingspunten",
"crs": { "type": "name", "properties": { "name": "urn:ogc:def:crs:EPSG::28992" } },
"features": [
{ "type": "Feature", "id": "rsa_lozingspunten.18dbd986-763a-4851-9325-751854089551", "properties": { "objectid": 162, "dcpstate": "1", "repcode": "NL2022", "uwwcode": "NL10032", "dcpcode": "NLDP10032", "dcpname": "DISCHARGE POINT  UWWTP OUDEWATER", "dcpnuts": "NL310", "dcplatitude": 52.0201, "dcplongitude": 4.85458333, "dcpwaterbodytype": "FW", "dcpirrigation": "", "dcptypeofreceivingarea": "A5854", "rcacode": "NL2014", "dcpsurfacewaters": "true", "dcpwaterbodyid": "NL14_10", "dcpnotaffect": "", "dcpmsprovide": "", "dcpcomaccept": "", "dcpgroundwater": "", "dcpreceivingwater": "NL09120", "dcpwfdsubunit": "NLRN", "dcpwfdrbd": "NLRN", "dcpwaterbodyreferencedate": "", "dcpgroundwaterreferencedate": "", "dcpreceivingwaterreferencedate": "", "dcpwfdsubunitreferencedate": "", "dcpwfdrbdreferencedate": "", "dcpbeginlife": "", "dcpendlife": "", "dcpremarks": "" }, "bbox": [ 118440.51838168345, 448105.92692315875, 118440.51838168345, 448105.92692315875 ], "geometry": { "type": "MultiPoint", "coordinates": [ [ 118440.51838168345, 448105.92692315875 ] ] } },
{ "type": "Feature", "id": "rsa_lozingspunten.e3f807a1-e118-4409-8f35-d3d168c670ca", "properties": { "objectid": 200, "dcpstate": "1", "repcode": "NL2022", "uwwcode": "NL13035", "dcpcode": "NLDP13035", "dcpname": "DISCHARGE POINT  UWWTP ALPHEN NOORD", "dcpnuts": "NL33B", "dcplatitude": 52.13306666, "dcplongitude": 4.62231666, "dcpwaterbodytype": "FW", "dcpirrigation": "", "dcptypeofreceivingarea": "A5854", "rcacode": "NL2014", "dcpsurfacewaters": "true", "dcpwaterbodyid": "NL13_38_2", "dcpnotaffect": "", "dcpmsprovide": "", "dcpcomaccept": "", "dcpgroundwater": "", "dcpreceivingwater": "NL55102", "dcpwfdsubunit": "NLRN", "dcpwfdrbd": "NLRN", "dcpwaterbodyreferencedate": "", "dcpgroundwaterreferencedate": "", "dcpreceivingwaterreferencedate": "", "dcpwfdsubunitreferencedate": "", "dcpwfdrbdreferencedate": "", "dcpbeginlife": "", "dcpendlife": "", "dcpremarks": "" }, "bbox": [ 102630.37862842789, 460816.38256740395, 102630.37862842789, 460816.38256740395 ], "geometry": { "type": "MultiPoint", "coordinates": [ [ 102630.37862842789, 460816.38256740395 ] ] } },
{ "type": "Feature", "id": "rsa_lozingspunten.d4f595c2-74bf-40a7-83c9-efdd73a390c0", "properties": { "objectid": 204, "dcpstate": "1", "repcode": "NL2022", "uwwcode": "NL13042", "dcpcode": "NLDP13042", "dcpname": "DISCHARGE POINT  UWWTP BODEGRAVEN", "dcpnuts": "NL33B", "dcplatitude": 52.08381666, "dcplongitude": 4.73645, "dcpwaterbodytype": "FW", "dcpirrigation": "", "dcptypeofreceivingarea": "A5854", "rcacode": "NL2014", "dcpsurfacewaters": "true", "dcpwaterbodyid": "NL13_38_2", "dcpnotaffect": "", "dcpmsprovide": "", "dcpcomaccept": "", "dcpgroundwater": "", "dcpreceivingwater": "NL55102", "dcpwfdsubunit": "NLRN", "dcpwfdrbd": "NLRN", "dcpwaterbodyreferencedate": "", "dcpgroundwaterreferencedate": "", "dcpreceivingwaterreferencedate": "", "dcpwfdsubunitreferencedate": "", "dcpwfdrbdreferencedate": "", "dcpbeginlife": "", "dcpendlife": "", "dcpremarks": "" }, "bbox": [ 110395.47930143296, 455260.77119112387, 110395.47930143296, 455260.77119112387 ], "geometry": { "type": "MultiPoint", "coordinates": [ [ 110395.47930143296, 455260.77119112387 ] ] } },
{ "type": "Feature", "id": "rsa_lozingspunten.2f24f190-a076-415c-b6f0-9896e055158c", "properties": { "objectid": 208, "dcpstate": "1", "repcode": "NL2022", "uwwcode": "NL13048", "dcpcode": "NLDP13048", "dcpname": "DISCHARGE POINT  UWWTP WADDINXVEEN RANDENBURG", "dcpnuts": "NL33B", "dcplatitude": 52.05861666, "dcplongitude": 4.66318333, "dcpwaterbodytype": "FW", "dcpirrigation": "", "dcptypeofreceivingarea": "A5854", "rcacode": "NL2014", "dcpsurfacewaters": "true", "dcpwaterbodyid": "NL13_38_2", "dcpnotaffect": "", "dcpmsprovide": "", "dcpcomaccept": "", "dcpgroundwater": "", "dcpreceivingwater": "NL00264", "dcpwfdsubunit": "NLRN", "dcpwfdrbd": "NLRN", "dcpwaterbodyreferencedate": "", "dcpgroundwaterreferencedate": "", "dcpreceivingwaterreferencedate": "", "dcpwfdsubunitreferencedate": "", "dcpwfdrbdreferencedate": "", "dcpbeginlife": "", "dcpendlife": "", "dcpremarks": "" }, "bbox": [ 105345.73487569908, 452504.70398760115, 105345.73487569908, 452504.70398760115 ], "geometry": { "type": "MultiPoint", "coordinates": [ [ 105345.73487569908, 452504.70398760115 ] ] } },
{ "type": "Feature", "id": "rsa_lozingspunten.59393f95-c53e-44f2-8125-1c5486dfecd6", "properties": { "objectid": 209, "dcpstate": "1", "repcode": "NL2022", "uwwcode": "NL13049", "dcpcode": "NLDP13049", "dcpname": "DISCHARGE POINT  UWWTP ALPHEN KERK & ZANEN", "dcpnuts": "NL33B", "dcplatitude": 52.14023333, "dcplongitude": 4.66226666, "dcpwaterbodytype": "FW", "dcpirrigation": "", "dcptypeofreceivingarea": "A5854", "rcacode": "NL2014", "dcpsurfacewaters": "true", "dcpwaterbodyid": "NL13_38_2", "dcpnotaffect": "", "dcpmsprovide": "", "dcpcomaccept": "", "dcpgroundwater": "", "dcpreceivingwater": "NL55102", "dcpwfdsubunit": "NLRN", "dcpwfdrbd": "NLRN", "dcpwaterbodyreferencedate": "", "dcpgroundwaterreferencedate": "", "dcpreceivingwaterreferencedate": "", "dcpwfdsubunitreferencedate": "", "dcpwfdrbdreferencedate": "", "dcpbeginlife": "", "dcpendlife": "", "dcpremarks": "" }, "bbox": [ 105373.55013590932, 461585.63903813763, 105373.55013590932, 461585.63903813763 ], "geometry": { "type": "MultiPoint", "coordinates": [ [ 105373.55013590932, 461585.63903813763 ] ] } },
{ "type": "Feature", "id": "rsa_lozingspunten.a1df7800-ea43-4f5d-b895-876a6bbf77d9", "properties": { "objectid": 210, "dcpstate": "1", "repcode": "NL2022", "uwwcode": "NL14002", "dcpcode": "NLDP14002", "dcpname": "DISCHARGE POINT  UWWTP WOERDEN", "dcpnuts": "NL310", "dcplatitude": 52.08746666, "dcplongitude": 4.85465, "dcpwaterbodytype": "FW", "dcpirrigation": "", "dcptypeofreceivingarea": "A5854", "rcacode": "NL2014", "dcpsurfacewaters": "true", "dcpwaterbodyid": "NL14_27", "dcpnotaffect": "", "dcpmsprovide": "", "dcpcomaccept": "", "dcpgroundwater": "", "dcpreceivingwater": "NL55103", "dcpwfdsubunit": "NLRN", "dcpwfdrbd": "NLRN", "dcpwaterbodyreferencedate": "", "dcpgroundwaterreferencedate": "", "dcpreceivingwaterreferencedate": "", "dcpwfdsubunitreferencedate": "", "dcpwfdrbdreferencedate": "", "dcpbeginlife": "", "dcpendlife": "", "dcpremarks": "" }, "bbox": [ 118500.08843929172, 455600.8440642698, 118500.08843929172, 455600.8440642698 ], "geometry": { "type": "MultiPoint", "coordinates": [ [ 118500.08843929172, 455600.8440642698 ] ] } }
],
"bbox": [ 102630.378628428, 448105.926923159, 118500.088439292, 461585.639038138 ]
}
