{"type": "FeatureCollection", "features": [{"type": "Feature", "id": 2, "geometry": {"type": "Point", "coordinates": [106240.26399999857, 461275.27600000054]}, "properties": {"CODE": "AN-027-00001", "NAAM": "AWZI Alphen-Noord", "STATUSOBJECT": "gerealiseerd", "OPMERKING": null, "HYPERLINK": null, "INWINNENDEINSTANTIE": "Hoogheemraadschap van Rijnland", "METENDEINSTANTIE": null, "INWINNINGSMETHODE": null, "DIMENSIE": "2D", "NAUWKEURIGHEIDXY": null, "NAUWKEURIGHEIDZ": null, "DATUMINWINNING": null, "GEOKPOBJECTID": 133, "LAST_EDITED_DATE": 1727083849000, "LONGITUDE": 4.67497168, "LATITUDE": 52.13752079, "XCOORDINAAT": 106240.26, "YCOORDINAAT": 461275.28, "ORACLE_OBJECTID": 647, "JAARVANAANLEG": 1972, "ADRES": "Kennedylaan 10", "POSTCODE": "2406LJ", "PLAATS": "ALPHEN AAN DEN RIJN", "HYPERLINKFOTO1": "X:\\Irisdata\\Intranet\\fotos\\awzi\\Alphen Noord 2001.jpg", "HYPERLINKFOTO2": null, "BIOLOGISCHECAPACITEIT": 70000, "HYDRAULISCHECAPACITEIT": 1400, "KRITIEKETIJD": null, "HYPERLINKSCHEMAKAART": null, "HYPERLINKBEHEERKAART": null, "TYPERWZI": "Actiefslib ana\u00ebroob-intermitterend belucht-a\u00ebrobe tank", "INHOUD": null, "SLIBBELASTING": null, "MILIEUZONE": null, "MAXIMALEPOMPCAPACITEIT": null, "MAXIMALECAPACITEITUURDWA": 625, "INWONEREQUIVALENTBEDRIJVEN": null, "INWONEREQUIVALENTINWONERS": null, "INWONEREQUIVALENTRECREATIE": null, "LOZINGSPUNT": "Oude Rijn", "REFERENTIENRCBS": 13035, "EIGENAAR": "Waterschap", "BEHEERDER": "Waterschap", "LAATSTERENOVATIE": 852076800000, "NAMESPACE": "RWZI", "DETAILNIVEAUGEOMETRIE": null, "LVPUBLICATIEDATUM": null, "DATUMOPGEHEVEN": null, "CODECOMPLEX": null, "OBJECTID2": 2}}, {"type": "Feature", "id": 4, "geometry": {"type": "Point", "coordinates": [102928.09899999946, 460233.6279999986]}, "properties": {"CODE": "AZ-027-00001", "NAAM": "AWZI Alphen Kerk en Zanen", "STATUSOBJECT": "gerealiseerd", "OPMERKING": null, "HYPERLINK": null, "INWINNENDEINSTANTIE": "Hoogheemraadschap van Rijnland", "METENDEINSTANTIE": null, "INWINNINGSMETHODE": null, "DIMENSIE": "2D", "NAUWKEURIGHEIDXY": null, "NAUWKEURIGHEIDZ": null, "DATUMINWINNING": null, "GEOKPOBJECTID": 142, "LAST_EDITED_DATE": 1727083849000, "LONGITUDE": 4.62675435, "LATITUDE": 52.12785713, "XCOORDINAAT": 102928.1, "YCOORDINAAT": 460233.63, "ORACLE_OBJECTID": 651, "JAARVANAANLEG": 1994, "ADRES": "Leidsche Schouw 4", "POSTCODE": "2408AE", "PLAATS": "ALPHEN AAN DEN RIJN", "HYPERLINKFOTO1": "X:\\Irisdata\\Intranet\\fotos\\awzi\\Alphen Kerk en Zanen.jpg", "HYPERLINKFOTO2": "X:\\Irisdata\\Intranet\\fotos\\awzi\\Alphen Kerk en Zanen 2001.jpg", "BIOLOGISCHECAPACITEIT": 95000, "HYDRAULISCHECAPACITEIT": 2250, "KRITIEKETIJD": null, "HYPERLINKSCHEMAKAART": null, "HYPERLINKBEHEERKAART": null, "TYPERWZI": "Actiefslib ana\u00ebroob-intermitterend belucht-a\u00ebrobe tank", "INHOUD": null, "SLIBBELASTING": null, "MILIEUZONE": null, "MAXIMALEPOMPCAPACITEIT": null, "MAXIMALECAPACITEITUURDWA": 940, "INWONEREQUIVALENTBEDRIJVEN": null, "INWONEREQUIVALENTINWONERS": null, "INWONEREQUIVALENTRECREATIE": null, "LOZINGSPUNT": "Oude Rijn", "REFERENTIENRCBS": 13049, "EIGENAAR": "Waterschap", "BEHEERDER": "Waterschap", "LAATSTERENOVATIE": null, "NAMESPACE": "RWZI", "DETAILNIVEAUGEOMETRIE": null, "LVPUBLICATIEDATUM": null, "DATUMOPGEHEVEN": null, "CODECOMPLEX": null, "OBJECTID2": 4}}, {"type": "Feature", "id": 5, "geometry": {"type": "Point", "coordinates": [110267.29300000146, 455079.68200000003]}, "properties": {"CODE": "BG-027-00001", "NAAM": "AWZI Bodegraven", "STATUSOBJECT": "gerealiseerd", "OPMERKING": null, "HYPERLINK": null, "INWINNENDEINSTANTIE": "Hoogheemraadschap van Rijnland", "METENDEINSTANTIE": null, "INWINNINGSMETHODE": null, "DIMENSIE": "2D", "NAUWKEURIGHEIDXY": null, "NAUWKEURIGHEIDZ": null, "DATUMINWINNING": null, "GEOKPOBJECTID": 145, "LAST_EDITED_DATE": 1727083849000, "LONGITUDE": 4.73460405, "LATITUDE": 52.08217826, "XCOORDINAAT": 110267.29, "YCOORDINAAT": 455079.68, "ORACLE_OBJECTID": 652, "JAARVANAANLEG": 1977, "ADRES": "J.C.Hoogendoornlaan 2a", "POSTCODE": "2411NB", "PLAATS": "BODEGRAVEN", "HYPERLINKFOTO1": "X:\\Irisdata\\Intranet\\fotos\\awzi\\Bodegraven.jpg", "HYPERLINKFOTO2": null, "BIOLOGISCHECAPACITEIT": 76000, "HYDRAULISCHECAPACITEIT": 2400, "KRITIEKETIJD": null, "HYPERLINKSCHEMAKAART": null, "HYPERLINKBEHEERKAART": null, "TYPERWZI": "Actiefslib ana\u00ebroob-intermitterend belucht-a\u00ebrobe tank", "INHOUD": null, "SLIBBELASTING": null, "MILIEUZONE": null, "MAXIMALEPOMPCAPACITEIT": null, "MAXIMALECAPACITEITUURDWA": 450, "INWONEREQUIVALENTBEDRIJVEN": null, "INWONEREQUIVALENTINWONERS": null, "INWONEREQUIVALENTRECREATIE": null, "LOZINGSPUNT": "zijtak Oude Rijn", "REFERENTIENRCBS": 13042, "EIGENAAR": "Waterschap", "BEHEERDER": "Waterschap", "LAATSTERENOVATIE": 915148800000, "NAMESPACE": "RWZI", "DETAILNIVEAUGEOMETRIE": null, "LVPUBLICATIEDATUM": null, "DATUMOPGEHEVEN": null, "CODECOMPLEX": null, "OBJECTID2": 5}}, {"type": "Feature", "id": 10, "geometry": {"type": "Point", "coordinates": [105546.69999999925, 452319.48900000006]}, "properties": {"CODE": "WR-027-00001", "NAAM": "AWZI Waddinxveen-Randenburg", "STATUSOBJECT": "gerealiseerd", "OPMERKING": null, "HYPERLINK": null, "INWINNENDEINSTANTIE": "Hoogheemraadschap van Rijnland", "METENDEINSTANTIE": null, "INWINNINGSMETHODE": null, "DIMENSIE": "2D", "NAUWKEURIGHEIDXY": null, "NAUWKEURIGHEIDZ": null, "DATUMINWINNING": null, "GEOKPOBJECTID": 146, "LAST_EDITED_DATE": 1739439100000, "LONGITUDE": 4.66614079, "LATITUDE": 52.05696964, "XCOORDINAAT": 105546.7, "YCOORDINAAT": 452319.49, "ORACLE_OBJECTID": 661, "JAARVANAANLEG": 1990, "ADRES": "Henegouwerweg 1", "POSTCODE": "2741KR", "PLAATS": "WADDINXVEEN", "HYPERLINKFOTO1": "X:\\Irisdata\\Intranet\\fotos\\awzi\\Reeuwijk Randenburg 2001.jpg", "HYPERLINKFOTO2": null, "BIOLOGISCHECAPACITEIT": 65000, "HYDRAULISCHECAPACITEIT": 1600, "KRITIEKETIJD": null, "HYPERLINKSCHEMAKAART": null, "HYPERLINKBEHEERKAART": null, "TYPERWZI": "Actiefslib ana\u00ebroob-intermitterend belucht-a\u00ebrobe tank", "INHOUD": null, "SLIBBELASTING": null, "MILIEUZONE": null, "MAXIMALEPOMPCAPACITEIT": null, "MAXIMALECAPACITEITUURDWA": 800, "INWONEREQUIVALENTBEDRIJVEN": null, "INWONEREQUIVALENTINWONERS": null, "INWONEREQUIVALENTRECREATIE": null, "LOZINGSPUNT": "Gouwe", "REFERENTIENRCBS": 13048, "EIGENAAR": "Waterschap", "BEHEERDER": "Waterschap", "LAATSTERENOVATIE": 1167609600000, "NAMESPACE": "RWZI", "DETAILNIVEAUGEOMETRIE": null, "LVPUBLICATIEDATUM": null, "DATUMOPGEHEVEN": null, "CODECOMPLEX": null, "OBJECTID2": 10}}]}