{"type": "FeatureCollection", "features": [{"type": "Feature", "id": 1, "geometry": {"type": "Point", "coordinates": [100054.66759999841, 454495.1878999993]}, "properties": {"ORACLE_OBJECTID": 37761, "CODE": "249-245-00001", "OPMERKING": null, "INWINNENDEINSTANTIE": "Hoogheemraadschap van Rijnland", "METENDEINSTANTIE": null, "INWINNINGSMETHODE": "digitaliseren", "DIMENSIE": "2D", "NAUWKEURIGHEIDXY": null, "NAUWKEURIGHEIDZ": null, "DATUMINWINNING": 1755561600000, "WS_BRON": null, "GEOKPOBJECTID": 5441, "LAST_EDITED_DATE": 1755588105000, "NAAM": null, "SOORTGELOOSDWATER": "huishoudelijk afvalwater", "STATUSOBJECT": "planvorming", "DEBIET": null, "FREQUENTIE": null, "HYPERLINK": null, "LONGITUDE": 4.58572024, "LATITUDE": 52.07600605, "XCOORDINAAT": 100054.67, "YCOORDINAAT": 454495.19, "EIGENAAR": "Derden", "CODERWZI": null, "CODEWATERGANG": null, "CODEIBA": "BEN-039-00001", "CODELEIDING": null, "CODERIOLERINGSGEBIED": null, "BEHEERDER": null, "BRON": "Vergunning", "CODECOMPLEX": null, "OBJECTID2": 1}}, {"type": "Feature", "id": 4, "geometry": {"type": "Point", "coordinates": [102970.0791000016, 456460.1746999994]}, "properties": {"ORACLE_OBJECTID": 36801, "CODE": "077-245-00001", "OPMERKING": null, "INWINNENDEINSTANTIE": null, "METENDEINSTANTIE": null, "INWINNINGSMETHODE": null, "DIMENSIE": "2D", "NAUWKEURIGHEIDXY": null, "NAUWKEURIGHEIDZ": null, "DATUMINWINNING": null, "WS_BRON": null, "GEOKPOBJECTID": 3841, "LAST_EDITED_DATE": 1754037890000, "NAAM": null, "SOORTGELOOSDWATER": "huishoudelijk afvalwater", "STATUSOBJECT": "planvorming", "DEBIET": null, "FREQUENTIE": null, "HYPERLINK": null, "LONGITUDE": 4.62794372, "LATITUDE": 52.09394772, "XCOORDINAAT": 102970.08, "YCOORDINAAT": 456460.17, "EIGENAAR": "Derden", "CODERWZI": null, "CODEWATERGANG": null, "CODEIBA": "HAZ-039-00001", "CODELEIDING": null, "CODERIOLERINGSGEBIED": null, "BEHEERDER": "Waterschap", "BRON": null, "CODECOMPLEX": null, "OBJECTID2": 4}}, {"type": "Feature", "id": 13, "geometry": {"type": "Point", "coordinates": [105281.91600000113, 461704.0920000002]}, "properties": {"ORACLE_OBJECTID": 36482, "CODE": "AN-245-00001", "OPMERKING": null, "INWINNENDEINSTANTIE": null, "METENDEINSTANTIE": null, "INWINNINGSMETHODE": null, "DIMENSIE": "2D", "NAUWKEURIGHEIDXY": null, "NAUWKEURIGHEIDZ": null, "DATUMINWINNING": null, "WS_BRON": null, "GEOKPOBJECTID": 647, "LAST_EDITED_DATE": 1754037890000, "NAAM": "Lozingspunt AWZI Alphen-Noord", "SOORTGELOOSDWATER": "effluent", "STATUSOBJECT": "gerealiseerd", "DEBIET": null, "FREQUENTIE": null, "HYPERLINK": null, "LONGITUDE": 4.66091151, "LATITUDE": 52.14128937, "XCOORDINAAT": 105281.92, "YCOORDINAAT": 461704.09, "EIGENAAR": "Waterschap", "CODERWZI": "AN-027-00001", "CODEWATERGANG": null, "CODEIBA": null, "CODELEIDING": "AN-081-00004", "CODERIOLERINGSGEBIED": null, "BEHEERDER": "Waterschap", "BRON": null, "CODECOMPLEX": null, "OBJECTID2": 13}}, {"type": "Feature", "id": 20, "geometry": {"type": "Point", "coordinates": [110395.09899999946, 455261.04300000146]}, "properties": {"ORACLE_OBJECTID": 36489, "CODE": "BG-245-00001", "OPMERKING": null, "INWINNENDEINSTANTIE": null, "METENDEINSTANTIE": null, "INWINNINGSMETHODE": null, "DIMENSIE": "2D", "NAUWKEURIGHEIDXY": null, "NAUWKEURIGHEIDZ": null, "DATUMINWINNING": null, "WS_BRON": null, "GEOKPOBJECTID": 649, "LAST_EDITED_DATE": 1754037890000, "NAAM": "Lozingspunt AWZI Bodegraven", "SOORTGELOOSDWATER": "effluent", "STATUSOBJECT": "gerealiseerd", "DEBIET": null, "FREQUENTIE": null, "HYPERLINK": null, "LONGITUDE": 4.73644477, "LATITUDE": 52.08381856, "XCOORDINAAT": 110395.1, "YCOORDINAAT": 455261.04, "EIGENAAR": "Waterschap", "CODERWZI": "BG-027-00001", "CODEWATERGANG": null, "CODEIBA": null, "CODELEIDING": "BG-081-00004", "CODERIOLERINGSGEBIED": null, "BEHEERDER": "Waterschap", "BRON": null, "CODECOMPLEX": null, "OBJECTID2": 20}}, {"type": "Feature", "id": 22, "geometry": {"type": "Point", "coordinates": [102624.43180000037, 460810.62310000136]}, "properties": {"ORACLE_OBJECTID": 36491, "CODE": "AZ-245-00001", "OPMERKING": null, "INWINNENDEINSTANTIE": null, "METENDEINSTANTIE": null, "INWINNINGSMETHODE": null, "DIMENSIE": "2D", "NAUWKEURIGHEIDXY": null, "NAUWKEURIGHEIDZ": null, "DATUMINWINNING": null, "WS_BRON": null, "GEOKPOBJECTID": 642, "LAST_EDITED_DATE": 1754037890000, "NAAM": "Lozingspunt AWZI Alphen Kerk en Zanen", "SOORTGELOOSDWATER": "effluent", "STATUSOBJECT": "gerealiseerd", "DEBIET": null, "FREQUENTIE": null, "HYPERLINK": null, "LONGITUDE": 4.62223122, "LATITUDE": 52.13301409, "XCOORDINAAT": 102624.43, "YCOORDINAAT": 460810.62, "EIGENAAR": "Waterschap", "CODERWZI": "AZ-027-00001", "CODEWATERGANG": null, "CODEIBA": null, "CODELEIDING": "AZ-081-00002", "CODERIOLERINGSGEBIED": null, "BEHEERDER": "Waterschap", "BRON": null, "CODECOMPLEX": null, "OBJECTID2": 22}}, {"type": "Feature", "id": 31, "geometry": {"type": "Point", "coordinates": [105342.59439999983, 452507.58260000125]}, "properties": {"ORACLE_OBJECTID": 36501, "CODE": "WR-245-00001", "OPMERKING": null, "INWINNENDEINSTANTIE": null, "METENDEINSTANTIE": null, "INWINNINGSMETHODE": null, "DIMENSIE": "2D", "NAUWKEURIGHEIDXY": null, "NAUWKEURIGHEIDZ": null, "DATUMINWINNING": null, "WS_BRON": null, "GEOKPOBJECTID": 665, "LAST_EDITED_DATE": 1754037890000, "NAAM": "Lozingspunt AWZI Waddinxveen-Randenburg", "SOORTGELOOSDWATER": "effluent", "STATUSOBJECT": "gerealiseerd", "DEBIET": null, "FREQUENTIE": null, "HYPERLINK": null, "LONGITUDE": 4.66313768, "LATITUDE": 52.05864187, "XCOORDINAAT": 105342.59, "YCOORDINAAT": 452507.58, "EIGENAAR": "Waterschap", "CODERWZI": "WR-027-00001", "CODEWATERGANG": null, "CODEIBA": null, "CODELEIDING": "WV-081-00001", "CODERIOLERINGSGEBIED": null, "BEHEERDER": "Waterschap", "BRON": null, "CODECOMPLEX": null, "OBJECTID2": 31}}, {"type": "Feature", "id": 43, "geometry": {"type": "Point", "coordinates": [110304.32829999924, 455069.1644000001]}, "properties": {"ORACLE_OBJECTID": 36515, "CODE": "BG-245-00003", "OPMERKING": null, "INWINNENDEINSTANTIE": null, "METENDEINSTANTIE": null, "INWINNINGSMETHODE": null, "DIMENSIE": "2D", "NAUWKEURIGHEIDXY": null, "NAUWKEURIGHEIDZ": null, "DATUMINWINNING": null, "WS_BRON": null, "GEOKPOBJECTID": 2580, "LAST_EDITED_DATE": 1775810631000, "NAAM": "Leiding BG-081-00004", "SOORTGELOOSDWATER": "influent", "STATUSOBJECT": "gerealiseerd", "DEBIET": null, "FREQUENTIE": null, "HYPERLINK": null, "LONGITUDE": 4.7351457, "LATITUDE": 52.08208672, "XCOORDINAAT": 110304.33, "YCOORDINAAT": 455069.16, "EIGENAAR": "Waterschap", "CODERWZI": "BG-027-00001", "CODEWATERGANG": null, "CODEIBA": null, "CODELEIDING": "BG-081-00003", "CODERIOLERINGSGEBIED": null, "BEHEERDER": "Waterschap", "BRON": null, "CODECOMPLEX": null, "OBJECTID2": 43}}, {"type": "Feature", "id": 44, "geometry": {"type": "Point", "coordinates": [110306.79210000113, 455071.4255999997]}, "properties": {"ORACLE_OBJECTID": 36516, "CODE": "BG-245-00004", "OPMERKING": null, "INWINNENDEINSTANTIE": null, "METENDEINSTANTIE": null, "INWINNINGSMETHODE": null, "DIMENSIE": "2D", "NAUWKEURIGHEIDXY": null, "NAUWKEURIGHEIDZ": null, "DATUMINWINNING": null, "WS_BRON": null, "GEOKPOBJECTID": 2581, "LAST_EDITED_DATE": 1778512965000, "NAAM": "Leiding BG-081-00001", "SOORTGELOOSDWATER": "influent", "STATUSOBJECT": "gerealiseerd", "DEBIET": null, "FREQUENTIE": null, "HYPERLINK": null, "LONGITUDE": 4.73518135, "LATITUDE": 52.08210725, "XCOORDINAAT": 110306.79, "YCOORDINAAT": 455071.43, "EIGENAAR": "Waterschap", "CODERWZI": "BG-027-00001", "CODEWATERGANG": null, "CODEIBA": null, "CODELEIDING": "BG-081-00001", "CODERIOLERINGSGEBIED": null, "BEHEERDER": "Waterschap", "BRON": null, "CODECOMPLEX": null, "OBJECTID2": 44}}, {"type": "Feature", "id": 45, "geometry": {"type": "Point", "coordinates": [110318.62170000002, 455151.91050000116]}, "properties": {"ORACLE_OBJECTID": 36517, "CODE": "BG-245-00006", "OPMERKING": null, "INWINNENDEINSTANTIE": null, "METENDEINSTANTIE": null, "INWINNINGSMETHODE": null, "DIMENSIE": "2D", "NAUWKEURIGHEIDXY": null, "NAUWKEURIGHEIDZ": null, "DATUMINWINNING": null, "WS_BRON": null, "GEOKPOBJECTID": 2583, "LAST_EDITED_DATE": 1754037890000, "NAAM": "Leiding ZW-081-00001", "SOORTGELOOSDWATER": "influent", "STATUSOBJECT": "gerealiseerd", "DEBIET": null, "FREQUENTIE": null, "HYPERLINK": null, "LONGITUDE": 4.73534337, "LATITUDE": 52.08283156, "XCOORDINAAT": 110318.62, "YCOORDINAAT": 455151.91, "EIGENAAR": "Waterschap", "CODERWZI": "BG-027-00001", "CODEWATERGANG": null, "CODEIBA": null, "CODELEIDING": "ZW-081-00001", "CODERIOLERINGSGEBIED": null, "BEHEERDER": "Waterschap", "BRON": null, "CODECOMPLEX": null, "OBJECTID2": 45}}, {"type": "Feature", "id": 46, "geometry": {"type": "Point", "coordinates": [110264.25930000097, 455132.46279999986]}, "properties": {"ORACLE_OBJECTID": 36518, "CODE": "BG-245-00007", "OPMERKING": null, "INWINNENDEINSTANTIE": null, "METENDEINSTANTIE": null, "INWINNINGSMETHODE": null, "DIMENSIE": "2D", "NAUWKEURIGHEIDXY": null, "NAUWKEURIGHEIDZ": null, "DATUMINWINNING": null, "WS_BRON": null, "GEOKPOBJECTID": 2584, "LAST_EDITED_DATE": 1785234012000, "NAAM": "Leiding BG-081-00007", "SOORTGELOOSDWATER": "influent", "STATUSOBJECT": "gerealiseerd", "DEBIET": null, "FREQUENTIE": null, "HYPERLINK": null, "LONGITUDE": 4.73455288, "LATITUDE": 52.08265239, "XCOORDINAAT": 110264.26, "YCOORDINAAT": 455132.46, "EIGENAAR": "Waterschap", "CODERWZI": "BG-027-00001", "CODEWATERGANG": null, "CODEIBA": null, "CODELEIDING": "BG-081-00005", "CODERIOLERINGSGEBIED": null, "BEHEERDER": "Waterschap", "BRON": null, "CODECOMPLEX": null, "OBJECTID2": 46}}, {"type": "Feature", "id": 50, "geometry": {"type": "Point", "coordinates": [96313.56700000167, 461284.07189999893]}, "properties": {"ORACLE_OBJECTID": 36530, "CODE": "AZ-245-00008", "OPMERKING": "leiding loost op RG", "INWINNENDEINSTANTIE": null, "METENDEINSTANTIE": null, "INWINNINGSMETHODE": null, "DIMENSIE": "2D", "NAUWKEURIGHEIDXY": null, "NAUWKEURIGHEIDZ": null, "DATUMINWINNING": null, "WS_BRON": null, "GEOKPOBJECTID": 2883, "LAST_EDITED_DATE": 1754306314000, "NAAM": "Leiding HR-081-00002  Rioleringsgebied ZWD-105", "SOORTGELOOSDWATER": "influent", "STATUSOBJECT": "gerealiseerd", "DEBIET": null, "FREQUENTIE": null, "HYPERLINK": null, "LONGITUDE": 4.52998544, "LATITUDE": 52.13663522, "XCOORDINAAT": 96313.57, "YCOORDINAAT": 461284.07, "EIGENAAR": "Waterschap", "CODERWZI": null, "CODEWATERGANG": null, "CODEIBA": null, "CODELEIDING": "HR-081-00002", "CODERIOLERINGSGEBIED": "ZWD-105", "BEHEERDER": "Waterschap", "BRON": null, "CODECOMPLEX": null, "OBJECTID2": 50}}, {"type": "Feature", "id": 51, "geometry": {"type": "Point", "coordinates": [106257.77400000021, 461264.1180000007]}, "properties": {"ORACLE_OBJECTID": 36531, "CODE": "AN-245-00002", "OPMERKING": null, "INWINNENDEINSTANTIE": null, "METENDEINSTANTIE": null, "INWINNINGSMETHODE": null, "DIMENSIE": "2D", "NAUWKEURIGHEIDXY": null, "NAUWKEURIGHEIDZ": null, "DATUMINWINNING": null, "WS_BRON": null, "GEOKPOBJECTID": 2567, "LAST_EDITED_DATE": 1760105602000, "NAAM": "Leiding AN-081-00005", "SOORTGELOOSDWATER": "influent", "STATUSOBJECT": "gerealiseerd", "DEBIET": null, "FREQUENTIE": null, "HYPERLINK": null, "LONGITUDE": 4.67522903, "LATITUDE": 52.13742206, "XCOORDINAAT": 106257.77, "YCOORDINAAT": 461264.12, "EIGENAAR": "Waterschap", "CODERWZI": "AN-027-00001", "CODEWATERGANG": null, "CODEIBA": null, "CODELEIDING": "AN-081-00006", "CODERIOLERINGSGEBIED": null, "BEHEERDER": "Waterschap", "BRON": null, "CODECOMPLEX": null, "OBJECTID2": 51}}, {"type": "Feature", "id": 52, "geometry": {"type": "Point", "coordinates": [106257.28400000185, 461261.12900000066]}, "properties": {"ORACLE_OBJECTID": 36532, "CODE": "AN-245-00003", "OPMERKING": null, "INWINNENDEINSTANTIE": null, "METENDEINSTANTIE": null, "INWINNINGSMETHODE": null, "DIMENSIE": "2D", "NAUWKEURIGHEIDXY": null, "NAUWKEURIGHEIDZ": null, "DATUMINWINNING": null, "WS_BRON": null, "GEOKPOBJECTID": 2568, "LAST_EDITED_DATE": 1760105814000, "NAAM": "Leiding AN-081-00003", "SOORTGELOOSDWATER": "influent", "STATUSOBJECT": "gerealiseerd", "DEBIET": null, "FREQUENTIE": null, "HYPERLINK": null, "LONGITUDE": 4.6752223, "LATITUDE": 52.13739515, "XCOORDINAAT": 106257.28, "YCOORDINAAT": 461261.13, "EIGENAAR": "Waterschap", "CODERWZI": "AN-027-00001", "CODEWATERGANG": null, "CODEIBA": null, "CODELEIDING": "AN-081-00003", "CODERIOLERINGSGEBIED": null, "BEHEERDER": "Waterschap", "BRON": null, "CODECOMPLEX": null, "OBJECTID2": 52}}, {"type": "Feature", "id": 53, "geometry": {"type": "Point", "coordinates": [106257.57499999925, 461262.8999999985]}, "properties": {"ORACLE_OBJECTID": 36533, "CODE": "AN-245-00004", "OPMERKING": null, "INWINNENDEINSTANTIE": null, "METENDEINSTANTIE": null, "INWINNINGSMETHODE": null, "DIMENSIE": "2D", "NAUWKEURIGHEIDXY": null, "NAUWKEURIGHEIDZ": null, "DATUMINWINNING": null, "WS_BRON": null, "GEOKPOBJECTID": 2570, "LAST_EDITED_DATE": 1760103922000, "NAAM": "Leiding AN-081-00001", "SOORTGELOOSDWATER": "influent", "STATUSOBJECT": "gerealiseerd", "DEBIET": null, "FREQUENTIE": null, "HYPERLINK": null, "LONGITUDE": 4.6752263, "LATITUDE": 52.13741109, "XCOORDINAAT": 106257.57, "YCOORDINAAT": 461262.9, "EIGENAAR": "Waterschap", "CODERWZI": "AN-027-00001", "CODEWATERGANG": null, "CODEIBA": null, "CODELEIDING": "AN-081-00001", "CODERIOLERINGSGEBIED": null, "BEHEERDER": "Waterschap", "BRON": null, "CODECOMPLEX": null, "OBJECTID2": 53}}, {"type": "Feature", "id": 54, "geometry": {"type": "Point", "coordinates": [106257.57699999958, 461261.75400000066]}, "properties": {"ORACLE_OBJECTID": 36534, "CODE": "AN-245-00005", "OPMERKING": null, "INWINNENDEINSTANTIE": null, "METENDEINSTANTIE": null, "INWINNINGSMETHODE": null, "DIMENSIE": "2D", "NAUWKEURIGHEIDXY": null, "NAUWKEURIGHEIDZ": null, "DATUMINWINNING": null, "WS_BRON": null, "GEOKPOBJECTID": 2571, "LAST_EDITED_DATE": 1760103871000, "NAAM": "Leiding AN-081-00002", "SOORTGELOOSDWATER": "influent", "STATUSOBJECT": "gerealiseerd", "DEBIET": null, "FREQUENTIE": null, "HYPERLINK": null, "LONGITUDE": 4.67522649, "LATITUDE": 52.13740079, "XCOORDINAAT": 106257.58, "YCOORDINAAT": 461261.75, "EIGENAAR": "Waterschap", "CODERWZI": "AN-027-00001", "CODEWATERGANG": null, "CODEIBA": null, "CODELEIDING": "AN-081-00002", "CODERIOLERINGSGEBIED": null, "BEHEERDER": "Waterschap", "BRON": null, "CODECOMPLEX": null, "OBJECTID2": 54}}, {"type": "Feature", "id": 55, "geometry": {"type": "Point", "coordinates": [102966.98099999875, 460300.43499999866]}, "properties": {"ORACLE_OBJECTID": 36535, "CODE": "AZ-245-00003", "OPMERKING": null, "INWINNENDEINSTANTIE": null, "METENDEINSTANTIE": null, "INWINNINGSMETHODE": null, "DIMENSIE": "2D", "NAUWKEURIGHEIDXY": null, "NAUWKEURIGHEIDZ": null, "DATUMINWINNING": null, "WS_BRON": null, "GEOKPOBJECTID": 2573, "LAST_EDITED_DATE": 1777645191000, "NAAM": "Leiding AL-081-00001", "SOORTGELOOSDWATER": "influent", "STATUSOBJECT": "gerealiseerd", "DEBIET": null, "FREQUENTIE": null, "HYPERLINK": null, "LONGITUDE": 4.62731191, "LATITUDE": 52.1284612, "XCOORDINAAT": 102966.98, "YCOORDINAAT": 460300.43, "EIGENAAR": "Waterschap", "CODERWZI": "AZ-027-00001", "CODEWATERGANG": null, "CODEIBA": null, "CODELEIDING": "AL-081-00001", "CODERIOLERINGSGEBIED": null, "BEHEERDER": "Waterschap", "BRON": null, "CODECOMPLEX": null, "OBJECTID2": 55}}, {"type": "Feature", "id": 56, "geometry": {"type": "Point", "coordinates": [102994.30600000173, 460297.2800000012]}, "properties": {"ORACLE_OBJECTID": 36536, "CODE": "AZ-245-00004", "OPMERKING": null, "INWINNENDEINSTANTIE": null, "METENDEINSTANTIE": null, "INWINNINGSMETHODE": null, "DIMENSIE": "2D", "NAUWKEURIGHEIDXY": null, "NAUWKEURIGHEIDZ": null, "DATUMINWINNING": null, "WS_BRON": null, "GEOKPOBJECTID": 2575, "LAST_EDITED_DATE": 1754037890000, "NAAM": "Leiding HD-081-00002", "SOORTGELOOSDWATER": "influent", "STATUSOBJECT": "gerealiseerd", "DEBIET": null, "FREQUENTIE": null, "HYPERLINK": null, "LONGITUDE": 4.62771142, "LATITUDE": 52.12843542, "XCOORDINAAT": 102994.31, "YCOORDINAAT": 460297.28, "EIGENAAR": "Waterschap", "CODERWZI": "AZ-027-00001", "CODEWATERGANG": null, "CODEIBA": null, "CODELEIDING": "HD-081-00002", "CODERIOLERINGSGEBIED": null, "BEHEERDER": "Waterschap", "BRON": null, "CODECOMPLEX": null, "OBJECTID2": 56}}, {"type": "Feature", "id": 57, "geometry": {"type": "Point", "coordinates": [102960.79699999839, 460298.3990000002]}, "properties": {"ORACLE_OBJECTID": 36537, "CODE": "AZ-245-00005", "OPMERKING": null, "INWINNENDEINSTANTIE": null, "METENDEINSTANTIE": null, "INWINNINGSMETHODE": null, "DIMENSIE": "2D", "NAUWKEURIGHEIDXY": null, "NAUWKEURIGHEIDZ": null, "DATUMINWINNING": null, "WS_BRON": null, "GEOKPOBJECTID": 2576, "LAST_EDITED_DATE": 1759743511000, "NAAM": "Leiding KK-081-00001", "SOORTGELOOSDWATER": "influent", "STATUSOBJECT": "gerealiseerd", "DEBIET": null, "FREQUENTIE": null, "HYPERLINK": null, "LONGITUDE": 4.62722192, "LATITUDE": 52.12844232, "XCOORDINAAT": 102960.8, "YCOORDINAAT": 460298.4, "EIGENAAR": "Waterschap", "CODERWZI": "AZ-027-00001", "CODEWATERGANG": null, "CODEIBA": null, "CODELEIDING": "KK-081-00001", "CODERIOLERINGSGEBIED": null, "BEHEERDER": "Waterschap", "BRON": null, "CODECOMPLEX": null, "OBJECTID2": 57}}, {"type": "Feature", "id": 58, "geometry": {"type": "Point", "coordinates": [102961.41000000015, 460299.59699999914]}, "properties": {"ORACLE_OBJECTID": 36538, "CODE": "AZ-245-00006", "OPMERKING": null, "INWINNENDEINSTANTIE": null, "METENDEINSTANTIE": null, "INWINNINGSMETHODE": null, "DIMENSIE": "2D", "NAUWKEURIGHEIDXY": null, "NAUWKEURIGHEIDZ": null, "DATUMINWINNING": null, "WS_BRON": null, "GEOKPOBJECTID": 2577, "LAST_EDITED_DATE": 1754037890000, "NAAM": "Leiding HR-081-00001", "SOORTGELOOSDWATER": "influent", "STATUSOBJECT": "gerealiseerd", "DEBIET": null, "FREQUENTIE": null, "HYPERLINK": null, "LONGITUDE": 4.62723069, "LATITUDE": 52.12845315, "XCOORDINAAT": 102961.41, "YCOORDINAAT": 460299.6, "EIGENAAR": "Waterschap", "CODERWZI": "AZ-027-00001", "CODEWATERGANG": null, "CODEIBA": null, "CODELEIDING": "HR-081-00001", "CODERIOLERINGSGEBIED": null, "BEHEERDER": "Waterschap", "BRON": null, "CODECOMPLEX": null, "OBJECTID2": 58}}, {"type": "Feature", "id": 59, "geometry": {"type": "Point", "coordinates": [102967.49700000137, 460298.2569999993]}, "properties": {"ORACLE_OBJECTID": 36539, "CODE": "AZ-245-00007", "OPMERKING": null, "INWINNENDEINSTANTIE": null, "METENDEINSTANTIE": null, "INWINNINGSMETHODE": null, "DIMENSIE": "2D", "NAUWKEURIGHEIDXY": null, "NAUWKEURIGHEIDZ": null, "DATUMINWINNING": null, "WS_BRON": null, "GEOKPOBJECTID": 2578, "LAST_EDITED_DATE": 1777645191000, "NAAM": "Leiding AL-081-00002", "SOORTGELOOSDWATER": "influent", "STATUSOBJECT": "gerealiseerd", "DEBIET": null, "FREQUENTIE": null, "HYPERLINK": null, "LONGITUDE": 4.62731978, "LATITUDE": 52.12844168, "XCOORDINAAT": 102967.5, "YCOORDINAAT": 460298.26, "EIGENAAR": "Waterschap", "CODERWZI": "AZ-027-00001", "CODEWATERGANG": null, "CODEIBA": null, "CODELEIDING": "AL-081-00002", "CODERIOLERINGSGEBIED": null, "BEHEERDER": "Waterschap", "BRON": null, "CODECOMPLEX": null, "OBJECTID2": 59}}, {"type": "Feature", "id": 66, "geometry": {"type": "Point", "coordinates": [105558.88569999859, 452345.2091999985]}, "properties": {"ORACLE_OBJECTID": 36526, "CODE": "WR-245-00002", "OPMERKING": null, "INWINNENDEINSTANTIE": null, "METENDEINSTANTIE": null, "INWINNINGSMETHODE": null, "DIMENSIE": "2D", "NAUWKEURIGHEIDXY": null, "NAUWKEURIGHEIDZ": null, "DATUMINWINNING": null, "WS_BRON": null, "GEOKPOBJECTID": 2589, "LAST_EDITED_DATE": 1754037890000, "NAAM": "Leiding WW-081-00003", "SOORTGELOOSDWATER": "influent", "STATUSOBJECT": "gerealiseerd", "DEBIET": null, "FREQUENTIE": null, "HYPERLINK": null, "LONGITUDE": 4.66631473, "LATITUDE": 52.05720188, "XCOORDINAAT": 105558.89, "YCOORDINAAT": 452345.21, "EIGENAAR": "Waterschap", "CODERWZI": "WR-027-00001", "CODEWATERGANG": null, "CODEIBA": null, "CODELEIDING": "WW-081-00003", "CODERIOLERINGSGEBIED": null, "BEHEERDER": "Waterschap", "BRON": null, "CODECOMPLEX": null, "OBJECTID2": 66}}, {"type": "Feature", "id": 67, "geometry": {"type": "Point", "coordinates": [105562.88289999962, 452341.85489999875]}, "properties": {"ORACLE_OBJECTID": 36527, "CODE": "WR-245-00004", "OPMERKING": null, "INWINNENDEINSTANTIE": null, "METENDEINSTANTIE": null, "INWINNINGSMETHODE": null, "DIMENSIE": "2D", "NAUWKEURIGHEIDXY": null, "NAUWKEURIGHEIDZ": null, "DATUMINWINNING": null, "WS_BRON": null, "GEOKPOBJECTID": 2591, "LAST_EDITED_DATE": 1754037890000, "NAAM": "Leiding BO-081-00003", "SOORTGELOOSDWATER": "influent", "STATUSOBJECT": "gerealiseerd", "DEBIET": null, "FREQUENTIE": null, "HYPERLINK": null, "LONGITUDE": 4.6663735, "LATITUDE": 52.05717209, "XCOORDINAAT": 105562.88, "YCOORDINAAT": 452341.85, "EIGENAAR": "Waterschap", "CODERWZI": "WR-027-00001", "CODEWATERGANG": null, "CODEIBA": null, "CODELEIDING": "BO-081-00003", "CODERIOLERINGSGEBIED": null, "BEHEERDER": "Waterschap", "BRON": null, "CODECOMPLEX": null, "OBJECTID2": 67}}, {"type": "Feature", "id": 68, "geometry": {"type": "Point", "coordinates": [105562.91000000015, 452341.23739999905]}, "properties": {"ORACLE_OBJECTID": 36528, "CODE": "WR-245-00005", "OPMERKING": null, "INWINNENDEINSTANTIE": null, "METENDEINSTANTIE": null, "INWINNINGSMETHODE": null, "DIMENSIE": "2D", "NAUWKEURIGHEIDXY": null, "NAUWKEURIGHEIDZ": null, "DATUMINWINNING": null, "WS_BRON": null, "GEOKPOBJECTID": 2592, "LAST_EDITED_DATE": 1754037890000, "NAAM": "Leiding RD-081-00001", "SOORTGELOOSDWATER": "influent", "STATUSOBJECT": "gerealiseerd", "DEBIET": null, "FREQUENTIE": null, "HYPERLINK": null, "LONGITUDE": 4.66637398, "LATITUDE": 52.05716655, "XCOORDINAAT": 105562.91, "YCOORDINAAT": 452341.24, "EIGENAAR": "Waterschap", "CODERWZI": "WR-027-00001", "CODEWATERGANG": null, "CODEIBA": null, "CODELEIDING": "RD-081-00001", "CODERIOLERINGSGEBIED": null, "BEHEERDER": "Waterschap", "BRON": null, "CODECOMPLEX": null, "OBJECTID2": 68}}, {"type": "Feature", "id": 84, "geometry": {"type": "Point", "coordinates": [110303.2173999995, 455068.14660000056]}, "properties": {"ORACLE_OBJECTID": 36561, "CODE": "BG-245-00002", "OPMERKING": null, "INWINNENDEINSTANTIE": null, "METENDEINSTANTIE": null, "INWINNINGSMETHODE": null, "DIMENSIE": "2D", "NAUWKEURIGHEIDXY": null, "NAUWKEURIGHEIDZ": null, "DATUMINWINNING": null, "WS_BRON": null, "GEOKPOBJECTID": 2579, "LAST_EDITED_DATE": 1775811190000, "NAAM": "Leiding RB-081-00003", "SOORTGELOOSDWATER": "influent", "STATUSOBJECT": "gerealiseerd", "DEBIET": null, "FREQUENTIE": null, "HYPERLINK": null, "LONGITUDE": 4.73512963, "LATITUDE": 52.08207749, "XCOORDINAAT": 110303.22, "YCOORDINAAT": 455068.15, "EIGENAAR": "Waterschap", "CODERWZI": "BG-027-00001", "CODEWATERGANG": null, "CODEIBA": null, "CODELEIDING": "RB-081-00003", "CODERIOLERINGSGEBIED": null, "BEHEERDER": "Waterschap", "BRON": null, "CODECOMPLEX": null, "OBJECTID2": 84}}, {"type": "Feature", "id": 91, "geometry": {"type": "Point", "coordinates": [102967.85700000077, 460296.34600000083]}, "properties": {"ORACLE_OBJECTID": 36569, "CODE": "AZ-245-00002", "OPMERKING": null, "INWINNENDEINSTANTIE": null, "METENDEINSTANTIE": null, "INWINNINGSMETHODE": null, "DIMENSIE": "2D", "NAUWKEURIGHEIDXY": null, "NAUWKEURIGHEIDZ": null, "DATUMINWINNING": null, "WS_BRON": null, "GEOKPOBJECTID": 2572, "LAST_EDITED_DATE": 1759822890000, "NAAM": "Leiding AZ-081-00001", "SOORTGELOOSDWATER": "influent", "STATUSOBJECT": "gerealiseerd", "DEBIET": null, "FREQUENTIE": null, "HYPERLINK": null, "LONGITUDE": 4.62732533, "LATITUDE": 52.12842454, "XCOORDINAAT": 102967.86, "YCOORDINAAT": 460296.35, "EIGENAAR": "Waterschap", "CODERWZI": "AZ-027-00001", "CODEWATERGANG": null, "CODEIBA": null, "CODELEIDING": "AZ-081-00001", "CODERIOLERINGSGEBIED": null, "BEHEERDER": "Waterschap", "BRON": null, "CODECOMPLEX": null, "OBJECTID2": 91}}, {"type": "Feature", "id": 93, "geometry": {"type": "Point", "coordinates": [105561.94189999998, 452344.86620000005]}, "properties": {"ORACLE_OBJECTID": 36572, "CODE": "WR-245-00003", "OPMERKING": null, "INWINNENDEINSTANTIE": null, "METENDEINSTANTIE": null, "INWINNINGSMETHODE": null, "DIMENSIE": "2D", "NAUWKEURIGHEIDXY": null, "NAUWKEURIGHEIDZ": null, "DATUMINWINNING": null, "WS_BRON": null, "GEOKPOBJECTID": 2590, "LAST_EDITED_DATE": 1754037890000, "NAAM": "Leiding WO-081-00001", "SOORTGELOOSDWATER": "influent", "STATUSOBJECT": "gerealiseerd", "DEBIET": null, "FREQUENTIE": null, "HYPERLINK": null, "LONGITUDE": 4.66635934, "LATITUDE": 52.05719907, "XCOORDINAAT": 105561.94, "YCOORDINAAT": 452344.87, "EIGENAAR": "Waterschap", "CODERWZI": "WR-027-00001", "CODEWATERGANG": null, "CODEIBA": null, "CODELEIDING": "WO-081-00001", "CODERIOLERINGSGEBIED": null, "BEHEERDER": "Waterschap", "BRON": null, "CODECOMPLEX": null, "OBJECTID2": 93}}, {"type": "Feature", "id": 94, "geometry": {"type": "Point", "coordinates": [110305.46279999986, 455070.2027999982]}, "properties": {"ORACLE_OBJECTID": 36573, "CODE": "BG-245-00005", "OPMERKING": null, "INWINNENDEINSTANTIE": null, "METENDEINSTANTIE": null, "INWINNINGSMETHODE": null, "DIMENSIE": "2D", "NAUWKEURIGHEIDXY": null, "NAUWKEURIGHEIDZ": null, "DATUMINWINNING": null, "WS_BRON": null, "GEOKPOBJECTID": 2582, "LAST_EDITED_DATE": 1775810631000, "NAAM": "Leiding BG-081-00002", "SOORTGELOOSDWATER": "influent", "STATUSOBJECT": "gerealiseerd", "DEBIET": null, "FREQUENTIE": null, "HYPERLINK": null, "LONGITUDE": 4.73516211, "LATITUDE": 52.08209615, "XCOORDINAAT": 110305.46, "YCOORDINAAT": 455070.2, "EIGENAAR": "Waterschap", "CODERWZI": "BG-027-00001", "CODEWATERGANG": null, "CODEIBA": null, "CODELEIDING": "BG-081-00002", "CODERIOLERINGSGEBIED": null, "BEHEERDER": "Waterschap", "BRON": null, "CODECOMPLEX": null, "OBJECTID2": 94}}, {"type": "Feature", "id": 95, "geometry": {"type": "Point", "coordinates": [110267.71970000118, 455079.24969999865]}, "properties": {"ORACLE_OBJECTID": 36574, "CODE": "BG-245-00008", "OPMERKING": null, "INWINNENDEINSTANTIE": null, "METENDEINSTANTIE": null, "INWINNINGSMETHODE": null, "DIMENSIE": "2D", "NAUWKEURIGHEIDXY": null, "NAUWKEURIGHEIDZ": null, "DATUMINWINNING": null, "WS_BRON": null, "GEOKPOBJECTID": 3201, "LAST_EDITED_DATE": 1754037890000, "NAAM": "Rioleringsgebied 9", "SOORTGELOOSDWATER": "influent", "STATUSOBJECT": "gerealiseerd", "DEBIET": null, "FREQUENTIE": null, "HYPERLINK": null, "LONGITUDE": 4.73461033, "LATITUDE": 52.08217441, "XCOORDINAAT": 110267.72, "YCOORDINAAT": 455079.25, "EIGENAAR": "Gemeente", "CODERWZI": "BG-027-00001", "CODEWATERGANG": null, "CODEIBA": null, "CODELEIDING": null, "CODERIOLERINGSGEBIED": "BDR-9", "BEHEERDER": "Waterschap", "BRON": null, "CODECOMPLEX": null, "OBJECTID2": 95}}, {"type": "Feature", "id": 103, "geometry": {"type": "Point", "coordinates": [95932.94579999894, 453288.48519999906]}, "properties": {"ORACLE_OBJECTID": 36562, "CODE": "HA-245-00002", "OPMERKING": "leiding loost op rioleringsgebied", "INWINNENDEINSTANTIE": null, "METENDEINSTANTIE": null, "INWINNINGSMETHODE": null, "DIMENSIE": "2D", "NAUWKEURIGHEIDXY": null, "NAUWKEURIGHEIDZ": null, "DATUMINWINNING": null, "WS_BRON": null, "GEOKPOBJECTID": 2882, "LAST_EDITED_DATE": 1761556032000, "NAAM": "Leiding BH-081-00001-Rioleringsgebied ZOE-40-41-42-43-44", "SOORTGELOOSDWATER": "influent", "STATUSOBJECT": "gerealiseerd", "DEBIET": null, "FREQUENTIE": null, "HYPERLINK": null, "LONGITUDE": 4.5258121, "LATITUDE": 52.06473689, "XCOORDINAAT": 95932.95, "YCOORDINAAT": 453288.49, "EIGENAAR": "Waterschap", "CODERWZI": null, "CODEWATERGANG": null, "CODEIBA": null, "CODELEIDING": "BH-081-00001", "CODERIOLERINGSGEBIED": "ZOE-40-41-42-43-44", "BEHEERDER": "Waterschap", "BRON": null, "CODECOMPLEX": null, "OBJECTID2": 103}}]}