{"type": "FeatureCollection", "features": [{"type": "Feature", "id": 5, "geometry": {"type": "Point", "coordinates": [106067.41519999877, 460624.46379999816]}, "properties": {"ORACLE_OBJECTID": 2959, "CODE": "AN-080-00023", "NAAM": "AWTG Alphen Sportlaan", "JAARVANAANLEG": 2009, "OPMERKING": "cap: 500", "ADRES": "Sportlaan 4a", "POSTCODE": "2406LD", "PLAATS": "ALPHEN AAN DEN RIJN", "INWINNENDEINSTANTIE": "Hoogheemraadschap van Rijnland", "METENDEINSTANTIE": null, "INWINNINGSMETHODE": null, "DIMENSIE": "2D", "NAUWKEURIGHEIDXY": 99, "NAUWKEURIGHEIDZ": null, "DATUMINWINNING": null, "HYPERLINKFOTO1": null, "HYPERLINKFOTO2": null, "GEOKPOBJECTID": 76, "LAST_EDITED_DATE": 1760105814000, "SOORTRIOOLGEMAAL": "DWA / RWA gemaal", "XCOORDINAAT": 106067.42, "YCOORDINAAT": 460624.46, "STATUSOBJECT": "gerealiseerd", "CAPACITEITONTWERP": 500, "CAPACITEITHUIDIG": null, "CAPACITEITGEINSTALLEERD": null, "POMPOVERCAPACITEITBESCHIKBAAR": null, "UITSLAGPEIL": null, "AANTALPOMPEN": null, "HYPERLINK": "https://embedservice.hydronet.com/embeds/c90cb6e1c1694027b458a81afc821f1c", "LONGITUDE": 4.67254067, "AFVOERRICHTING": null, "LATITUDE": 52.13165642, "EIGENAAR": "Waterschap", "BEHEERDER": "Waterschap", "LAATSTERENOVATIE": null, "NAMESPACE": "Rioolgemaal", "DETAILNIVEAUGEOMETRIE": null, "LVPUBLICATIEDATUM": null, "CODELEIDING": "AN-081-00003", "CODETRANSPORTSTELSEL": "AN-263-00002", "CODEAWZI": "AN-027-00001", "NAAMAWZI": "AWZI Alphen-Noord", "CODECOMPLEX": null, "OBJECTID2": 5}}, {"type": "Feature", "id": 7, "geometry": {"type": "Point", "coordinates": [116566.02800000086, 464728.09699999914]}, "properties": {"ORACLE_OBJECTID": 2963, "CODE": "NN-080-00021", "NAAM": "AWTG Noorden", "JAARVANAANLEG": 1999, "OPMERKING": "locatie niet in gebouw, cap: 111", "ADRES": "Molenweg 7a", "POSTCODE": "2431AK", "PLAATS": "NOORDEN", "INWINNENDEINSTANTIE": "Hoogheemraadschap van Rijnland", "METENDEINSTANTIE": null, "INWINNINGSMETHODE": null, "DIMENSIE": "2D", "NAUWKEURIGHEIDXY": 99, "NAUWKEURIGHEIDZ": null, "DATUMINWINNING": null, "HYPERLINKFOTO1": null, "HYPERLINKFOTO2": null, "GEOKPOBJECTID": 99, "LAST_EDITED_DATE": 1751019192000, "SOORTRIOOLGEMAAL": "DWA / RWA gemaal", "XCOORDINAAT": 116566.03, "YCOORDINAAT": 464728.1, "STATUSOBJECT": "gerealiseerd", "CAPACITEITONTWERP": 111, "CAPACITEITHUIDIG": null, "CAPACITEITGEINSTALLEERD": null, "POMPOVERCAPACITEITBESCHIKBAAR": null, "UITSLAGPEIL": null, "AANTALPOMPEN": null, "HYPERLINK": null, "LONGITUDE": 4.82540151, "AFVOERRICHTING": null, "LATITUDE": 52.16936755, "EIGENAAR": "Waterschap", "BEHEERDER": "Waterschap", "LAATSTERENOVATIE": null, "NAMESPACE": "Rioolgemaal", "DETAILNIVEAUGEOMETRIE": null, "LVPUBLICATIEDATUM": null, "CODELEIDING": "NN-081-00002", "CODETRANSPORTSTELSEL": "NN-263-00001", "CODEAWZI": "NI-027-00001", "NAAMAWZI": "AWZI Nieuwveen", "CODECOMPLEX": null, "OBJECTID2": 7}}, {"type": "Feature", "id": 13, "geometry": {"type": "Point", "coordinates": [96708.99599999934, 463559.5940000005]}, "properties": {"ORACLE_OBJECTID": 2968, "CODE": "LP-080-00021", "NAAM": "AWTG Engelendaal", "JAARVANAANLEG": 1993, "OPMERKING": "2 leidingen, 1 geknoopt. nooduitlaat aanwezig, cap: 1050", "ADRES": "Engelendaal 1 ", "POSTCODE": "2353MA", "PLAATS": "LEIDERDORP", "INWINNENDEINSTANTIE": "Hoogheemraadschap van Rijnland", "METENDEINSTANTIE": null, "INWINNINGSMETHODE": null, "DIMENSIE": "2D", "NAUWKEURIGHEIDXY": 99, "NAUWKEURIGHEIDZ": null, "DATUMINWINNING": null, "HYPERLINKFOTO1": null, "HYPERLINKFOTO2": null, "GEOKPOBJECTID": 94, "LAST_EDITED_DATE": 1775814656000, "SOORTRIOOLGEMAAL": "DWA / RWA gemaal", "XCOORDINAAT": 96709, "YCOORDINAAT": 463559.59, "STATUSOBJECT": "gerealiseerd", "CAPACITEITONTWERP": 1050, "CAPACITEITHUIDIG": null, "CAPACITEITGEINSTALLEERD": null, "POMPOVERCAPACITEITBESCHIKBAAR": null, "UITSLAGPEIL": null, "AANTALPOMPEN": null, "HYPERLINK": null, "LONGITUDE": 4.53537065, "AFVOERRICHTING": null, "LATITUDE": 52.15712748, "EIGENAAR": "Waterschap", "BEHEERDER": "Waterschap", "LAATSTERENOVATIE": null, "NAMESPACE": "Rioolgemaal", "DETAILNIVEAUGEOMETRIE": null, "LVPUBLICATIEDATUM": null, "CODELEIDING": "LP-081-00002", "CODETRANSPORTSTELSEL": "LP-263-00001", "CODEAWZI": "LN-027-00001", "NAAMAWZI": "AWZI Leiden Noord", "CODECOMPLEX": null, "OBJECTID2": 13}}, {"type": "Feature", "id": 14, "geometry": {"type": "Point", "coordinates": [110711.34800000116, 455343.0529999994]}, "properties": {"ORACLE_OBJECTID": 2997, "CODE": "BG-080-00021", "NAAM": "AWTG Bodegraven Molenkade", "JAARVANAANLEG": 2003, "OPMERKING": "cap: 1012", "ADRES": "Doortocht 9001 ", "POSTCODE": "2411BV", "PLAATS": "BODEGRAVEN", "INWINNENDEINSTANTIE": "Hoogheemraadschap van Rijnland", "METENDEINSTANTIE": null, "INWINNINGSMETHODE": null, "DIMENSIE": "2D", "NAUWKEURIGHEIDXY": 99, "NAUWKEURIGHEIDZ": null, "DATUMINWINNING": null, "HYPERLINKFOTO1": null, "HYPERLINKFOTO2": null, "GEOKPOBJECTID": 49, "LAST_EDITED_DATE": 1778512965000, "SOORTRIOOLGEMAAL": "DWA / RWA gemaal", "XCOORDINAAT": 110711.35, "YCOORDINAAT": 455343.05, "STATUSOBJECT": "gerealiseerd", "CAPACITEITONTWERP": 1012, "CAPACITEITHUIDIG": null, "CAPACITEITGEINSTALLEERD": null, "POMPOVERCAPACITEITBESCHIKBAAR": null, "UITSLAGPEIL": null, "AANTALPOMPEN": null, "HYPERLINK": "https://embedservice.hydronet.com/embeds/ecf5edcab01047ee93ff393df63ff315", "LONGITUDE": 4.74104772, "AFVOERRICHTING": null, "LATITUDE": 52.08458102, "EIGENAAR": "Waterschap", "BEHEERDER": "Waterschap", "LAATSTERENOVATIE": null, "NAMESPACE": "Rioolgemaal", "DETAILNIVEAUGEOMETRIE": null, "LVPUBLICATIEDATUM": null, "CODELEIDING": "BG-081-00001", "CODETRANSPORTSTELSEL": "BG-263-00001", "CODEAWZI": "BG-027-00001", "NAAMAWZI": "AWZI Bodegraven", "CODECOMPLEX": null, "OBJECTID2": 14}}, {"type": "Feature", "id": 18, "geometry": {"type": "Point", "coordinates": [106132.46200000122, 461600.4620000012]}, "properties": {"ORACLE_OBJECTID": 2969, "CODE": "AN-080-00021", "NAAM": "AWTG Alphen Kennedylaan", "JAARVANAANLEG": 2000, "OPMERKING": "naam komt 2x voor, 2leidingen, 1 geknoopt, cap: 900", "ADRES": "President Kennedylaan 31 ", "POSTCODE": "2402NZ", "PLAATS": "ALPHEN AAN DEN RIJN", "INWINNENDEINSTANTIE": "Hoogheemraadschap van Rijnland", "METENDEINSTANTIE": null, "INWINNINGSMETHODE": null, "DIMENSIE": "2D", "NAUWKEURIGHEIDXY": 99, "NAUWKEURIGHEIDZ": null, "DATUMINWINNING": null, "HYPERLINKFOTO1": null, "HYPERLINKFOTO2": null, "GEOKPOBJECTID": 106, "LAST_EDITED_DATE": 1760103922000, "SOORTRIOOLGEMAAL": "DWA / RWA gemaal", "XCOORDINAAT": 106132.46, "YCOORDINAAT": 461600.46, "STATUSOBJECT": "gerealiseerd", "CAPACITEITONTWERP": 900, "CAPACITEITHUIDIG": null, "CAPACITEITGEINSTALLEERD": null, "POMPOVERCAPACITEITBESCHIKBAAR": null, "UITSLAGPEIL": null, "AANTALPOMPEN": null, "HYPERLINK": "https://embedservice.hydronet.com/embeds/a7676581c03c4c06a769f7358ca5fe14", "LONGITUDE": 4.67335042, "AFVOERRICHTING": null, "LATITUDE": 52.14043385, "EIGENAAR": "Waterschap", "BEHEERDER": "Waterschap", "LAATSTERENOVATIE": null, "NAMESPACE": "Rioolgemaal", "DETAILNIVEAUGEOMETRIE": null, "LVPUBLICATIEDATUM": null, "CODELEIDING": "AN-081-00001", "CODETRANSPORTSTELSEL": "AN-263-00001", "CODEAWZI": "AN-027-00001", "NAAMAWZI": "AWZI Alphen-Noord", "CODECOMPLEX": null, "OBJECTID2": 18}}, {"type": "Feature", "id": 19, "geometry": {"type": "Point", "coordinates": [101220.42399999872, 461156.37900000066]}, "properties": {"ORACLE_OBJECTID": 2971, "CODE": "KK-080-00021", "NAAM": "AWTG Koudekerk a.d. Rijn", "JAARVANAANLEG": 1988, "OPMERKING": "cap: 210", "ADRES": "Rietje Le Largeplantsoen 3 ", "POSTCODE": "2396VJ", "PLAATS": "KOUDEKERK AAN DEN RIJN", "INWINNENDEINSTANTIE": "Hoogheemraadschap van Rijnland", "METENDEINSTANTIE": null, "INWINNINGSMETHODE": null, "DIMENSIE": "2D", "NAUWKEURIGHEIDXY": 99, "NAUWKEURIGHEIDZ": null, "DATUMINWINNING": null, "HYPERLINKFOTO1": null, "HYPERLINKFOTO2": null, "GEOKPOBJECTID": 17, "LAST_EDITED_DATE": 1775811190000, "SOORTRIOOLGEMAAL": "DWA / RWA gemaal", "XCOORDINAAT": 101220.42, "YCOORDINAAT": 461156.38, "STATUSOBJECT": "gerealiseerd", "CAPACITEITONTWERP": 210, "CAPACITEITHUIDIG": null, "CAPACITEITGEINSTALLEERD": null, "POMPOVERCAPACITEITBESCHIKBAAR": null, "UITSLAGPEIL": null, "AANTALPOMPEN": null, "HYPERLINK": "https://embedservice.hydronet.com/embeds/e2d520a7c1224996955528fb66dc15b7", "LONGITUDE": 4.60167213, "AFVOERRICHTING": null, "LATITUDE": 52.13598671, "EIGENAAR": "Waterschap", "BEHEERDER": "Waterschap", "LAATSTERENOVATIE": null, "NAMESPACE": "Rioolgemaal", "DETAILNIVEAUGEOMETRIE": null, "LVPUBLICATIEDATUM": null, "CODELEIDING": "KK-081-00002", "CODETRANSPORTSTELSEL": "KK-263-00001", "CODEAWZI": "AZ-027-00001", "NAAMAWZI": "AWZI Alphen Kerk en Zanen", "CODECOMPLEX": null, "OBJECTID2": 19}}, {"type": "Feature", "id": 25, "geometry": {"type": "Point", "coordinates": [103265.22700000182, 464816.90399999917]}, "properties": {"ORACLE_OBJECTID": 2980, "CODE": "WB-080-00022", "NAAM": "AWTG Woubrugge", "JAARVANAANLEG": 2015, "OPMERKING": "cap: 147", "ADRES": "Vingerhoedtstraat 2a", "POSTCODE": "2481KE", "PLAATS": "WOUBRUGGE", "INWINNENDEINSTANTIE": "Hoogheemraadschap van Rijnland", "METENDEINSTANTIE": null, "INWINNINGSMETHODE": "digitaliseren", "DIMENSIE": "2D", "NAUWKEURIGHEIDXY": null, "NAUWKEURIGHEIDZ": null, "DATUMINWINNING": 1614729600000, "HYPERLINKFOTO1": null, "HYPERLINKFOTO2": null, "GEOKPOBJECTID": 59, "LAST_EDITED_DATE": 1751019192000, "SOORTRIOOLGEMAAL": "DWA / RWA gemaal", "XCOORDINAAT": 103265.23, "YCOORDINAAT": 464816.9, "STATUSOBJECT": "gerealiseerd", "CAPACITEITONTWERP": 147, "CAPACITEITHUIDIG": null, "CAPACITEITGEINSTALLEERD": null, "POMPOVERCAPACITEITBESCHIKBAAR": null, "UITSLAGPEIL": null, "AANTALPOMPEN": null, "HYPERLINK": "https://embedservice.hydronet.com/embeds/6daad51c73d54a918c11634c9a0e32d7", "LONGITUDE": 4.63097988, "AFVOERRICHTING": "HR-080-00021", "LATITUDE": 52.16908006, "EIGENAAR": "Waterschap", "BEHEERDER": "Waterschap", "LAATSTERENOVATIE": null, "NAMESPACE": "Rioolgemaal", "DETAILNIVEAUGEOMETRIE": null, "LVPUBLICATIEDATUM": null, "CODELEIDING": "WB-081-00002", "CODETRANSPORTSTELSEL": "WB-263-00001", "CODEAWZI": "AZ-027-00001", "NAAMAWZI": "AWZI Alphen Kerk en Zanen", "CODECOMPLEX": null, "OBJECTID2": 25}}, {"type": "Feature", "id": 26, "geometry": {"type": "Point", "coordinates": [109676.85200000182, 461283.27600000054]}, "properties": {"ORACLE_OBJECTID": 2981, "CODE": "AV-080-00021", "NAAM": "AWTG Aarlanderveen", "JAARVANAANLEG": 1999, "OPMERKING": "cap: 41", "ADRES": "Kerkvaartsweg 59b", "POSTCODE": "2445AC", "PLAATS": "AARLANDERVEEN", "INWINNENDEINSTANTIE": "Hoogheemraadschap van Rijnland", "METENDEINSTANTIE": null, "INWINNINGSMETHODE": null, "DIMENSIE": "2D", "NAUWKEURIGHEIDXY": 99, "NAUWKEURIGHEIDZ": null, "DATUMINWINNING": null, "HYPERLINKFOTO1": null, "HYPERLINKFOTO2": null, "GEOKPOBJECTID": 20, "LAST_EDITED_DATE": 1751019192000, "SOORTRIOOLGEMAAL": "DWA / RWA gemaal", "XCOORDINAAT": 109676.85, "YCOORDINAAT": 461283.28, "STATUSOBJECT": "gerealiseerd", "CAPACITEITONTWERP": 41, "CAPACITEITHUIDIG": null, "CAPACITEITGEINSTALLEERD": null, "POMPOVERCAPACITEITBESCHIKBAAR": null, "UITSLAGPEIL": null, "AANTALPOMPEN": null, "HYPERLINK": null, "LONGITUDE": 4.72516541, "AFVOERRICHTING": "NK-080-00021", "LATITUDE": 52.1378851, "EIGENAAR": "Waterschap", "BEHEERDER": "Waterschap", "LAATSTERENOVATIE": null, "NAMESPACE": "Rioolgemaal", "DETAILNIVEAUGEOMETRIE": null, "LVPUBLICATIEDATUM": null, "CODELEIDING": "AV-081-00001", "CODETRANSPORTSTELSEL": "AV-263-00001", "CODEAWZI": "NI-027-00001", "NAAMAWZI": "AWZI Nieuwveen", "CODECOMPLEX": null, "OBJECTID2": 26}}, {"type": "Feature", "id": 27, "geometry": {"type": "Point", "coordinates": [105738.40500000119, 453365.24500000104]}, "properties": {"ORACLE_OBJECTID": 2982, "CODE": "BO-080-00021", "NAAM": "AWTG Boskoop Oost", "JAARVANAANLEG": 1991, "OPMERKING": "cap: 90", "ADRES": "Zuidwijk 58b", "POSTCODE": "2771CB", "PLAATS": "BOSKOOP", "INWINNENDEINSTANTIE": "Hoogheemraadschap van Rijnland", "METENDEINSTANTIE": null, "INWINNINGSMETHODE": null, "DIMENSIE": "2D", "NAUWKEURIGHEIDXY": 99, "NAUWKEURIGHEIDZ": null, "DATUMINWINNING": null, "HYPERLINKFOTO1": null, "HYPERLINKFOTO2": null, "GEOKPOBJECTID": 21, "LAST_EDITED_DATE": 1751019192000, "SOORTRIOOLGEMAAL": "DWA / RWA gemaal", "XCOORDINAAT": 105738.41, "YCOORDINAAT": 453365.25, "STATUSOBJECT": "gerealiseerd", "CAPACITEITONTWERP": 90, "CAPACITEITHUIDIG": null, "CAPACITEITGEINSTALLEERD": null, "POMPOVERCAPACITEITBESCHIKBAAR": null, "UITSLAGPEIL": null, "AANTALPOMPEN": null, "HYPERLINK": "https://embedservice.hydronet.com/embeds/66b8950ab1cd44fd9e198bebcdf5d6e1", "LONGITUDE": 4.66878493, "AFVOERRICHTING": null, "LATITUDE": 52.06638543, "EIGENAAR": "Waterschap", "BEHEERDER": "Waterschap", "LAATSTERENOVATIE": null, "NAMESPACE": "Rioolgemaal", "DETAILNIVEAUGEOMETRIE": null, "LVPUBLICATIEDATUM": null, "CODELEIDING": "BO-081-00003", "CODETRANSPORTSTELSEL": "BO-263-00001", "CODEAWZI": "WR-027-00001", "NAAMAWZI": "AWZI Waddinxveen-Randenburg", "CODECOMPLEX": null, "OBJECTID2": 27}}, {"type": "Feature", "id": 28, "geometry": {"type": "Point", "coordinates": [104663.74399999902, 453148.813000001]}, "properties": {"ORACLE_OBJECTID": 2983, "CODE": "BO-080-00022", "NAAM": "AWTG Boskoop West", "JAARVANAANLEG": 1966, "OPMERKING": "cap: 323", "ADRES": "Wilgenlaantje 3 ", "POSTCODE": "2771HD", "PLAATS": "BOSKOOP", "INWINNENDEINSTANTIE": "Hoogheemraadschap van Rijnland", "METENDEINSTANTIE": null, "INWINNINGSMETHODE": null, "DIMENSIE": "2D", "NAUWKEURIGHEIDXY": 99, "NAUWKEURIGHEIDZ": null, "DATUMINWINNING": null, "HYPERLINKFOTO1": null, "HYPERLINKFOTO2": null, "GEOKPOBJECTID": 66, "LAST_EDITED_DATE": 1751019192000, "SOORTRIOOLGEMAAL": "DWA / RWA gemaal", "XCOORDINAAT": 104663.74, "YCOORDINAAT": 453148.81, "STATUSOBJECT": "gerealiseerd", "CAPACITEITONTWERP": 323, "CAPACITEITHUIDIG": null, "CAPACITEITGEINSTALLEERD": null, "POMPOVERCAPACITEITBESCHIKBAAR": null, "UITSLAGPEIL": null, "AANTALPOMPEN": null, "HYPERLINK": "https://embedservice.hydronet.com/embeds/413d1141a39e4f7f99a547430faa9d4e", "LONGITUDE": 4.65314547, "AFVOERRICHTING": null, "LATITUDE": 52.06434366, "EIGENAAR": "Waterschap", "BEHEERDER": "Waterschap", "LAATSTERENOVATIE": null, "NAMESPACE": "Rioolgemaal", "DETAILNIVEAUGEOMETRIE": null, "LVPUBLICATIEDATUM": null, "CODELEIDING": "BO-081-00002", "CODETRANSPORTSTELSEL": "BO-263-00002", "CODEAWZI": "WR-027-00001", "NAAMAWZI": "AWZI Waddinxveen-Randenburg", "CODECOMPLEX": null, "OBJECTID2": 28}}, {"type": "Feature", "id": 31, "geometry": {"type": "Point", "coordinates": [110098.4450000003, 451390.993999999]}, "properties": {"ORACLE_OBJECTID": 2989, "CODE": "RB-080-00022", "NAAM": "AWTG Reeuwijk Brug Oost", "JAARVANAANLEG": 1998, "OPMERKING": "cap: 240", "ADRES": "Treebord 9002 ", "POSTCODE": "2811EA", "PLAATS": "REEUWIJK", "INWINNENDEINSTANTIE": "Hoogheemraadschap van Rijnland", "METENDEINSTANTIE": null, "INWINNINGSMETHODE": null, "DIMENSIE": "2D", "NAUWKEURIGHEIDXY": 99, "NAUWKEURIGHEIDZ": null, "DATUMINWINNING": null, "HYPERLINKFOTO1": null, "HYPERLINKFOTO2": null, "GEOKPOBJECTID": 96, "LAST_EDITED_DATE": 1775811190000, "SOORTRIOOLGEMAAL": "DWA / RWA gemaal", "XCOORDINAAT": 110098.45, "YCOORDINAAT": 451390.99, "STATUSOBJECT": "gerealiseerd", "CAPACITEITONTWERP": 240, "CAPACITEITHUIDIG": null, "CAPACITEITGEINSTALLEERD": null, "POMPOVERCAPACITEITBESCHIKBAAR": null, "UITSLAGPEIL": null, "AANTALPOMPEN": null, "HYPERLINK": "https://embedservice.hydronet.com/embeds/16efa2062081481780a3761fb3feb252", "LONGITUDE": 4.73262597, "AFVOERRICHTING": null, "LATITUDE": 52.04901221, "EIGENAAR": "Waterschap", "BEHEERDER": "Waterschap", "LAATSTERENOVATIE": null, "NAMESPACE": "Rioolgemaal", "DETAILNIVEAUGEOMETRIE": null, "LVPUBLICATIEDATUM": null, "CODELEIDING": "RB-081-00004", "CODETRANSPORTSTELSEL": "RB-263-00001", "CODEAWZI": "BG-027-00001", "NAAMAWZI": "AWZI Bodegraven", "CODECOMPLEX": null, "OBJECTID2": 31}}, {"type": "Feature", "id": 36, "geometry": {"type": "Point", "coordinates": [100622.38199999928, 459994.1490000002]}, "properties": {"ORACLE_OBJECTID": 3001, "CODE": "HR-080-00021", "NAAM": "AWTG Hazerswoude Rijndijk", "JAARVANAANLEG": 1988, "OPMERKING": "cap: 240", "ADRES": "Corellistraat 38 ", "POSTCODE": "2394GZ", "PLAATS": "HAZERSWOUDE", "INWINNENDEINSTANTIE": "Hoogheemraadschap van Rijnland", "METENDEINSTANTIE": null, "INWINNINGSMETHODE": null, "DIMENSIE": "2D", "NAUWKEURIGHEIDXY": 99, "NAUWKEURIGHEIDZ": null, "DATUMINWINNING": null, "HYPERLINKFOTO1": null, "HYPERLINKFOTO2": null, "GEOKPOBJECTID": 47, "LAST_EDITED_DATE": 1751019192000, "SOORTRIOOLGEMAAL": "DWA / RWA gemaal", "XCOORDINAAT": 100622.38, "YCOORDINAAT": 459994.15, "STATUSOBJECT": "gerealiseerd", "CAPACITEITONTWERP": 240, "CAPACITEITHUIDIG": null, "CAPACITEITGEINSTALLEERD": null, "POMPOVERCAPACITEITBESCHIKBAAR": null, "UITSLAGPEIL": null, "AANTALPOMPEN": null, "HYPERLINK": "https://embedservice.hydronet.com/embeds/99ca63f87cdb44d3a5080dc97f45db14", "LONGITUDE": 4.59312334, "AFVOERRICHTING": null, "LATITUDE": 52.12548295, "EIGENAAR": "Waterschap", "BEHEERDER": "Waterschap", "LAATSTERENOVATIE": null, "NAMESPACE": "Rioolgemaal", "DETAILNIVEAUGEOMETRIE": null, "LVPUBLICATIEDATUM": null, "CODELEIDING": "HR-081-00001", "CODETRANSPORTSTELSEL": "HR-263-00001", "CODEAWZI": "AZ-027-00001", "NAAMAWZI": "AWZI Alphen Kerk en Zanen", "CODECOMPLEX": null, "OBJECTID2": 36}}, {"type": "Feature", "id": 38, "geometry": {"type": "Point", "coordinates": [104652.1559999995, 460347.41099999845]}, "properties": {"ORACLE_OBJECTID": 3003, "CODE": "AL-080-00021", "NAAM": "AWTG Alphen West", "JAARVANAANLEG": 1992, "OPMERKING": "2leidingen, 1 geknoopt, cap: 1100", "ADRES": "Dr. J.M. den Uylsingel 4 ", "POSTCODE": "2404CJ", "PLAATS": "ALPHEN AAN DEN RIJN", "INWINNENDEINSTANTIE": "Hoogheemraadschap van Rijnland", "METENDEINSTANTIE": null, "INWINNINGSMETHODE": null, "DIMENSIE": "2D", "NAUWKEURIGHEIDXY": 99, "NAUWKEURIGHEIDZ": null, "DATUMINWINNING": null, "HYPERLINKFOTO1": null, "HYPERLINKFOTO2": null, "GEOKPOBJECTID": 50, "LAST_EDITED_DATE": 1777645191000, "SOORTRIOOLGEMAAL": "DWA / RWA gemaal", "XCOORDINAAT": 104652.16, "YCOORDINAAT": 460347.41, "STATUSOBJECT": "gerealiseerd", "CAPACITEITONTWERP": 1100, "CAPACITEITHUIDIG": null, "CAPACITEITGEINSTALLEERD": null, "POMPOVERCAPACITEITBESCHIKBAAR": null, "UITSLAGPEIL": null, "AANTALPOMPEN": null, "HYPERLINK": null, "LONGITUDE": 4.65191333, "AFVOERRICHTING": null, "LATITUDE": 52.12903939, "EIGENAAR": "Waterschap", "BEHEERDER": "Waterschap", "LAATSTERENOVATIE": null, "NAMESPACE": "Rioolgemaal", "DETAILNIVEAUGEOMETRIE": null, "LVPUBLICATIEDATUM": null, "CODELEIDING": "AL-081-00001", "CODETRANSPORTSTELSEL": "AL-263-00001", "CODEAWZI": "AZ-027-00001", "NAAMAWZI": "AWZI Alphen Kerk en Zanen", "CODECOMPLEX": null, "OBJECTID2": 38}}, {"type": "Feature", "id": 42, "geometry": {"type": "Point", "coordinates": [111399.58900000155, 455860.14400000125]}, "properties": {"ORACLE_OBJECTID": 2996, "CODE": "BG-080-00022", "NAAM": "AWTG Bodegraven Willem de Zwijgerstraat", "JAARVANAANLEG": 2003, "OPMERKING": "cap: 331", "ADRES": "Willem de Zwijgerstraat 9001 ", "POSTCODE": "2411VT", "PLAATS": "BODEGRAVEN", "INWINNENDEINSTANTIE": "Hoogheemraadschap van Rijnland", "METENDEINSTANTIE": null, "INWINNINGSMETHODE": null, "DIMENSIE": "2D", "NAUWKEURIGHEIDXY": 99, "NAUWKEURIGHEIDZ": null, "DATUMINWINNING": null, "HYPERLINKFOTO1": null, "HYPERLINKFOTO2": null, "GEOKPOBJECTID": 25, "LAST_EDITED_DATE": 1775810631000, "SOORTRIOOLGEMAAL": "DWA / RWA gemaal", "XCOORDINAAT": 111399.59, "YCOORDINAAT": 455860.14, "STATUSOBJECT": "gerealiseerd", "CAPACITEITONTWERP": 331, "CAPACITEITHUIDIG": null, "CAPACITEITGEINSTALLEERD": null, "POMPOVERCAPACITEITBESCHIKBAAR": null, "UITSLAGPEIL": null, "AANTALPOMPEN": null, "HYPERLINK": "https://embedservice.hydronet.com/embeds/0e78049fcb5b43a4948c5ffd5020c205", "LONGITUDE": 4.75102222, "AFVOERRICHTING": null, "LATITUDE": 52.08928304, "EIGENAAR": "Waterschap", "BEHEERDER": "Waterschap", "LAATSTERENOVATIE": null, "NAMESPACE": "Rioolgemaal", "DETAILNIVEAUGEOMETRIE": null, "LVPUBLICATIEDATUM": null, "CODELEIDING": "BG-081-00002", "CODETRANSPORTSTELSEL": "BG-263-00002", "CODEAWZI": "BG-027-00001", "NAAMAWZI": "AWZI Bodegraven", "CODECOMPLEX": null, "OBJECTID2": 42}}, {"type": "Feature", "id": 45, "geometry": {"type": "Point", "coordinates": [108488.88960000128, 464225.88280000165]}, "properties": {"ORACLE_OBJECTID": 2915, "CODE": "AW-080-00021", "NAAM": "AWTG Aardam-West", "JAARVANAANLEG": 2014, "OPMERKING": "in werking dec 2014, cap: 140", "ADRES": "Mijsstraat 1t", "POSTCODE": "2461AB", "PLAATS": "TER AAR", "INWINNENDEINSTANTIE": "Hoogheemraadschap van Rijnland", "METENDEINSTANTIE": null, "INWINNINGSMETHODE": null, "DIMENSIE": "2D", "NAUWKEURIGHEIDXY": 99, "NAUWKEURIGHEIDZ": null, "DATUMINWINNING": null, "HYPERLINKFOTO1": null, "HYPERLINKFOTO2": null, "GEOKPOBJECTID": 2, "LAST_EDITED_DATE": 1751019192000, "SOORTRIOOLGEMAAL": "DWA / RWA gemaal", "XCOORDINAAT": 108488.89, "YCOORDINAAT": 464225.88, "STATUSOBJECT": "gerealiseerd", "CAPACITEITONTWERP": 140, "CAPACITEITHUIDIG": null, "CAPACITEITGEINSTALLEERD": null, "POMPOVERCAPACITEITBESCHIKBAAR": null, "UITSLAGPEIL": null, "AANTALPOMPEN": null, "HYPERLINK": "https://embedservice.hydronet.com/embeds/d040ce5899464f33a325ca79f62d1079", "LONGITUDE": 4.70741133, "AFVOERRICHTING": null, "LATITUDE": 52.16423288, "EIGENAAR": "Waterschap", "BEHEERDER": "Waterschap", "LAATSTERENOVATIE": null, "NAMESPACE": "Rioolgemaal", "DETAILNIVEAUGEOMETRIE": null, "LVPUBLICATIEDATUM": null, "CODELEIDING": "AN-081-00010", "CODETRANSPORTSTELSEL": "AW-263-00001", "CODEAWZI": "AN-027-00001", "NAAMAWZI": "AWZI Alphen-Noord", "CODECOMPLEX": null, "OBJECTID2": 45}}, {"type": "Feature", "id": 49, "geometry": {"type": "Point", "coordinates": [104431.65399999917, 451528.7329999991]}, "properties": {"ORACLE_OBJECTID": 2970, "CODE": "WW-080-00024", "NAAM": "AWTG Waddinxveen West", "JAARVANAANLEG": 2007, "OPMERKING": "cap: 987", "ADRES": "Willem de Zwijgerlaan 59a", "POSTCODE": "2741DB", "PLAATS": "WADDINXVEEN", "INWINNENDEINSTANTIE": "Hoogheemraadschap van Rijnland", "METENDEINSTANTIE": null, "INWINNINGSMETHODE": null, "DIMENSIE": "2D", "NAUWKEURIGHEIDXY": 99, "NAUWKEURIGHEIDZ": null, "DATUMINWINNING": null, "HYPERLINKFOTO1": null, "HYPERLINKFOTO2": null, "GEOKPOBJECTID": 15, "LAST_EDITED_DATE": 1751019192000, "SOORTRIOOLGEMAAL": "DWA / RWA gemaal", "XCOORDINAAT": 104431.65, "YCOORDINAAT": 451528.73, "STATUSOBJECT": "gerealiseerd", "CAPACITEITONTWERP": 987, "CAPACITEITHUIDIG": null, "CAPACITEITGEINSTALLEERD": null, "POMPOVERCAPACITEITBESCHIKBAAR": null, "UITSLAGPEIL": null, "AANTALPOMPEN": null, "HYPERLINK": "https://embedservice.hydronet.com/embeds/2ac328ea1200486ab5e9172b2a3cfe84", "LONGITUDE": 4.65000098, "AFVOERRICHTING": null, "LATITUDE": 52.04976211, "EIGENAAR": "Waterschap", "BEHEERDER": "Waterschap", "LAATSTERENOVATIE": null, "NAMESPACE": "Rioolgemaal", "DETAILNIVEAUGEOMETRIE": null, "LVPUBLICATIEDATUM": null, "CODELEIDING": "WW-081-00002", "CODETRANSPORTSTELSEL": "WW-263-00001", "CODEAWZI": "WR-027-00001", "NAAMAWZI": "AWZI Waddinxveen-Randenburg", "CODECOMPLEX": null, "OBJECTID2": 49}}, {"type": "Feature", "id": 50, "geometry": {"type": "Point", "coordinates": [113680.27589999884, 463674.5540000014]}, "properties": {"ORACLE_OBJECTID": 2977, "CODE": "NK-080-00021", "NAAM": "AWTG Nieuwkoop", "JAARVANAANLEG": 1999, "OPMERKING": "cap: 527", "ADRES": "Industrieweg 6 ", "POSTCODE": "2421LJ", "PLAATS": "NIEUWKOOP", "INWINNENDEINSTANTIE": "Hoogheemraadschap van Rijnland", "METENDEINSTANTIE": null, "INWINNINGSMETHODE": null, "DIMENSIE": "2D", "NAUWKEURIGHEIDXY": 99, "NAUWKEURIGHEIDZ": null, "DATUMINWINNING": null, "HYPERLINKFOTO1": null, "HYPERLINKFOTO2": null, "GEOKPOBJECTID": 13, "LAST_EDITED_DATE": 1754312398000, "SOORTRIOOLGEMAAL": "DWA / RWA gemaal", "XCOORDINAAT": 113680.28, "YCOORDINAAT": 463674.55, "STATUSOBJECT": "gerealiseerd", "CAPACITEITONTWERP": 527, "CAPACITEITHUIDIG": null, "CAPACITEITGEINSTALLEERD": null, "POMPOVERCAPACITEITBESCHIKBAAR": null, "UITSLAGPEIL": null, "AANTALPOMPEN": null, "HYPERLINK": null, "LONGITUDE": 4.78334982, "AFVOERRICHTING": null, "LATITUDE": 52.15969049, "EIGENAAR": "Waterschap", "BEHEERDER": "Waterschap", "LAATSTERENOVATIE": null, "NAMESPACE": "Rioolgemaal", "DETAILNIVEAUGEOMETRIE": null, "LVPUBLICATIEDATUM": null, "CODELEIDING": "NK-081-00001", "CODETRANSPORTSTELSEL": "NK-263-00001", "CODEAWZI": "NI-027-00001", "NAAMAWZI": "AWZI Nieuwveen", "CODECOMPLEX": null, "OBJECTID2": 50}}, {"type": "Feature", "id": 62, "geometry": {"type": "Point", "coordinates": [101117.82200000063, 457276.64499999955]}, "properties": {"ORACLE_OBJECTID": 2912, "CODE": "HD-080-00021", "NAAM": "AWTG Hazerswoude-Dorp", "JAARVANAANLEG": 2014, "OPMERKING": "cap: 120", "ADRES": "Pad van Mourits 2 ", "POSTCODE": "2391GD", "PLAATS": "HAZERSWOUDE", "INWINNENDEINSTANTIE": "Hoogheemraadschap van Rijnland", "METENDEINSTANTIE": null, "INWINNINGSMETHODE": "digitaliseren", "DIMENSIE": "2D", "NAUWKEURIGHEIDXY": null, "NAUWKEURIGHEIDZ": null, "DATUMINWINNING": 1614729600000, "HYPERLINKFOTO1": null, "HYPERLINKFOTO2": null, "GEOKPOBJECTID": 102, "LAST_EDITED_DATE": 1751019192000, "SOORTRIOOLGEMAAL": "DWA / RWA gemaal", "XCOORDINAAT": 101117.82, "YCOORDINAAT": 457276.64, "STATUSOBJECT": "gerealiseerd", "CAPACITEITONTWERP": 120, "CAPACITEITHUIDIG": null, "CAPACITEITGEINSTALLEERD": null, "POMPOVERCAPACITEITBESCHIKBAAR": null, "UITSLAGPEIL": null, "AANTALPOMPEN": null, "HYPERLINK": "https://embedservice.hydronet.com/embeds/7ab8217480b446b89fc6b259805faa13", "LONGITUDE": 4.60078753, "AFVOERRICHTING": null, "LATITUDE": 52.10110841, "EIGENAAR": "Waterschap", "BEHEERDER": "Waterschap", "LAATSTERENOVATIE": null, "NAMESPACE": "Rioolgemaal", "DETAILNIVEAUGEOMETRIE": null, "LVPUBLICATIEDATUM": null, "CODELEIDING": "HD-081-00002", "CODETRANSPORTSTELSEL": "HD-263-00001", "CODEAWZI": "AZ-027-00001", "NAAMAWZI": "AWZI Alphen Kerk en Zanen", "CODECOMPLEX": null, "OBJECTID2": 62}}, {"type": "Feature", "id": 67, "geometry": {"type": "Point", "coordinates": [103658.14900000021, 460201.4200000018]}, "properties": {"ORACLE_OBJECTID": 2920, "CODE": "AZ-080-00021", "NAAM": "AWTG Alphen Kerk en Zanen", "JAARVANAANLEG": 1992, "OPMERKING": "cap: 500", "ADRES": "A. van Leeuwenhoekweg 42 ", "POSTCODE": "2408AN", "PLAATS": "ALPHEN AAN DEN RIJN", "INWINNENDEINSTANTIE": "Hoogheemraadschap van Rijnland", "METENDEINSTANTIE": null, "INWINNINGSMETHODE": null, "DIMENSIE": "2D", "NAUWKEURIGHEIDXY": 99, "NAUWKEURIGHEIDZ": null, "DATUMINWINNING": null, "HYPERLINKFOTO1": null, "HYPERLINKFOTO2": null, "GEOKPOBJECTID": 68, "LAST_EDITED_DATE": 1759822890000, "SOORTRIOOLGEMAAL": "DWA / RWA gemaal", "XCOORDINAAT": 103658.15, "YCOORDINAAT": 460201.42, "STATUSOBJECT": "gerealiseerd", "CAPACITEITONTWERP": 500, "CAPACITEITHUIDIG": null, "CAPACITEITGEINSTALLEERD": null, "POMPOVERCAPACITEITBESCHIKBAAR": null, "UITSLAGPEIL": null, "AANTALPOMPEN": null, "HYPERLINK": "https://embedservice.hydronet.com/embeds/e2d520a7c1224996955528fb66dc15b7", "LONGITUDE": 4.63741985, "AFVOERRICHTING": null, "LATITUDE": 52.12763592, "EIGENAAR": "Waterschap", "BEHEERDER": "Waterschap", "LAATSTERENOVATIE": null, "NAMESPACE": "Rioolgemaal", "DETAILNIVEAUGEOMETRIE": null, "LVPUBLICATIEDATUM": null, "CODELEIDING": "AZ-081-00001", "CODETRANSPORTSTELSEL": "AZ-263-00001", "CODEAWZI": "AZ-027-00001", "NAAMAWZI": "AWZI Alphen Kerk en Zanen", "CODECOMPLEX": null, "OBJECTID2": 67}}, {"type": "Feature", "id": 68, "geometry": {"type": "Point", "coordinates": [109446.07400000095, 457952.4670000002]}, "properties": {"ORACLE_OBJECTID": 2921, "CODE": "ZW-080-00021", "NAAM": "AWTG Zwammerdam", "JAARVANAANLEG": 1997, "OPMERKING": "cap: 100", "ADRES": "Vinkebuurt 67 ", "POSTCODE": "2471PZ", "PLAATS": "ZWAMMERDAM", "INWINNENDEINSTANTIE": "Hoogheemraadschap van Rijnland", "METENDEINSTANTIE": null, "INWINNINGSMETHODE": null, "DIMENSIE": "2D", "NAUWKEURIGHEIDXY": 99, "NAUWKEURIGHEIDZ": null, "DATUMINWINNING": null, "HYPERLINKFOTO1": null, "HYPERLINKFOTO2": null, "GEOKPOBJECTID": 69, "LAST_EDITED_DATE": 1751019192000, "SOORTRIOOLGEMAAL": "DWA / RWA gemaal", "XCOORDINAAT": 109446.07, "YCOORDINAAT": 457952.47, "STATUSOBJECT": "gerealiseerd", "CAPACITEITONTWERP": 100, "CAPACITEITHUIDIG": null, "CAPACITEITGEINSTALLEERD": null, "POMPOVERCAPACITEITBESCHIKBAAR": null, "UITSLAGPEIL": null, "AANTALPOMPEN": null, "HYPERLINK": null, "LONGITUDE": 4.72224032, "AFVOERRICHTING": null, "LATITUDE": 52.10793054, "EIGENAAR": "Waterschap", "BEHEERDER": "Waterschap", "LAATSTERENOVATIE": null, "NAMESPACE": "Rioolgemaal", "DETAILNIVEAUGEOMETRIE": null, "LVPUBLICATIEDATUM": null, "CODELEIDING": "ZW-081-00001", "CODETRANSPORTSTELSEL": "ZW-263-00001", "CODEAWZI": "BG-027-00001", "NAAMAWZI": "AWZI Bodegraven", "CODECOMPLEX": null, "OBJECTID2": 68}}, {"type": "Feature", "id": 70, "geometry": {"type": "Point", "coordinates": [106625.67199999839, 452231.61499999836]}, "properties": {"ORACLE_OBJECTID": 2924, "CODE": "RD-080-00021", "NAAM": "AWTG Reeuwijk Dorp", "JAARVANAANLEG": 1991, "OPMERKING": "cap: 52", "ADRES": "Middelburgseweg 24a", "POSTCODE": "2411PH", "PLAATS": "REEUWIJK", "INWINNENDEINSTANTIE": "Hoogheemraadschap van Rijnland", "METENDEINSTANTIE": null, "INWINNINGSMETHODE": null, "DIMENSIE": "2D", "NAUWKEURIGHEIDXY": 99, "NAUWKEURIGHEIDZ": null, "DATUMINWINNING": null, "HYPERLINKFOTO1": null, "HYPERLINKFOTO2": null, "GEOKPOBJECTID": 72, "LAST_EDITED_DATE": 1751019192000, "SOORTRIOOLGEMAAL": "DWA / RWA gemaal", "XCOORDINAAT": 106625.67, "YCOORDINAAT": 452231.61, "STATUSOBJECT": "gerealiseerd", "CAPACITEITONTWERP": 52, "CAPACITEITHUIDIG": null, "CAPACITEITGEINSTALLEERD": null, "POMPOVERCAPACITEITBESCHIKBAAR": null, "UITSLAGPEIL": null, "AANTALPOMPEN": null, "HYPERLINK": null, "LONGITUDE": 4.68188422, "AFVOERRICHTING": null, "LATITUDE": 52.05627511, "EIGENAAR": "Waterschap", "BEHEERDER": "Waterschap", "LAATSTERENOVATIE": null, "NAMESPACE": "Rioolgemaal", "DETAILNIVEAUGEOMETRIE": null, "LVPUBLICATIEDATUM": null, "CODELEIDING": "RD-081-00001", "CODETRANSPORTSTELSEL": "RD-263-00001", "CODEAWZI": "WR-027-00001", "NAAMAWZI": "AWZI Waddinxveen-Randenburg", "CODECOMPLEX": null, "OBJECTID2": 70}}, {"type": "Feature", "id": 85, "geometry": {"type": "Point", "coordinates": [109169.84899999946, 451084.3500000015]}, "properties": {"ORACLE_OBJECTID": 2946, "CODE": "RB-080-00021", "NAAM": "AWTG Reeuwijk Brug West", "JAARVANAANLEG": 1998, "OPMERKING": "cap: 220", "ADRES": "Van Heuven Goedhartstraat 9001 ", "POSTCODE": "2811BT", "PLAATS": "REEUWIJK", "INWINNENDEINSTANTIE": "Hoogheemraadschap van Rijnland", "METENDEINSTANTIE": null, "INWINNINGSMETHODE": null, "DIMENSIE": "2D", "NAUWKEURIGHEIDXY": 99, "NAUWKEURIGHEIDZ": null, "DATUMINWINNING": null, "HYPERLINKFOTO1": null, "HYPERLINKFOTO2": null, "GEOKPOBJECTID": 91, "LAST_EDITED_DATE": 1775811190000, "SOORTRIOOLGEMAAL": "DWA / RWA gemaal", "XCOORDINAAT": 109169.85, "YCOORDINAAT": 451084.35, "STATUSOBJECT": "gerealiseerd", "CAPACITEITONTWERP": 220, "CAPACITEITHUIDIG": null, "CAPACITEITGEINSTALLEERD": null, "POMPOVERCAPACITEITBESCHIKBAAR": null, "UITSLAGPEIL": null, "AANTALPOMPEN": null, "HYPERLINK": "https://embedservice.hydronet.com/embeds/222a9818afd949eca5192de24390f0e2", "LONGITUDE": 4.71913084, "AFVOERRICHTING": null, "LATITUDE": 52.04618022, "EIGENAAR": "Waterschap", "BEHEERDER": "Waterschap", "LAATSTERENOVATIE": null, "NAMESPACE": "Rioolgemaal", "DETAILNIVEAUGEOMETRIE": null, "LVPUBLICATIEDATUM": null, "CODELEIDING": "RB-081-00001", "CODETRANSPORTSTELSEL": "RB-263-00002", "CODEAWZI": "BG-027-00001", "NAAMAWZI": "AWZI Bodegraven", "CODECOMPLEX": null, "OBJECTID2": 85}}, {"type": "Feature", "id": 86, "geometry": {"type": "Point", "coordinates": [96750.09299999848, 454296.13599999994]}, "properties": {"ORACLE_OBJECTID": 2948, "CODE": "BH-080-00021", "NAAM": "AWTG Benthuizen", "JAARVANAANLEG": 1978, "OPMERKING": "cap: 100", "ADRES": "Bentwoudlaan 13 ", "POSTCODE": "2731BS", "PLAATS": "BENTHUIZEN", "INWINNENDEINSTANTIE": "Hoogheemraadschap van Rijnland", "METENDEINSTANTIE": null, "INWINNINGSMETHODE": null, "DIMENSIE": "2D", "NAUWKEURIGHEIDXY": 99, "NAUWKEURIGHEIDZ": null, "DATUMINWINNING": null, "HYPERLINKFOTO1": null, "HYPERLINKFOTO2": null, "GEOKPOBJECTID": 93, "LAST_EDITED_DATE": 1761556032000, "SOORTRIOOLGEMAAL": "DWA / RWA gemaal", "XCOORDINAAT": 96750.09, "YCOORDINAAT": 454296.14, "STATUSOBJECT": "gerealiseerd", "CAPACITEITONTWERP": 100, "CAPACITEITHUIDIG": null, "CAPACITEITGEINSTALLEERD": null, "POMPOVERCAPACITEITBESCHIKBAAR": null, "UITSLAGPEIL": null, "AANTALPOMPEN": null, "HYPERLINK": null, "LONGITUDE": 4.53755559, "AFVOERRICHTING": null, "LATITUDE": 52.07387942, "EIGENAAR": "Waterschap", "BEHEERDER": "Waterschap", "LAATSTERENOVATIE": null, "NAMESPACE": "Rioolgemaal", "DETAILNIVEAUGEOMETRIE": null, "LVPUBLICATIEDATUM": null, "CODELEIDING": "BH-081-00001", "CODETRANSPORTSTELSEL": "BH-263-00001", "CODEAWZI": "HA-027-00001", "NAAMAWZI": "RWZI Harnaschpolder (Delfland)", "CODECOMPLEX": null, "OBJECTID2": 86}}]}