{
"type": "FeatureCollection",
"name": "water_quality",
"features": [
{ "type": "Feature", "properties": { "rowid": 1, "CODE": "23", "NAAM": "Oosterduinse meer Noordwestoever", "KLASSE": "Uitstekend", "JAARBEPALINGKLASSE": 2025, "DATUMMEETPUNT": null, "OPMERKING": "RO374", "RICHTING": 0.0, "XCOORDINAAT": 94785.05, "YCOORDINAAT": 477481.53, "HYPERLINK": null, "LONGITUDE": 4.50478341, "LATITUDE": 52.2820371, "ORACLE_OBJECTID": "654", "STATUS": null, "OBJECTID2": 1, "SHAPE2": null, "geometry_type": "esriGeometryPoint", "geometry_geojson": { "type": "Point", "coordinates": [ 94785.04600000009, 477481.53400000185 ] } }, "geometry": null },
{ "type": "Feature", "properties": { "rowid": 2, "CODE": "18", "NAAM": "Oosterbad", "KLASSE": "Uitstekend", "JAARBEPALINGKLASSE": 2025, "DATUMMEETPUNT": null, "OPMERKING": "RO419", "RICHTING": 0.0, "XCOORDINAAT": 114923.02, "YCOORDINAAT": 477734.75, "HYPERLINK": null, "LONGITUDE": 4.7998469, "LATITUDE": 52.28614712, "ORACLE_OBJECTID": "655", "STATUS": null, "OBJECTID2": 2, "SHAPE2": null, "geometry_type": "esriGeometryPoint", "geometry_geojson": { "type": "Point", "coordinates": [ 114923.01900000125, 477734.74500000104 ] } }, "geometry": null },
{ "type": "Feature", "properties": { "rowid": 3, "CODE": "44", "NAAM": "Nieuwkoopse plassen Meijepark", "KLASSE": "Aanvaardbaar", "JAARBEPALINGKLASSE": 2025, "DATUMMEETPUNT": null, "OPMERKING": "ROP09477", "RICHTING": 0.0, "XCOORDINAAT": 113052.0, "YCOORDINAAT": 460482.0, "HYPERLINK": null, "LONGITUDE": 4.7745624, "LATITUDE": 52.13094999, "ORACLE_OBJECTID": "656", "STATUS": null, "OBJECTID2": 3, "SHAPE2": null, "geometry_type": "esriGeometryPoint", "geometry_geojson": { "type": "Point", "coordinates": [ 113052, 460482 ] } }, "geometry": null },
{ "type": "Feature", "properties": { "rowid": 4, "CODE": "38", "NAAM": "Vlietland Noordwest oever", "KLASSE": "Uitstekend", "JAARBEPALINGKLASSE": 2025, "DATUMMEETPUNT": null, "OPMERKING": "RO429", "RICHTING": 0.0, "XCOORDINAAT": 91485.54, "YCOORDINAAT": 459670.24, "HYPERLINK": null, "LONGITUDE": 4.45977331, "LATITUDE": 52.12159813, "ORACLE_OBJECTID": "657", "STATUS": null, "OBJECTID2": 4, "SHAPE2": null, "geometry_type": "esriGeometryPoint", "geometry_geojson": { "type": "Point", "coordinates": [ 91485.53700000048, 459670.2419999987 ] } }, "geometry": null },
{ "type": "Feature", "properties": { "rowid": 5, "CODE": "34", "NAAM": "Vlietland Speelvijver", "KLASSE": "Uitstekend", "JAARBEPALINGKLASSE": 2025, "DATUMMEETPUNT": null, "OPMERKING": "RO464", "RICHTING": 0.0, "XCOORDINAAT": 92067.0, "YCOORDINAAT": 459526.0, "HYPERLINK": null, "LONGITUDE": 4.46828937, "LATITUDE": 52.12036829, "ORACLE_OBJECTID": "658", "STATUS": null, "OBJECTID2": 5, "SHAPE2": null, "geometry_type": "esriGeometryPoint", "geometry_geojson": { "type": "Point", "coordinates": [ 92067, 459526 ] } }, "geometry": null },
{ "type": "Feature", "properties": { "rowid": 6, "CODE": "35", "NAAM": "Vlietland Noordoost oever", "KLASSE": "Uitstekend", "JAARBEPALINGKLASSE": 2025, "DATUMMEETPUNT": null, "OPMERKING": "RO515", "RICHTING": 0.0, "XCOORDINAAT": 91935.0, "YCOORDINAAT": 459364.0, "HYPERLINK": null, "LONGITUDE": 4.46639222, "LATITUDE": 52.11889735, "ORACLE_OBJECTID": "659", "STATUS": null, "OBJECTID2": 6, "SHAPE2": null, "geometry_type": "esriGeometryPoint", "geometry_geojson": { "type": "Point", "coordinates": [ 91935, 459364 ] } }, "geometry": null },
{ "type": "Feature", "properties": { "rowid": 7, "CODE": "30", "NAAM": "Kagerplassen 't Joppe Westoever", "KLASSE": "Uitstekend", "JAARBEPALINGKLASSE": 2025, "DATUMMEETPUNT": null, "OPMERKING": "RO533", "RICHTING": 0.0, "XCOORDINAAT": 94882.0, "YCOORDINAAT": 467678.0, "HYPERLINK": null, "LONGITUDE": 4.50794563, "LATITUDE": 52.19394398, "ORACLE_OBJECTID": "660", "STATUS": null, "OBJECTID2": 7, "SHAPE2": null, "geometry_type": "esriGeometryPoint", "geometry_geojson": { "type": "Point", "coordinates": [ 94882, 467678 ] } }, "geometry": null },
{ "type": "Feature", "properties": { "rowid": 8, "CODE": "31", "NAAM": "Kagerplassen 't Joppe Merenwijk", "KLASSE": "Goed", "JAARBEPALINGKLASSE": 2025, "DATUMMEETPUNT": null, "OPMERKING": "RO534", "RICHTING": 0.0, "XCOORDINAAT": 95595.65, "YCOORDINAAT": 466937.56, "HYPERLINK": null, "LONGITUDE": 4.5185116, "LATITUDE": 52.18736692, "ORACLE_OBJECTID": "661", "STATUS": null, "OBJECTID2": 8, "SHAPE2": null, "geometry_type": "esriGeometryPoint", "geometry_geojson": { "type": "Point", "coordinates": [ 95595.64699999988, 466937.563000001 ] } }, "geometry": null },
{ "type": "Feature", "properties": { "rowid": 9, "CODE": "39", "NAAM": "Braassemermeer", "KLASSE": "Uitstekend", "JAARBEPALINGKLASSE": 2025, "DATUMMEETPUNT": null, "OPMERKING": "RO536", "RICHTING": 0.0, "XCOORDINAAT": 104159.33, "YCOORDINAAT": 467853.23, "HYPERLINK": null, "LONGITUDE": 4.64359337, "LATITUDE": 52.19645133, "ORACLE_OBJECTID": "662", "STATUS": null, "OBJECTID2": 9, "SHAPE2": null, "geometry_type": "esriGeometryPoint", "geometry_geojson": { "type": "Point", "coordinates": [ 104159.32999999821, 467853.2259999998 ] } }, "geometry": null },
{ "type": "Feature", "properties": { "rowid": 10, "CODE": "43", "NAAM": "Zegerplas Westoever", "KLASSE": "Goed", "JAARBEPALINGKLASSE": 2025, "DATUMMEETPUNT": null, "OPMERKING": "RO573", "RICHTING": 0.0, "XCOORDINAAT": 106431.24, "YCOORDINAAT": 461096.66, "HYPERLINK": null, "LONGITUDE": 4.6777865, "LATITUDE": 52.13593234, "ORACLE_OBJECTID": "663", "STATUS": null, "OBJECTID2": 10, "SHAPE2": null, "geometry_type": "esriGeometryPoint", "geometry_geojson": { "type": "Point", "coordinates": [ 106431.23600000143, 461096.6629999988 ] } }, "geometry": null },
{ "type": "Feature", "properties": { "rowid": 11, "CODE": "50", "NAAM": "Nieuwe Meer Noord", "KLASSE": "Uitstekend", "JAARBEPALINGKLASSE": 2025, "DATUMMEETPUNT": null, "OPMERKING": "RO539", "RICHTING": 0.0, "XCOORDINAAT": 116094.9, "YCOORDINAAT": 483168.01, "HYPERLINK": null, "LONGITUDE": 4.8163939, "LATITUDE": 52.33506166, "ORACLE_OBJECTID": "664", "STATUS": null, "OBJECTID2": 11, "SHAPE2": null, "geometry_type": "esriGeometryPoint", "geometry_geojson": { "type": "Point", "coordinates": [ 116094.89909999818, 483168.01359999925 ] } }, "geometry": null },
{ "type": "Feature", "properties": { "rowid": 12, "CODE": "41", "NAAM": "Wijde Aa Zuidoever", "KLASSE": "Uitstekend", "JAARBEPALINGKLASSE": 2025, "DATUMMEETPUNT": null, "OPMERKING": "RO538", "RICHTING": 0.0, "XCOORDINAAT": 102337.0, "YCOORDINAAT": 465393.0, "HYPERLINK": null, "LONGITUDE": 4.61732351, "LATITUDE": 52.17416985, "ORACLE_OBJECTID": "665", "STATUS": null, "OBJECTID2": 12, "SHAPE2": null, "geometry_type": "esriGeometryPoint", "geometry_geojson": { "type": "Point", "coordinates": [ 102337, 465393 ] } }, "geometry": null },
{ "type": "Feature", "properties": { "rowid": 13, "CODE": "19", "NAAM": "Vrouwentroost", "KLASSE": "Uitstekend", "JAARBEPALINGKLASSE": 2025, "DATUMMEETPUNT": null, "OPMERKING": "RO579", "RICHTING": 0.0, "XCOORDINAAT": 111970.32, "YCOORDINAAT": 474045.21, "HYPERLINK": null, "LONGITUDE": 4.75704524, "LATITUDE": 52.2527653, "ORACLE_OBJECTID": "666", "STATUS": null, "OBJECTID2": 13, "SHAPE2": null, "geometry_type": "esriGeometryPoint", "geometry_geojson": { "type": "Point", "coordinates": [ 111970.32009999827, 474045.2129999995 ] } }, "geometry": null },
{ "type": "Feature", "properties": { "rowid": 14, "CODE": "13", "NAAM": "Haarlemmermeerse Bos Vijver", "KLASSE": "Slecht", "JAARBEPALINGKLASSE": 2025, "DATUMMEETPUNT": null, "OPMERKING": "ROP18048", "RICHTING": 0.0, "XCOORDINAAT": 105823.46, "YCOORDINAAT": 482114.39, "HYPERLINK": null, "LONGITUDE": 4.66585682, "LATITUDE": 52.3247698, "ORACLE_OBJECTID": "641", "STATUS": null, "OBJECTID2": 14, "SHAPE2": null, "geometry_type": "esriGeometryPoint", "geometry_geojson": { "type": "Point", "coordinates": [ 105823.4600000009, 482114.39400000125 ] } }, "geometry": null },
{ "type": "Feature", "properties": { "rowid": 15, "CODE": "08", "NAAM": "Westbroekplas", "KLASSE": "Goed", "JAARBEPALINGKLASSE": 2025, "DATUMMEETPUNT": null, "OPMERKING": "ROP30805", "RICHTING": 0.0, "XCOORDINAAT": 106396.2, "YCOORDINAAT": 493539.81, "HYPERLINK": null, "LONGITUDE": 4.67260485, "LATITUDE": 52.42750085, "ORACLE_OBJECTID": "642", "STATUS": null, "OBJECTID2": 15, "SHAPE2": null, "geometry_type": "esriGeometryPoint", "geometry_geojson": { "type": "Point", "coordinates": [ 106396.20499999821, 493539.8139999993 ] } }, "geometry": null },
{ "type": "Feature", "properties": { "rowid": 16, "CODE": "10", "NAAM": "Veerplas", "KLASSE": "Aanvaardbaar", "JAARBEPALINGKLASSE": 2025, "DATUMMEETPUNT": null, "OPMERKING": "ROP20802", "RICHTING": 0.0, "XCOORDINAAT": 106520.76, "YCOORDINAAT": 489104.29, "HYPERLINK": null, "LONGITUDE": 4.67507705, "LATITUDE": 52.38765012, "ORACLE_OBJECTID": "643", "STATUS": null, "OBJECTID2": 16, "SHAPE2": null, "geometry_type": "esriGeometryPoint", "geometry_geojson": { "type": "Point", "coordinates": [ 106520.76469999924, 489104.2897000015 ] } }, "geometry": null },
{ "type": "Feature", "properties": { "rowid": 17, "CODE": "53", "NAAM": "Villa Westend", "KLASSE": "Uitstekend", "JAARBEPALINGKLASSE": 2025, "DATUMMEETPUNT": null, "OPMERKING": "ROP30833", "RICHTING": 0.0, "XCOORDINAAT": 106372.58, "YCOORDINAAT": 493205.03, "HYPERLINK": null, "LONGITUDE": 4.67230617, "LATITUDE": 52.42449006, "ORACLE_OBJECTID": "644", "STATUS": null, "OBJECTID2": 17, "SHAPE2": null, "geometry_type": "esriGeometryPoint", "geometry_geojson": { "type": "Point", "coordinates": [ 106372.58419999853, 493205.02710000053 ] } }, "geometry": null },
{ "type": "Feature", "properties": { "rowid": 18, "CODE": "54", "NAAM": "Noord Aa Naaktstrand", "KLASSE": "Uitstekend", "JAARBEPALINGKLASSE": 2025, "DATUMMEETPUNT": null, "OPMERKING": "ROP24735", "RICHTING": 0.0, "XCOORDINAAT": 95031.76, "YCOORDINAAT": 455575.43, "HYPERLINK": null, "LONGITUDE": 4.51226949, "LATITUDE": 52.08519326, "ORACLE_OBJECTID": "645", "STATUS": null, "OBJECTID2": 18, "SHAPE2": null, "geometry_type": "esriGeometryPoint", "geometry_geojson": { "type": "Point", "coordinates": [ 95031.76199999824, 455575.42660000175 ] } }, "geometry": null },
{ "type": "Feature", "properties": { "rowid": 19, "CODE": "09", "NAAM": "Spaarnwoude Naaktrecreatie", "KLASSE": "Goed", "JAARBEPALINGKLASSE": 2025, "DATUMMEETPUNT": null, "OPMERKING": "ROP30910", "RICHTING": 0.0, "XCOORDINAAT": 107318.7, "YCOORDINAAT": 493466.91, "HYPERLINK": null, "LONGITUDE": 4.6861773, "LATITUDE": 52.42692667, "ORACLE_OBJECTID": "646", "STATUS": null, "OBJECTID2": 19, "SHAPE2": null, "geometry_type": "esriGeometryPoint", "geometry_geojson": { "type": "Point", "coordinates": [ 107318.70199999958, 493466.90900000185 ] } }, "geometry": null },
{ "type": "Feature", "properties": { "rowid": 20, "CODE": "02", "NAAM": "Peddelpoel", "KLASSE": "Goed", "JAARBEPALINGKLASSE": 2025, "DATUMMEETPUNT": null, "OPMERKING": "ROP30921", "RICHTING": 0.0, "XCOORDINAAT": 106623.92, "YCOORDINAAT": 494749.68, "HYPERLINK": null, "LONGITUDE": 4.67577788, "LATITUDE": 52.43839394, "ORACLE_OBJECTID": "647", "STATUS": null, "OBJECTID2": 20, "SHAPE2": null, "geometry_type": "esriGeometryPoint", "geometry_geojson": { "type": "Point", "coordinates": [ 106623.91899999976, 494749.68200000003 ] } }, "geometry": null },
{ "type": "Feature", "properties": { "rowid": 21, "CODE": "49", "NAAM": "Amsterdamse Bos Grote Vijver", "KLASSE": "Goed", "JAARBEPALINGKLASSE": 2025, "DATUMMEETPUNT": null, "OPMERKING": "ROP40120", "RICHTING": 0.0, "XCOORDINAAT": 116863.0, "YCOORDINAAT": 481462.06, "HYPERLINK": null, "LONGITUDE": 4.8278559, "LATITUDE": 52.31978359, "ORACLE_OBJECTID": "648", "STATUS": null, "OBJECTID2": 21, "SHAPE2": null, "geometry_type": "esriGeometryPoint", "geometry_geojson": { "type": "Point", "coordinates": [ 116862.99509999901, 481462.0615000017 ] } }, "geometry": null },
{ "type": "Feature", "properties": { "rowid": 22, "CODE": "56", "NAAM": "Nieuwe Meer Steiger", "KLASSE": "Uitstekend", "JAARBEPALINGKLASSE": 2025, "DATUMMEETPUNT": null, "OPMERKING": "RO1039", "RICHTING": 0.0, "XCOORDINAAT": 118146.19, "YCOORDINAAT": 482910.29, "HYPERLINK": null, "LONGITUDE": 4.8465171, "LATITUDE": 52.33288676, "ORACLE_OBJECTID": "649", "STATUS": null, "OBJECTID2": 22, "SHAPE2": null, "geometry_type": "esriGeometryPoint", "geometry_geojson": { "type": "Point", "coordinates": [ 118146.19370000064, 482910.28979999945 ] } }, "geometry": null },
{ "type": "Feature", "properties": { "rowid": 23, "CODE": "07", "NAAM": "'t Wed", "KLASSE": "Uitstekend", "JAARBEPALINGKLASSE": 2025, "DATUMMEETPUNT": null, "OPMERKING": "RO420", "RICHTING": 0.0, "XCOORDINAAT": 100733.46, "YCOORDINAAT": 490395.25, "HYPERLINK": null, "LONGITUDE": 4.58986417, "LATITUDE": 52.39871003, "ORACLE_OBJECTID": "650", "STATUS": null, "OBJECTID2": 23, "SHAPE2": null, "geometry_type": "esriGeometryPoint", "geometry_geojson": { "type": "Point", "coordinates": [ 100733.45600000024, 490395.2479999997 ] } }, "geometry": null },
{ "type": "Feature", "properties": { "rowid": 24, "CODE": "06", "NAAM": "Oosterplas", "KLASSE": "Uitstekend", "JAARBEPALINGKLASSE": 2025, "DATUMMEETPUNT": null, "OPMERKING": "RO423", "RICHTING": 0.0, "XCOORDINAAT": 101811.0, "YCOORDINAAT": 492414.0, "HYPERLINK": null, "LONGITUDE": 4.60537504, "LATITUDE": 52.4169577, "ORACLE_OBJECTID": "651", "STATUS": null, "OBJECTID2": 24, "SHAPE2": null, "geometry_type": "esriGeometryPoint", "geometry_geojson": { "type": "Point", "coordinates": [ 101811, 492414 ] } }, "geometry": null },
{ "type": "Feature", "properties": { "rowid": 25, "CODE": "55", "NAAM": "Vadedoplas", "KLASSE": "Uitstekend", "JAARBEPALINGKLASSE": 2025, "DATUMMEETPUNT": null, "OPMERKING": "RO1023", "RICHTING": 0.0, "XCOORDINAAT": 97260.47, "YCOORDINAAT": 462923.56, "HYPERLINK": null, "LONGITUDE": 4.54353684, "LATITUDE": 52.15146925, "ORACLE_OBJECTID": "652", "STATUS": null, "OBJECTID2": 25, "SHAPE2": null, "geometry_type": "esriGeometryPoint", "geometry_geojson": { "type": "Point", "coordinates": [ 97260.4728000015, 462923.558699999 ] } }, "geometry": null },
{ "type": "Feature", "properties": { "rowid": 26, "CODE": "51", "NAAM": "Zegerplas Zuidoever", "KLASSE": "Uitstekend", "JAARBEPALINGKLASSE": 2025, "DATUMMEETPUNT": null, "OPMERKING": "RO373", "RICHTING": 0.0, "XCOORDINAAT": 106803.02, "YCOORDINAAT": 460443.22, "HYPERLINK": null, "LONGITUDE": 4.68330905, "LATITUDE": 52.13009212, "ORACLE_OBJECTID": "653", "STATUS": null, "OBJECTID2": 26, "SHAPE2": null, "geometry_type": "esriGeometryPoint", "geometry_geojson": { "type": "Point", "coordinates": [ 106803.01649999991, 460443.22089999914 ] } }, "geometry": null },
{ "type": "Feature", "properties": { "rowid": 27, "CODE": "21", "NAAM": "Kagerplassen Kleipoel", "KLASSE": "Uitstekend", "JAARBEPALINGKLASSE": 2025, "DATUMMEETPUNT": null, "OPMERKING": "RO580", "RICHTING": 0.0, "XCOORDINAAT": 100408.57, "YCOORDINAAT": 468579.98, "HYPERLINK": null, "LONGITUDE": 4.58862165, "LATITUDE": 52.20262452, "ORACLE_OBJECTID": "667", "STATUS": null, "OBJECTID2": 27, "SHAPE2": null, "geometry_type": "esriGeometryPoint", "geometry_geojson": { "type": "Point", "coordinates": [ 100408.57400000095, 468579.98099999875 ] } }, "geometry": null },
{ "type": "Feature", "properties": { "rowid": 28, "CODE": "27", "NAAM": "Valkenburgse meer", "KLASSE": "Uitstekend", "JAARBEPALINGKLASSE": 2025, "DATUMMEETPUNT": null, "OPMERKING": "RO594", "RICHTING": 0.0, "XCOORDINAAT": 90308.97, "YCOORDINAAT": 463900.04, "HYPERLINK": null, "LONGITUDE": 4.44179093, "LATITUDE": 52.15947481, "ORACLE_OBJECTID": "668", "STATUS": null, "OBJECTID2": 28, "SHAPE2": null, "geometry_type": "esriGeometryPoint", "geometry_geojson": { "type": "Point", "coordinates": [ 90308.96999999881, 463900.04300000146 ] } }, "geometry": null },
{ "type": "Feature", "properties": { "rowid": 29, "CODE": "17", "NAAM": "Nieuwe Meer West", "KLASSE": "Uitstekend", "JAARBEPALINGKLASSE": 2025, "DATUMMEETPUNT": null, "OPMERKING": "RO607", "RICHTING": 0.0, "XCOORDINAAT": 115800.0, "YCOORDINAAT": 482975.0, "HYPERLINK": null, "LONGITUDE": 4.81208985, "LATITUDE": 52.33330605, "ORACLE_OBJECTID": "669", "STATUS": null, "OBJECTID2": 29, "SHAPE2": null, "geometry_type": "esriGeometryPoint", "geometry_geojson": { "type": "Point", "coordinates": [ 115800, 482975 ] } }, "geometry": null },
{ "type": "Feature", "properties": { "rowid": 30, "CODE": "48", "NAAM": "Reeuwijkse plassen Elfhoeven", "KLASSE": "Uitstekend", "JAARBEPALINGKLASSE": 2025, "DATUMMEETPUNT": null, "OPMERKING": "ROP13412", "RICHTING": 0.0, "XCOORDINAAT": 110416.77, "YCOORDINAAT": 449491.89, "HYPERLINK": null, "LONGITUDE": 4.73751383, "LATITUDE": 52.0319695, "ORACLE_OBJECTID": "682", "STATUS": null, "OBJECTID2": 30, "SHAPE2": null, "geometry_type": "esriGeometryPoint", "geometry_geojson": { "type": "Point", "coordinates": [ 110416.7659999989, 449491.89400000125 ] } }, "geometry": null },
{ "type": "Feature", "properties": { "rowid": 31, "CODE": "15", "NAAM": "Toolenburg West", "KLASSE": "Goed", "JAARBEPALINGKLASSE": 2025, "DATUMMEETPUNT": null, "OPMERKING": "ROP180147", "RICHTING": 0.0, "XCOORDINAAT": 104390.0, "YCOORDINAAT": 479060.0, "HYPERLINK": null, "LONGITUDE": 4.64529025, "LATITUDE": 52.29718971, "ORACLE_OBJECTID": "683", "STATUS": null, "OBJECTID2": 31, "SHAPE2": null, "geometry_type": "esriGeometryPoint", "geometry_geojson": { "type": "Point", "coordinates": [ 104390, 479060 ] } }, "geometry": null },
{ "type": "Feature", "properties": { "rowid": 32, "CODE": "12", "NAAM": "Haarlemmermeerse Bos Plas", "KLASSE": "Slecht", "JAARBEPALINGKLASSE": 2025, "DATUMMEETPUNT": null, "OPMERKING": "ROP18046", "RICHTING": 0.0, "XCOORDINAAT": 106150.44, "YCOORDINAAT": 482157.45, "HYPERLINK": null, "LONGITUDE": 4.67064654, "LATITUDE": 52.32518592, "ORACLE_OBJECTID": "684", "STATUS": null, "OBJECTID2": 32, "SHAPE2": null, "geometry_type": "esriGeometryPoint", "geometry_geojson": { "type": "Point", "coordinates": [ 106150.44000000134, 482157.4519999996 ] } }, "geometry": null },
{ "type": "Feature", "properties": { "rowid": 33, "CODE": "20", "NAAM": "Kudelstaart Steiger", "KLASSE": "Slecht", "JAARBEPALINGKLASSE": 2025, "DATUMMEETPUNT": null, "OPMERKING": "RO749", "RICHTING": 0.0, "XCOORDINAAT": 111021.42, "YCOORDINAAT": 472143.76, "HYPERLINK": null, "LONGITUDE": 4.74339679, "LATITUDE": 52.23560139, "ORACLE_OBJECTID": "670", "STATUS": null, "OBJECTID2": 33, "SHAPE2": null, "geometry_type": "esriGeometryPoint", "geometry_geojson": { "type": "Point", "coordinates": [ 111021.41660000011, 472143.75840000063 ] } }, "geometry": null },
{ "type": "Feature", "properties": { "rowid": 34, "CODE": "25", "NAAM": "Kagerplassen Kaageiland", "KLASSE": "Uitstekend", "JAARBEPALINGKLASSE": 2025, "DATUMMEETPUNT": null, "OPMERKING": "RO875", "RICHTING": 0.0, "XCOORDINAAT": 98310.0, "YCOORDINAAT": 470098.0, "HYPERLINK": null, "LONGITUDE": 4.5576721, "LATITUDE": 52.21605547, "ORACLE_OBJECTID": "671", "STATUS": null, "OBJECTID2": 34, "SHAPE2": null, "geometry_type": "esriGeometryPoint", "geometry_geojson": { "type": "Point", "coordinates": [ 98310, 470098 ] } }, "geometry": null },
{ "type": "Feature", "properties": { "rowid": 35, "CODE": "11", "NAAM": "Molenplas", "KLASSE": "Goed", "JAARBEPALINGKLASSE": 2025, "DATUMMEETPUNT": null, "OPMERKING": "RO925", "RICHTING": 0.0, "XCOORDINAAT": 105167.0, "YCOORDINAAT": 484435.0, "HYPERLINK": null, "LONGITUDE": 4.65588484, "LATITUDE": 52.34556607, "ORACLE_OBJECTID": "672", "STATUS": null, "OBJECTID2": 35, "SHAPE2": null, "geometry_type": "esriGeometryPoint", "geometry_geojson": { "type": "Point", "coordinates": [ 105167, 484435 ] } }, "geometry": null },
{ "type": "Feature", "properties": { "rowid": 36, "CODE": "32", "NAAM": "EuroParcs Kagerplassen", "KLASSE": "Uitstekend", "JAARBEPALINGKLASSE": 2025, "DATUMMEETPUNT": null, "OPMERKING": "RO928", "RICHTING": 0.0, "XCOORDINAAT": 98050.86, "YCOORDINAAT": 468404.05, "HYPERLINK": null, "LONGITUDE": 4.55416524, "LATITUDE": 52.20080513, "ORACLE_OBJECTID": "673", "STATUS": null, "OBJECTID2": 36, "SHAPE2": null, "geometry_type": "esriGeometryPoint", "geometry_geojson": { "type": "Point", "coordinates": [ 98050.86499999836, 468404.05099999905 ] } }, "geometry": null },
{ "type": "Feature", "properties": { "rowid": 37, "CODE": "52", "NAAM": "Venegat", "KLASSE": "Uitstekend", "JAARBEPALINGKLASSE": 2025, "DATUMMEETPUNT": null, "OPMERKING": "RO941", "RICHTING": 0.0, "XCOORDINAAT": 105853.42, "YCOORDINAAT": 467954.94, "HYPERLINK": null, "LONGITUDE": 4.66835504, "LATITUDE": 52.19751894, "ORACLE_OBJECTID": "674", "STATUS": null, "OBJECTID2": 37, "SHAPE2": null, "geometry_type": "esriGeometryPoint", "geometry_geojson": { "type": "Point", "coordinates": [ 105853.42410000041, 467954.94249999896 ] } }, "geometry": null },
{ "type": "Feature", "properties": { "rowid": 38, "CODE": "45", "NAAM": "Reeuwijkse Hout", "KLASSE": "Uitstekend", "JAARBEPALINGKLASSE": 2025, "DATUMMEETPUNT": null, "OPMERKING": "ROP01806", "RICHTING": 0.0, "XCOORDINAAT": 110725.52, "YCOORDINAAT": 452441.04, "HYPERLINK": null, "LONGITUDE": 4.7416309, "LATITUDE": 52.05850003, "ORACLE_OBJECTID": "675", "STATUS": null, "OBJECTID2": 38, "SHAPE2": null, "geometry_type": "esriGeometryPoint", "geometry_geojson": { "type": "Point", "coordinates": [ 110725.52199999988, 452441.0370000005 ] } }, "geometry": null },
{ "type": "Feature", "properties": { "rowid": 39, "CODE": "36", "NAAM": "Noord Aa Speelvijver", "KLASSE": "Goed", "JAARBEPALINGKLASSE": 2025, "DATUMMEETPUNT": null, "OPMERKING": "ROP022A17", "RICHTING": 0.0, "XCOORDINAAT": 94965.01, "YCOORDINAAT": 455655.85, "HYPERLINK": null, "LONGITUDE": 4.5112816, "LATITUDE": 52.08590877, "ORACLE_OBJECTID": "676", "STATUS": null, "OBJECTID2": 39, "SHAPE2": null, "geometry_type": "esriGeometryPoint", "geometry_geojson": { "type": "Point", "coordinates": [ 94965.01480000094, 455655.84589999914 ] } }, "geometry": null },
{ "type": "Feature", "properties": { "rowid": 40, "CODE": "37", "NAAM": "Noord Aa Zwemstrand", "KLASSE": "Uitstekend", "JAARBEPALINGKLASSE": 2025, "DATUMMEETPUNT": null, "OPMERKING": "ROP022A05", "RICHTING": 0.0, "XCOORDINAAT": 94671.2, "YCOORDINAAT": 455934.16, "HYPERLINK": null, "LONGITUDE": 4.50694603, "LATITUDE": 52.08837807, "ORACLE_OBJECTID": "677", "STATUS": null, "OBJECTID2": 40, "SHAPE2": null, "geometry_type": "esriGeometryPoint", "geometry_geojson": { "type": "Point", "coordinates": [ 94671.19929999858, 455934.1570000015 ] } }, "geometry": null },
{ "type": "Feature", "properties": { "rowid": 41, "CODE": "14", "NAAM": "Toolenburg Noord", "KLASSE": "Slecht", "JAARBEPALINGKLASSE": 2025, "DATUMMEETPUNT": null, "OPMERKING": "ROP180116", "RICHTING": 0.0, "XCOORDINAAT": 104692.43, "YCOORDINAAT": 479455.82, "HYPERLINK": null, "LONGITUDE": 4.64966427, "LATITUDE": 52.30077467, "ORACLE_OBJECTID": "679", "STATUS": null, "OBJECTID2": 41, "SHAPE2": null, "geometry_type": "esriGeometryPoint", "geometry_geojson": { "type": "Point", "coordinates": [ 104692.4263000004, 479455.815200001 ] } }, "geometry": null },
{ "type": "Feature", "properties": { "rowid": 42, "CODE": "29", "NAAM": "Klinkenbergerplas Westoever", "KLASSE": "Uitstekend", "JAARBEPALINGKLASSE": 2025, "DATUMMEETPUNT": null, "OPMERKING": "ROP15404", "RICHTING": 0.0, "XCOORDINAAT": 93400.48, "YCOORDINAAT": 467794.29, "HYPERLINK": null, "LONGITUDE": 4.48625894, "LATITUDE": 52.19482573, "ORACLE_OBJECTID": "680", "STATUS": null, "OBJECTID2": 42, "SHAPE2": null, "geometry_type": "esriGeometryPoint", "geometry_geojson": { "type": "Point", "coordinates": [ 93400.47500000149, 467794.29199999943 ] } }, "geometry": null },
{ "type": "Feature", "properties": { "rowid": 43, "CODE": "28", "NAAM": "Klinkenbergerplas Noordoever", "KLASSE": "Uitstekend", "JAARBEPALINGKLASSE": 2025, "DATUMMEETPUNT": null, "OPMERKING": "ROP15403", "RICHTING": 0.0, "XCOORDINAAT": 93396.16, "YCOORDINAAT": 468310.7, "HYPERLINK": null, "LONGITUDE": 4.48610199, "LATITUDE": 52.19946618, "ORACLE_OBJECTID": "681", "STATUS": null, "OBJECTID2": 43, "SHAPE2": null, "geometry_type": "esriGeometryPoint", "geometry_geojson": { "type": "Point", "coordinates": [ 93396.15700000152, 468310.69900000095 ] } }, "geometry": null }
]
}
