{"type": "FeatureCollection", "features": [{"type": "Feature", "id": 1, "geometry": {"type": "Point", "coordinates": [105993.32400000095, 462803.5159999989]}, "properties": {"Stelsel": "", "stelseltype": "", "naam": "AG29219", "type": "http://data.gwsw.nl/1.4/totaal/Gemaal", "Begindatum": "2018-01-01", "BreedteBouwwerk": "1760", "LengteBouwwerk": "4820", "OBJECTID": 1}}, {"type": "Feature", "id": 2, "geometry": {"type": "Point", "coordinates": [105902.36899999902, 459504.7340000011]}, "properties": {"Stelsel": "", "stelseltype": "", "naam": "AG4442", "type": "http://data.gwsw.nl/1.4/totaal/Gemaal", "Begindatum": "", "BreedteBouwwerk": "0", "LengteBouwwerk": "0", "OBJECTID": 2}}, {"type": "Feature", "id": 3, "geometry": {"type": "Point", "coordinates": [105884.83199999854, 459780.3909999989]}, "properties": {"Stelsel": "", "stelseltype": "", "naam": "AG4485", "type": "http://data.gwsw.nl/1.4/totaal/Gemaal", "Begindatum": "", "BreedteBouwwerk": "0", "LengteBouwwerk": "0", "OBJECTID": 3}}, {"type": "Feature", "id": 4, "geometry": {"type": "Point", "coordinates": [105439.77199999988, 459973.7800000012]}, "properties": {"Stelsel": "", "stelseltype": "", "naam": "AG4513", "type": "http://data.gwsw.nl/1.4/totaal/Gemaal", "Begindatum": "", "BreedteBouwwerk": "0", "LengteBouwwerk": "0", "OBJECTID": 4}}, {"type": "Feature", "id": 5, "geometry": {"type": "Point", "coordinates": [103830.1400000006, 459730.80000000075]}, "properties": {"Stelsel": "", "stelseltype": "", "naam": "AG7359", "type": "http://data.gwsw.nl/1.4/totaal/Gemaal", "Begindatum": "", "BreedteBouwwerk": "0", "LengteBouwwerk": "0", "OBJECTID": 5}}, {"type": "Feature", "id": 6, "geometry": {"type": "Point", "coordinates": [104126.08100000024, 463417.4459999986]}, "properties": {"Stelsel": "", "stelseltype": "", "naam": "AG7368", "type": "http://data.gwsw.nl/1.4/totaal/Gemaal", "Begindatum": "", "BreedteBouwwerk": "0", "LengteBouwwerk": "0", "OBJECTID": 6}}, {"type": "Feature", "id": 7, "geometry": {"type": "Point", "coordinates": [104380.20800000057, 463440.1970000006]}, "properties": {"Stelsel": "", "stelseltype": "", "naam": "AG7407", "type": "http://data.gwsw.nl/1.4/totaal/Gemaal", "Begindatum": "", "BreedteBouwwerk": "0", "LengteBouwwerk": "0", "OBJECTID": 7}}, {"type": "Feature", "id": 8, "geometry": {"type": "Point", "coordinates": [109901.87999999896, 457878.12999999896]}, "properties": {"Stelsel": "", "stelseltype": "", "naam": "AG7693", "type": "http://data.gwsw.nl/1.4/totaal/Gemaal", "Begindatum": "", "BreedteBouwwerk": "0", "LengteBouwwerk": "0", "OBJECTID": 8}}, {"type": "Feature", "id": 9, "geometry": {"type": "Point", "coordinates": [104554.88199999928, 459929.4360000007]}, "properties": {"Stelsel": "", "stelseltype": "", "naam": "AG8096", "type": "http://data.gwsw.nl/1.4/totaal/Gemaal", "Begindatum": "", "BreedteBouwwerk": "0", "LengteBouwwerk": "0", "OBJECTID": 9}}, {"type": "Feature", "id": 10, "geometry": {"type": "Point", "coordinates": [103210.71400000155, 459700.6739999987]}, "properties": {"Stelsel": "", "stelseltype": "", "naam": "AG8747", "type": "http://data.gwsw.nl/1.4/totaal/Gemaal", "Begindatum": "", "BreedteBouwwerk": "0", "LengteBouwwerk": "0", "OBJECTID": 10}}, {"type": "Feature", "id": 11, "geometry": {"type": "Point", "coordinates": [105199.62000000104, 461780.6799999997]}, "properties": {"Stelsel": "", "stelseltype": "", "naam": "AG9384", "type": "http://data.gwsw.nl/1.4/totaal/Gemaal", "Begindatum": "", "BreedteBouwwerk": "0", "LengteBouwwerk": "0", "OBJECTID": 11}}, {"type": "Feature", "id": 12, "geometry": {"type": "Point", "coordinates": [103623.36499999836, 459209.8839999996]}, "properties": {"Stelsel": "", "stelseltype": "", "naam": "A21243", "type": "http://data.gwsw.nl/1.4/totaal/Gemaal", "Begindatum": "2017-01-01", "BreedteBouwwerk": "1500", "LengteBouwwerk": "1500", "OBJECTID": 12}}, {"type": "Feature", "id": 13, "geometry": {"type": "Point", "coordinates": [105856.66099999845, 454681.9609999992]}, "properties": {"Stelsel": "", "stelseltype": "", "naam": "BKGBI-89", "type": "http://data.gwsw.nl/1.4/totaal/Gemaal", "Begindatum": "", "BreedteBouwwerk": "0", "LengteBouwwerk": "0", "OBJECTID": 13}}, {"type": "Feature", "id": 14, "geometry": {"type": "Point", "coordinates": [106282.61899999902, 454660.6030000001]}, "properties": {"Stelsel": "", "stelseltype": "", "naam": "BKGBZ-139", "type": "http://data.gwsw.nl/1.4/totaal/Gemaal", "Begindatum": "", "BreedteBouwwerk": "0", "LengteBouwwerk": "0", "OBJECTID": 14}}, {"type": "Feature", "id": 15, "geometry": {"type": "Point", "coordinates": [105469.15199999884, 454698.2710000016]}, "properties": {"Stelsel": "", "stelseltype": "", "naam": "BKGBZ25", "type": "http://data.gwsw.nl/1.4/totaal/Gemaal", "Begindatum": "", "BreedteBouwwerk": "0", "LengteBouwwerk": "0", "OBJECTID": 15}}, {"type": "Feature", "id": 16, "geometry": {"type": "Point", "coordinates": [104174.39799999818, 455938.9299999997]}, "properties": {"Stelsel": "", "stelseltype": "", "naam": "BKGCK-07", "type": "http://data.gwsw.nl/1.4/totaal/Gemaal", "Begindatum": "", "BreedteBouwwerk": "0", "LengteBouwwerk": "0", "OBJECTID": 16}}, {"type": "Feature", "id": 17, "geometry": {"type": "Point", "coordinates": [106520.24300000072, 454608.61199999973]}, "properties": {"Stelsel": "", "stelseltype": "", "naam": "BKGDPS-05", "type": "http://data.gwsw.nl/1.4/totaal/Gemaal", "Begindatum": "", "BreedteBouwwerk": "0", "LengteBouwwerk": "0", "OBJECTID": 17}}, {"type": "Feature", "id": 18, "geometry": {"type": "Point", "coordinates": [106530.80900000036, 455129.52899999917]}, "properties": {"Stelsel": "", "stelseltype": "", "naam": "BKGGR-236", "type": "http://data.gwsw.nl/1.4/totaal/Gemaal", "Begindatum": "", "BreedteBouwwerk": "1000", "LengteBouwwerk": "2000", "OBJECTID": 18}}, {"type": "Feature", "id": 19, "geometry": {"type": "Point", "coordinates": [107513.17700000107, 456111.4070000015]}, "properties": {"Stelsel": "", "stelseltype": "", "naam": "BKGIN-57", "type": "http://data.gwsw.nl/1.4/totaal/Gemaal", "Begindatum": "", "BreedteBouwwerk": "0", "LengteBouwwerk": "0", "OBJECTID": 19}}, {"type": "Feature", "id": 20, "geometry": {"type": "Point", "coordinates": [104537.71799999848, 453762.5069999993]}, "properties": {"Stelsel": "", "stelseltype": "", "naam": "BKGJUP-40", "type": "http://data.gwsw.nl/1.4/totaal/Gemaal", "Begindatum": "", "BreedteBouwwerk": "1000", "LengteBouwwerk": "0", "OBJECTID": 20}}, {"type": "Feature", "id": 21, "geometry": {"type": "Point", "coordinates": [104393.20600000024, 455161.8669999987]}, "properties": {"Stelsel": "", "stelseltype": "", "naam": "BKGLBK-69", "type": "http://data.gwsw.nl/1.4/totaal/Gemaal", "Begindatum": "", "BreedteBouwwerk": "0", "LengteBouwwerk": "0", "OBJECTID": 21}}, {"type": "Feature", "id": 22, "geometry": {"type": "Point", "coordinates": [104936, 456423.2800000012]}, "properties": {"Stelsel": "", "stelseltype": "", "naam": "BKGMK-26A", "type": "http://data.gwsw.nl/1.4/totaal/Gemaal", "Begindatum": "", "BreedteBouwwerk": "0", "LengteBouwwerk": "0", "OBJECTID": 22}}, {"type": "Feature", "id": 23, "geometry": {"type": "Point", "coordinates": [105306.13899999857, 454721.0549999997]}, "properties": {"Stelsel": "", "stelseltype": "", "naam": "BKGNWS-140", "type": "http://data.gwsw.nl/1.4/totaal/Gemaal", "Begindatum": "", "BreedteBouwwerk": "0", "LengteBouwwerk": "0", "OBJECTID": 23}}, {"type": "Feature", "id": 24, "geometry": {"type": "Point", "coordinates": [104777.34899999946, 453967.94200000167]}, "properties": {"Stelsel": "", "stelseltype": "", "naam": "BKGPL-84", "type": "http://data.gwsw.nl/1.4/totaal/Gemaal", "Begindatum": "", "BreedteBouwwerk": "0", "LengteBouwwerk": "0", "OBJECTID": 24}}, {"type": "Feature", "id": 25, "geometry": {"type": "Point", "coordinates": [105335.98000000045, 455474.1700000018]}, "properties": {"Stelsel": "", "stelseltype": "", "naam": "BKGRB_80A1", "type": "http://data.gwsw.nl/1.4/totaal/Gemaal", "Begindatum": "", "BreedteBouwwerk": "0", "LengteBouwwerk": "0", "OBJECTID": 25}}, {"type": "Feature", "id": 26, "geometry": {"type": "Point", "coordinates": [104852.83999999985, 454085.23000000045]}, "properties": {"Stelsel": "", "stelseltype": "", "naam": "BKGRN-44", "type": "http://data.gwsw.nl/1.4/totaal/Gemaal", "Begindatum": "", "BreedteBouwwerk": "0", "LengteBouwwerk": "0", "OBJECTID": 26}}, {"type": "Feature", "id": 27, "geometry": {"type": "Point", "coordinates": [106577.58999999985, 454127.7829999998]}, "properties": {"Stelsel": "", "stelseltype": "", "naam": "BKGRSK-303", "type": "http://data.gwsw.nl/1.4/totaal/Gemaal", "Begindatum": "", "BreedteBouwwerk": "0", "LengteBouwwerk": "0", "OBJECTID": 27}}, {"type": "Feature", "id": 28, "geometry": {"type": "Point", "coordinates": [105573.55000000075, 454232.4699999988]}, "properties": {"Stelsel": "", "stelseltype": "", "naam": "BKGRSK-40", "type": "http://data.gwsw.nl/1.4/totaal/Gemaal", "Begindatum": "", "BreedteBouwwerk": "1000", "LengteBouwwerk": "0", "OBJECTID": 28}}, {"type": "Feature", "id": 29, "geometry": {"type": "Point", "coordinates": [106625.64999999851, 455441.12999999896]}, "properties": {"Stelsel": "", "stelseltype": "", "naam": "BKGRV-109", "type": "http://data.gwsw.nl/1.4/totaal/Gemaal", "Begindatum": "", "BreedteBouwwerk": "0", "LengteBouwwerk": "0", "OBJECTID": 29}}, {"type": "Feature", "id": 30, "geometry": {"type": "Point", "coordinates": [107207.33999999985, 455367.69000000134]}, "properties": {"Stelsel": "", "stelseltype": "", "naam": "BKGRV-160", "type": "http://data.gwsw.nl/1.4/totaal/Gemaal", "Begindatum": "", "BreedteBouwwerk": "0", "LengteBouwwerk": "0", "OBJECTID": 30}}, {"type": "Feature", "id": 31, "geometry": {"type": "Point", "coordinates": [104306.05600000173, 453793.50499999896]}, "properties": {"Stelsel": "", "stelseltype": "", "naam": "BKGWHL-68", "type": "http://data.gwsw.nl/1.4/totaal/Gemaal", "Begindatum": "", "BreedteBouwwerk": "1000", "LengteBouwwerk": "0", "OBJECTID": 31}}, {"type": "Feature", "id": 32, "geometry": {"type": "Point", "coordinates": [105104.19999999925, 454159.3200000003]}, "properties": {"Stelsel": "", "stelseltype": "", "naam": "BKGZS-01", "type": "http://data.gwsw.nl/1.4/totaal/Gemaal", "Begindatum": "", "BreedteBouwwerk": "0", "LengteBouwwerk": "0", "OBJECTID": 32}}, {"type": "Feature", "id": 33, "geometry": {"type": "Point", "coordinates": [105676.46999999881, 454169.8599999994]}, "properties": {"Stelsel": "", "stelseltype": "", "naam": "BKGZW-04", "type": "http://data.gwsw.nl/1.4/totaal/Gemaal", "Begindatum": "", "BreedteBouwwerk": "1800", "LengteBouwwerk": "1800", "OBJECTID": 33}}, {"type": "Feature", "id": 34, "geometry": {"type": "Point", "coordinates": [103839.12000000104, 454397.7899999991]}, "properties": {"Stelsel": "", "stelseltype": "", "naam": "BKGZY-384", "type": "http://data.gwsw.nl/1.4/totaal/Gemaal", "Begindatum": "", "BreedteBouwwerk": "0", "LengteBouwwerk": "0", "OBJECTID": 34}}, {"type": "Feature", "id": 35, "geometry": {"type": "Point", "coordinates": [103609.64299999923, 454178.7650000006]}, "properties": {"Stelsel": "", "stelseltype": "", "naam": "BKG1003", "type": "http://data.gwsw.nl/1.4/totaal/Gemaal", "Begindatum": "", "BreedteBouwwerk": "0", "LengteBouwwerk": "0", "OBJECTID": 35}}, {"type": "Feature", "id": 36, "geometry": {"type": "Point", "coordinates": [104548.09499999881, 454231.4479999989]}, "properties": {"Stelsel": "", "stelseltype": "", "naam": "BKG10041", "type": "http://data.gwsw.nl/1.4/totaal/Gemaal", "Begindatum": "", "BreedteBouwwerk": "0", "LengteBouwwerk": "0", "OBJECTID": 36}}, {"type": "Feature", "id": 37, "geometry": {"type": "Point", "coordinates": [104317.85399999842, 454680.69099999964]}, "properties": {"Stelsel": "", "stelseltype": "", "naam": "BKG10080", "type": "http://data.gwsw.nl/1.4/totaal/Gemaal", "Begindatum": "", "BreedteBouwwerk": "0", "LengteBouwwerk": "0", "OBJECTID": 37}}, {"type": "Feature", "id": 38, "geometry": {"type": "Point", "coordinates": [104971.1790000014, 454521.88699999824]}, "properties": {"Stelsel": "", "stelseltype": "", "naam": "BKG10415", "type": "http://data.gwsw.nl/1.4/totaal/Gemaal", "Begindatum": "2017-01-01", "BreedteBouwwerk": "0", "LengteBouwwerk": "0", "OBJECTID": 38}}, {"type": "Feature", "id": 39, "geometry": {"type": "Point", "coordinates": [105731.43400000036, 453372.05000000075]}, "properties": {"Stelsel": "", "stelseltype": "", "naam": "BKG10457", "type": "http://data.gwsw.nl/1.4/totaal/Gemaal", "Begindatum": "", "BreedteBouwwerk": "0", "LengteBouwwerk": "0", "OBJECTID": 39}}, {"type": "Feature", "id": 40, "geometry": {"type": "Point", "coordinates": [103995.94399999827, 453554.01199999824]}, "properties": {"Stelsel": "", "stelseltype": "", "naam": "BKG10491", "type": "http://data.gwsw.nl/1.4/totaal/Gemaal", "Begindatum": "2016-01-01", "BreedteBouwwerk": "1500", "LengteBouwwerk": "1500", "OBJECTID": 40}}, {"type": "Feature", "id": 41, "geometry": {"type": "Point", "coordinates": [105212.98000000045, 455020.23000000045]}, "properties": {"Stelsel": "", "stelseltype": "", "naam": "BKG3142", "type": "http://data.gwsw.nl/1.4/totaal/Gemaal", "Begindatum": "", "BreedteBouwwerk": "0", "LengteBouwwerk": "0", "OBJECTID": 41}}, {"type": "Feature", "id": 42, "geometry": {"type": "Point", "coordinates": [106077, 460976.4200000018]}, "properties": {"Stelsel": "", "stelseltype": "", "naam": "AP25428", "type": "http://data.gwsw.nl/1.4/totaal/Gemaal", "Begindatum": "", "BreedteBouwwerk": "0", "LengteBouwwerk": "0", "OBJECTID": 42}}, {"type": "Feature", "id": 43, "geometry": {"type": "Point", "coordinates": [101297.51999999955, 461236.76999999955]}, "properties": {"Stelsel": "", "stelseltype": "", "naam": "DP0086", "type": "http://data.gwsw.nl/1.4/totaal/Gemaal", "Begindatum": "", "BreedteBouwwerk": "0", "LengteBouwwerk": "0", "OBJECTID": 43}}, {"type": "Feature", "id": 44, "geometry": {"type": "Point", "coordinates": [96758.33999999985, 454706.5399999991]}, "properties": {"Stelsel": "", "stelseltype": "", "naam": "DP0277", "type": "http://data.gwsw.nl/1.4/totaal/Gemaal", "Begindatum": "", "BreedteBouwwerk": "0", "LengteBouwwerk": "0", "OBJECTID": 44}}, {"type": "Feature", "id": 45, "geometry": {"type": "Point", "coordinates": [105081.4299999997, 458997.05099999905]}, "properties": {"Stelsel": "", "stelseltype": "", "naam": "AG10879", "type": "http://data.gwsw.nl/1.4/totaal/Gemaal", "Begindatum": "", "BreedteBouwwerk": "0", "LengteBouwwerk": "0", "OBJECTID": 45}}, {"type": "Feature", "id": 46, "geometry": {"type": "Point", "coordinates": [105079.91099999845, 458995.938000001]}, "properties": {"Stelsel": "", "stelseltype": "", "naam": "AG10880", "type": "http://data.gwsw.nl/1.4/totaal/Gemaal", "Begindatum": "", "BreedteBouwwerk": "0", "LengteBouwwerk": "0", "OBJECTID": 46}}, {"type": "Feature", "id": 47, "geometry": {"type": "Point", "coordinates": [103196.2899999991, 461092.55000000075]}, "properties": {"Stelsel": "", "stelseltype": "", "naam": "AG10968", "type": "http://data.gwsw.nl/1.4/totaal/Gemaal", "Begindatum": "", "BreedteBouwwerk": "0", "LengteBouwwerk": "0", "OBJECTID": 47}}, {"type": "Feature", "id": 48, "geometry": {"type": "Point", "coordinates": [103345.33999999985, 460621.33399999887]}, "properties": {"Stelsel": "", "stelseltype": "", "naam": "AG11191", "type": "http://data.gwsw.nl/1.4/totaal/Gemaal", "Begindatum": "", "BreedteBouwwerk": "0", "LengteBouwwerk": "0", "OBJECTID": 48}}, {"type": "Feature", "id": 49, "geometry": {"type": "Point", "coordinates": [103348.28000000119, 460618.98999999836]}, "properties": {"Stelsel": "", "stelseltype": "", "naam": "AG11192", "type": "http://data.gwsw.nl/1.4/totaal/Gemaal", "Begindatum": "", "BreedteBouwwerk": "0", "LengteBouwwerk": "0", "OBJECTID": 49}}, {"type": "Feature", "id": 50, "geometry": {"type": "Point", "coordinates": [103872.05000000075, 460931.9200000018]}, "properties": {"Stelsel": "", "stelseltype": "", "naam": "AG11308", "type": "http://data.gwsw.nl/1.4/totaal/Gemaal", "Begindatum": "", "BreedteBouwwerk": "0", "LengteBouwwerk": "0", "OBJECTID": 50}}, {"type": "Feature", "id": 51, "geometry": {"type": "Point", "coordinates": [104060.33999999985, 460999.98000000045]}, "properties": {"Stelsel": "", "stelseltype": "", "naam": "AG11309", "type": "http://data.gwsw.nl/1.4/totaal/Gemaal", "Begindatum": "", "BreedteBouwwerk": "0", "LengteBouwwerk": "0", "OBJECTID": 51}}, {"type": "Feature", "id": 52, "geometry": {"type": "Point", "coordinates": [103208.24300000072, 460180.6160000004]}, "properties": {"Stelsel": "", "stelseltype": "", "naam": "AG11523", "type": "http://data.gwsw.nl/1.4/totaal/Gemaal", "Begindatum": "", "BreedteBouwwerk": "0", "LengteBouwwerk": "0", "OBJECTID": 52}}, {"type": "Feature", "id": 53, "geometry": {"type": "Point", "coordinates": [103207.24599999934, 460178.36199999973]}, "properties": {"Stelsel": "", "stelseltype": "", "naam": "AG11524", "type": "http://data.gwsw.nl/1.4/totaal/Gemaal", "Begindatum": "", "BreedteBouwwerk": "0", "LengteBouwwerk": "0", "OBJECTID": 53}}, {"type": "Feature", "id": 54, "geometry": {"type": "Point", "coordinates": [103161.1790000014, 461076.85599999875]}, "properties": {"Stelsel": "", "stelseltype": "", "naam": "AG11653", "type": "http://data.gwsw.nl/1.4/totaal/Gemaal", "Begindatum": "", "BreedteBouwwerk": "0", "LengteBouwwerk": "0", "OBJECTID": 54}}, {"type": "Feature", "id": 55, "geometry": {"type": "Point", "coordinates": [103162.01000000164, 461075.3500000015]}, "properties": {"Stelsel": "", "stelseltype": "", "naam": "AG11654", "type": "http://data.gwsw.nl/1.4/totaal/Gemaal", "Begindatum": "", "BreedteBouwwerk": "0", "LengteBouwwerk": "0", "OBJECTID": 55}}, {"type": "Feature", "id": 56, "geometry": {"type": "Point", "coordinates": [104888.87999999896, 460372.1099999994]}, "properties": {"Stelsel": "", "stelseltype": "", "naam": "AG11883", "type": "http://data.gwsw.nl/1.4/totaal/Gemaal", "Begindatum": "", "BreedteBouwwerk": "0", "LengteBouwwerk": "0", "OBJECTID": 56}}, {"type": "Feature", "id": 57, "geometry": {"type": "Point", "coordinates": [105253.94999999925, 458441.6099999994]}, "properties": {"Stelsel": "", "stelseltype": "", "naam": "AG11887", "type": "http://data.gwsw.nl/1.4/totaal/Gemaal", "Begindatum": "", "BreedteBouwwerk": "0", "LengteBouwwerk": "0", "OBJECTID": 57}}, {"type": "Feature", "id": 58, "geometry": {"type": "Point", "coordinates": [105255.8900000006, 458442.44999999925]}, "properties": {"Stelsel": "", "stelseltype": "", "naam": "AG11942", "type": "http://data.gwsw.nl/1.4/totaal/Gemaal", "Begindatum": "", "BreedteBouwwerk": "0", "LengteBouwwerk": "0", "OBJECTID": 58}}, {"type": "Feature", "id": 59, "geometry": {"type": "Point", "coordinates": [104730.94700000063, 460058.1429999992]}, "properties": {"Stelsel": "", "stelseltype": "", "naam": "AG12175", "type": "http://data.gwsw.nl/1.4/totaal/Gemaal", "Begindatum": "", "BreedteBouwwerk": "0", "LengteBouwwerk": "0", "OBJECTID": 59}}, {"type": "Feature", "id": 60, "geometry": {"type": "Point", "coordinates": [104732.18899999931, 460059.1959999986]}, "properties": {"Stelsel": "", "stelseltype": "", "naam": "AG12176", "type": "http://data.gwsw.nl/1.4/totaal/Gemaal", "Begindatum": "", "BreedteBouwwerk": "0", "LengteBouwwerk": "0", "OBJECTID": 60}}, {"type": "Feature", "id": 61, "geometry": {"type": "Point", "coordinates": [104122.6099999994, 461771.4699999988]}, "properties": {"Stelsel": "", "stelseltype": "", "naam": "AG12744", "type": "http://data.gwsw.nl/1.4/totaal/Gemaal", "Begindatum": "", "BreedteBouwwerk": "0", "LengteBouwwerk": "0", "OBJECTID": 61}}, {"type": "Feature", "id": 62, "geometry": {"type": "Point", "coordinates": [109946.72399999946, 461579.69200000167]}, "properties": {"Stelsel": "", "stelseltype": "", "naam": "AG12889", "type": "http://data.gwsw.nl/1.4/totaal/Gemaal", "Begindatum": "", "BreedteBouwwerk": "0", "LengteBouwwerk": "0", "OBJECTID": 62}}, {"type": "Feature", "id": 63, "geometry": {"type": "Point", "coordinates": [109711.55000000075, 457617.75]}, "properties": {"Stelsel": "", "stelseltype": "", "naam": "AG12926", "type": "http://data.gwsw.nl/1.4/totaal/Gemaal", "Begindatum": "", "BreedteBouwwerk": "0", "LengteBouwwerk": "0", "OBJECTID": 63}}, {"type": "Feature", "id": 64, "geometry": {"type": "Point", "coordinates": [106165.08799999952, 459913.6889999993]}, "properties": {"Stelsel": "", "stelseltype": "", "naam": "AG12980", "type": "http://data.gwsw.nl/1.4/totaal/Gemaal", "Begindatum": "", "BreedteBouwwerk": "0", "LengteBouwwerk": "0", "OBJECTID": 64}}, {"type": "Feature", "id": 65, "geometry": {"type": "Point", "coordinates": [105329.57999999821, 459883.76999999955]}, "properties": {"Stelsel": "", "stelseltype": "", "naam": "AG12991", "type": "http://data.gwsw.nl/1.4/totaal/Gemaal", "Begindatum": "", "BreedteBouwwerk": "0", "LengteBouwwerk": "0", "OBJECTID": 65}}, {"type": "Feature", "id": 66, "geometry": {"type": "Point", "coordinates": [105181.7899999991, 459871.75]}, "properties": {"Stelsel": "", "stelseltype": "", "naam": "AG12992", "type": "http://data.gwsw.nl/1.4/totaal/Gemaal", "Begindatum": "", "BreedteBouwwerk": "0", "LengteBouwwerk": "0", "OBJECTID": 66}}, {"type": "Feature", "id": 67, "geometry": {"type": "Point", "coordinates": [105748.55000000075, 459072.1000000015]}, "properties": {"Stelsel": "", "stelseltype": "", "naam": "AG12993", "type": "http://data.gwsw.nl/1.4/totaal/Gemaal", "Begindatum": "", "BreedteBouwwerk": "0", "LengteBouwwerk": "0", "OBJECTID": 67}}, {"type": "Feature", "id": 68, "geometry": {"type": "Point", "coordinates": [104638.38599999994, 459674.9770000018]}, "properties": {"Stelsel": "", "stelseltype": "", "naam": "AG12996", "type": "http://data.gwsw.nl/1.4/totaal/Gemaal", "Begindatum": "", "BreedteBouwwerk": "0", "LengteBouwwerk": "0", "OBJECTID": 68}}, {"type": "Feature", "id": 69, "geometry": {"type": "Point", "coordinates": [103561.23699999973, 460483.6319999993]}, "properties": {"Stelsel": "", "stelseltype": "", "naam": "AG12998", "type": "http://data.gwsw.nl/1.4/totaal/Gemaal", "Begindatum": "", "BreedteBouwwerk": "0", "LengteBouwwerk": "0", "OBJECTID": 69}}, {"type": "Feature", "id": 70, "geometry": {"type": "Point", "coordinates": [103726.76999999955, 461504.73000000045]}, "properties": {"Stelsel": "", "stelseltype": "", "naam": "AG13007", "type": "http://data.gwsw.nl/1.4/totaal/Gemaal", "Begindatum": "", "BreedteBouwwerk": "0", "LengteBouwwerk": "0", "OBJECTID": 70}}, {"type": "Feature", "id": 71, "geometry": {"type": "Point", "coordinates": [104468.15500000119, 462472.38500000164]}, "properties": {"Stelsel": "", "stelseltype": "", "naam": "AG13022", "type": "http://data.gwsw.nl/1.4/totaal/Gemaal", "Begindatum": "", "BreedteBouwwerk": "0", "LengteBouwwerk": "0", "OBJECTID": 71}}, {"type": "Feature", "id": 72, "geometry": {"type": "Point", "coordinates": [103538.0700000003, 461290.5399999991]}, "properties": {"Stelsel": "", "stelseltype": "", "naam": "AG13400", "type": "http://data.gwsw.nl/1.4/totaal/Gemaal", "Begindatum": "", "BreedteBouwwerk": "0", "LengteBouwwerk": "0", "OBJECTID": 72}}, {"type": "Feature", "id": 73, "geometry": {"type": "Point", "coordinates": [102919.73999999836, 460001.8200000003]}, "properties": {"Stelsel": "", "stelseltype": "", "naam": "AG13405", "type": "http://data.gwsw.nl/1.4/totaal/Gemaal", "Begindatum": "", "BreedteBouwwerk": "0", "LengteBouwwerk": "0", "OBJECTID": 73}}, {"type": "Feature", "id": 74, "geometry": {"type": "Point", "coordinates": [102920.1799999997, 460000.5]}, "properties": {"Stelsel": "", "stelseltype": "", "naam": "AG13406", "type": "http://data.gwsw.nl/1.4/totaal/Gemaal", "Begindatum": "", "BreedteBouwwerk": "0", "LengteBouwwerk": "0", "OBJECTID": 74}}, {"type": "Feature", "id": 75, "geometry": {"type": "Point", "coordinates": [104030.3900000006, 459164.87000000104]}, "properties": {"Stelsel": "", "stelseltype": "", "naam": "AG13544", "type": "http://data.gwsw.nl/1.4/totaal/Gemaal", "Begindatum": "", "BreedteBouwwerk": "0", "LengteBouwwerk": "0", "OBJECTID": 75}}, {"type": "Feature", "id": 76, "geometry": {"type": "Point", "coordinates": [105237.12799999863, 459548.44999999925]}, "properties": {"Stelsel": "", "stelseltype": "", "naam": "AG1485", "type": "http://data.gwsw.nl/1.4/totaal/Gemaal", "Begindatum": "", "BreedteBouwwerk": "0", "LengteBouwwerk": "0", "OBJECTID": 76}}, {"type": "Feature", "id": 77, "geometry": {"type": "Point", "coordinates": [106148.29800000042, 459602.39400000125]}, "properties": {"Stelsel": "", "stelseltype": "", "naam": "AG16043", "type": "http://data.gwsw.nl/1.4/totaal/Gemaal", "Begindatum": "", "BreedteBouwwerk": "0", "LengteBouwwerk": "0", "OBJECTID": 77}}, {"type": "Feature", "id": 78, "geometry": {"type": "Point", "coordinates": [106176.64999999851, 459606.3289999999]}, "properties": {"Stelsel": "", "stelseltype": "", "naam": "AG16044", "type": "http://data.gwsw.nl/1.4/totaal/Gemaal", "Begindatum": "", "BreedteBouwwerk": "0", "LengteBouwwerk": "0", "OBJECTID": 78}}, {"type": "Feature", "id": 79, "geometry": {"type": "Point", "coordinates": [107208.07999999821, 458357.66000000015]}, "properties": {"Stelsel": "", "stelseltype": "", "naam": "AG16057", "type": "http://data.gwsw.nl/1.4/totaal/Gemaal", "Begindatum": "", "BreedteBouwwerk": "0", "LengteBouwwerk": "0", "OBJECTID": 79}}, {"type": "Feature", "id": 80, "geometry": {"type": "Point", "coordinates": [109095.21999999881, 457252.1499999985]}, "properties": {"Stelsel": "", "stelseltype": "", "naam": "AG16079", "type": "http://data.gwsw.nl/1.4/totaal/Gemaal", "Begindatum": "", "BreedteBouwwerk": "0", "LengteBouwwerk": "0", "OBJECTID": 80}}, {"type": "Feature", "id": 81, "geometry": {"type": "Point", "coordinates": [104402.05000000075, 459083]}, "properties": {"Stelsel": "", "stelseltype": "", "naam": "AG16101", "type": "http://data.gwsw.nl/1.4/totaal/Gemaal", "Begindatum": "", "BreedteBouwwerk": "0", "LengteBouwwerk": "0", "OBJECTID": 81}}, {"type": "Feature", "id": 82, "geometry": {"type": "Point", "coordinates": [105942.48600000143, 461380.5789999999]}, "properties": {"Stelsel": "", "stelseltype": "", "naam": "AG16480", "type": "http://data.gwsw.nl/1.4/totaal/Gemaal", "Begindatum": "", "BreedteBouwwerk": "10", "LengteBouwwerk": "0", "OBJECTID": 82}}, {"type": "Feature", "id": 83, "geometry": {"type": "Point", "coordinates": [104782.9600000009, 461697.3200000003]}, "properties": {"Stelsel": "", "stelseltype": "", "naam": "AG17876", "type": "http://data.gwsw.nl/1.4/totaal/Gemaal", "Begindatum": "", "BreedteBouwwerk": "0", "LengteBouwwerk": "0", "OBJECTID": 83}}, {"type": "Feature", "id": 84, "geometry": {"type": "Point", "coordinates": [104605.51399999857, 458952.9470000006]}, "properties": {"Stelsel": "", "stelseltype": "", "naam": "AG18040", "type": "http://data.gwsw.nl/1.4/totaal/Gemaal", "Begindatum": "", "BreedteBouwwerk": "0", "LengteBouwwerk": "0", "OBJECTID": 84}}, {"type": "Feature", "id": 85, "geometry": {"type": "Point", "coordinates": [105215.9600000009, 459742.76999999955]}, "properties": {"Stelsel": "", "stelseltype": "", "naam": "AG18992", "type": "http://data.gwsw.nl/1.4/totaal/Gemaal", "Begindatum": "", "BreedteBouwwerk": "2600", "LengteBouwwerk": "2250", "OBJECTID": 85}}, {"type": "Feature", "id": 86, "geometry": {"type": "Point", "coordinates": [104562.97199999914, 462140.72100000083]}, "properties": {"Stelsel": "", "stelseltype": "", "naam": "AG19313", "type": "http://data.gwsw.nl/1.4/totaal/Gemaal", "Begindatum": "", "BreedteBouwwerk": "1500", "LengteBouwwerk": "1500", "OBJECTID": 86}}, {"type": "Feature", "id": 87, "geometry": {"type": "Point", "coordinates": [104561.44299999997, 462140.6710000001]}, "properties": {"Stelsel": "", "stelseltype": "", "naam": "AG19322", "type": "http://data.gwsw.nl/1.4/totaal/Gemaal", "Begindatum": "", "BreedteBouwwerk": "1500", "LengteBouwwerk": "1500", "OBJECTID": 87}}, {"type": "Feature", "id": 88, "geometry": {"type": "Point", "coordinates": [104484.59899999946, 461922.52600000054]}, "properties": {"Stelsel": "", "stelseltype": "", "naam": "AG19333", "type": "http://data.gwsw.nl/1.4/totaal/Gemaal", "Begindatum": "", "BreedteBouwwerk": "1500", "LengteBouwwerk": "1500", "OBJECTID": 88}}, {"type": "Feature", "id": 89, "geometry": {"type": "Point", "coordinates": [104486.14600000158, 461922.68400000036]}, "properties": {"Stelsel": "", "stelseltype": "", "naam": "AG19334", "type": "http://data.gwsw.nl/1.4/totaal/Gemaal", "Begindatum": "", "BreedteBouwwerk": "1500", "LengteBouwwerk": "1500", "OBJECTID": 89}}, {"type": "Feature", "id": 90, "geometry": {"type": "Point", "coordinates": [104162.61499999836, 458714.061999999]}, "properties": {"Stelsel": "", "stelseltype": "", "naam": "AG19745", "type": "http://data.gwsw.nl/1.4/totaal/Gemaal", "Begindatum": "", "BreedteBouwwerk": "0", "LengteBouwwerk": "0", "OBJECTID": 90}}, {"type": "Feature", "id": 91, "geometry": {"type": "Point", "coordinates": [104452.19999999925, 458755.01000000164]}, "properties": {"Stelsel": "", "stelseltype": "", "naam": "AG19851", "type": "http://data.gwsw.nl/1.4/totaal/Gemaal", "Begindatum": "", "BreedteBouwwerk": "0", "LengteBouwwerk": "0", "OBJECTID": 91}}, {"type": "Feature", "id": 92, "geometry": {"type": "Point", "coordinates": [103163.5399999991, 459413.4699999988]}, "properties": {"Stelsel": "", "stelseltype": "", "naam": "AG21651", "type": "http://data.gwsw.nl/1.4/totaal/Gemaal", "Begindatum": "", "BreedteBouwwerk": "0", "LengteBouwwerk": "0", "OBJECTID": 92}}, {"type": "Feature", "id": 93, "geometry": {"type": "Point", "coordinates": [105731.03000000119, 461326.37000000104]}, "properties": {"Stelsel": "", "stelseltype": "", "naam": "AG22464", "type": "http://data.gwsw.nl/1.4/totaal/Gemaal", "Begindatum": "", "BreedteBouwwerk": "10", "LengteBouwwerk": "0", "OBJECTID": 93}}, {"type": "Feature", "id": 94, "geometry": {"type": "Point", "coordinates": [105560.73900000006, 460928.061999999]}, "properties": {"Stelsel": "", "stelseltype": "", "naam": "AG22506", "type": "http://data.gwsw.nl/1.4/totaal/Gemaal", "Begindatum": "", "BreedteBouwwerk": "0", "LengteBouwwerk": "0", "OBJECTID": 94}}, {"type": "Feature", "id": 95, "geometry": {"type": "Point", "coordinates": [105058.75499999896, 459691.6770000011]}, "properties": {"Stelsel": "", "stelseltype": "", "naam": "AG25780", "type": "http://data.gwsw.nl/1.4/totaal/Gemaal", "Begindatum": "2018-01-01", "BreedteBouwwerk": "1000", "LengteBouwwerk": "1000", "OBJECTID": 95}}, {"type": "Feature", "id": 96, "geometry": {"type": "Point", "coordinates": [106486.36600000039, 462398.6409999989]}, "properties": {"Stelsel": "", "stelseltype": "", "naam": "AG29204", "type": "http://data.gwsw.nl/1.4/totaal/Gemaal", "Begindatum": "2018-01-01", "BreedteBouwwerk": "2350", "LengteBouwwerk": "6350", "OBJECTID": 96}}, {"type": "Feature", "id": 97, "geometry": {"type": "Point", "coordinates": [105356.52100000158, 462198.44299999997]}, "properties": {"Stelsel": "", "stelseltype": "", "naam": "AG29214", "type": "http://data.gwsw.nl/1.4/totaal/Gemaal", "Begindatum": "2018-01-01", "BreedteBouwwerk": "1850", "LengteBouwwerk": "3300", "OBJECTID": 97}}, {"type": "Feature", "id": 98, "geometry": {"type": "Point", "coordinates": [104251.66000000015, 459724.91000000015]}, "properties": {"Stelsel": "", "stelseltype": "", "naam": "AG4033", "type": "http://data.gwsw.nl/1.4/totaal/Gemaal", "Begindatum": "", "BreedteBouwwerk": "0", "LengteBouwwerk": "0", "OBJECTID": 98}}, {"type": "Feature", "id": 99, "geometry": {"type": "Point", "coordinates": [105917.71999999881, 458635.75]}, "properties": {"Stelsel": "", "stelseltype": "", "naam": "AG4129", "type": "http://data.gwsw.nl/1.4/totaal/Gemaal", "Begindatum": "", "BreedteBouwwerk": "0", "LengteBouwwerk": "0", "OBJECTID": 99}}, {"type": "Feature", "id": 100, "geometry": {"type": "Point", "coordinates": [104938.55099999905, 459561.88699999824]}, "properties": {"Stelsel": "", "stelseltype": "", "naam": "AG4188", "type": "http://data.gwsw.nl/1.4/totaal/Gemaal", "Begindatum": "", "BreedteBouwwerk": "0", "LengteBouwwerk": "0", "OBJECTID": 100}}, {"type": "Feature", "id": 101, "geometry": {"type": "Point", "coordinates": [106038, 459850.01999999955]}, "properties": {"Stelsel": "", "stelseltype": "", "naam": "AG4367", "type": "http://data.gwsw.nl/1.4/totaal/Gemaal", "Begindatum": "", "BreedteBouwwerk": "0", "LengteBouwwerk": "0", "OBJECTID": 101}}, {"type": "Feature", "id": 102, "geometry": {"type": "Point", "coordinates": [105620.87000000104, 459582.6099999994]}, "properties": {"Stelsel": "", "stelseltype": "", "naam": "AG4424", "type": "http://data.gwsw.nl/1.4/totaal/Gemaal", "Begindatum": "", "BreedteBouwwerk": "0", "LengteBouwwerk": "0", "OBJECTID": 102}}, {"type": "Feature", "id": 103, "geometry": {"type": "Point", "coordinates": [104163.14999999851, 460746.94999999925]}, "properties": {"Stelsel": "", "stelseltype": "", "naam": "AG4725", "type": "http://data.gwsw.nl/1.4/totaal/Gemaal", "Begindatum": "", "BreedteBouwwerk": "0", "LengteBouwwerk": "0", "OBJECTID": 103}}, {"type": "Feature", "id": 104, "geometry": {"type": "Point", "coordinates": [104887.36199999973, 459173.5799999982]}, "properties": {"Stelsel": "", "stelseltype": "", "naam": "AG5049", "type": "http://data.gwsw.nl/1.4/totaal/Gemaal", "Begindatum": "", "BreedteBouwwerk": "0", "LengteBouwwerk": "0", "OBJECTID": 104}}, {"type": "Feature", "id": 105, "geometry": {"type": "Point", "coordinates": [105049.85000000149, 463309.9299999997]}, "properties": {"Stelsel": "", "stelseltype": "", "naam": "AG6155", "type": "http://data.gwsw.nl/1.4/totaal/Gemaal", "Begindatum": "", "BreedteBouwwerk": "0", "LengteBouwwerk": "0", "OBJECTID": 105}}, {"type": "Feature", "id": 106, "geometry": {"type": "Point", "coordinates": [104608.88100000098, 463410.6640000008]}, "properties": {"Stelsel": "", "stelseltype": "", "naam": "AG6625", "type": "http://data.gwsw.nl/1.4/totaal/Gemaal", "Begindatum": "", "BreedteBouwwerk": "0", "LengteBouwwerk": "0", "OBJECTID": 106}}, {"type": "Feature", "id": 107, "geometry": {"type": "Point", "coordinates": [105301.19999999925, 463356.8200000003]}, "properties": {"Stelsel": "", "stelseltype": "", "naam": "AG7249", "type": "http://data.gwsw.nl/1.4/totaal/Gemaal", "Begindatum": "", "BreedteBouwwerk": "0", "LengteBouwwerk": "0", "OBJECTID": 107}}, {"type": "Feature", "id": 108, "geometry": {"type": "Point", "coordinates": [107108.49599999934, 461654.8220000006]}, "properties": {"Stelsel": "", "stelseltype": "", "naam": "AP12971", "type": "http://data.gwsw.nl/1.4/totaal/Gemaal", "Begindatum": "", "BreedteBouwwerk": "0", "LengteBouwwerk": "0", "OBJECTID": 108}}, {"type": "Feature", "id": 109, "geometry": {"type": "Point", "coordinates": [104687.4690000005, 461733.1719999984]}, "properties": {"Stelsel": "", "stelseltype": "", "naam": "AP13021", "type": "http://data.gwsw.nl/1.4/totaal/Gemaal", "Begindatum": "", "BreedteBouwwerk": "0", "LengteBouwwerk": "0", "OBJECTID": 109}}, {"type": "Feature", "id": 110, "geometry": {"type": "Point", "coordinates": [101121.8200000003, 457273.19000000134]}, "properties": {"Stelsel": "", "stelseltype": "", "naam": "AWZIHHR", "type": "http://data.gwsw.nl/1.4/totaal/Gemaal", "Begindatum": "", "BreedteBouwwerk": "0", "LengteBouwwerk": "0", "OBJECTID": 110}}, {"type": "Feature", "id": 111, "geometry": {"type": "Point", "coordinates": [106453.95300000161, 461399.3189999983]}, "properties": {"Stelsel": "", "stelseltype": "", "naam": "A13024", "type": "http://data.gwsw.nl/1.4/totaal/Gemaal", "Begindatum": "", "BreedteBouwwerk": "0", "LengteBouwwerk": "0", "OBJECTID": 111}}, {"type": "Feature", "id": 112, "geometry": {"type": "Point", "coordinates": [97874.99300000072, 454151.17500000075]}, "properties": {"Stelsel": "", "stelseltype": "", "naam": "BG4313", "type": "http://data.gwsw.nl/1.4/totaal/Gemaal", "Begindatum": "", "BreedteBouwwerk": "0", "LengteBouwwerk": "0", "OBJECTID": 112}}, {"type": "Feature", "id": 113, "geometry": {"type": "Point", "coordinates": [108022.37099999934, 456225.5089999996]}, "properties": {"Stelsel": "", "stelseltype": "", "naam": "BKAV-15", "type": "http://data.gwsw.nl/1.4/totaal/Gemaal", "Begindatum": "", "BreedteBouwwerk": "0", "LengteBouwwerk": "0", "OBJECTID": 113}}, {"type": "Feature", "id": 114, "geometry": {"type": "Point", "coordinates": [104659.66000000015, 453148.30000000075]}, "properties": {"Stelsel": "", "stelseltype": "", "naam": "BKAWTG-BO", "type": "http://data.gwsw.nl/1.4/totaal/Gemaal", "Begindatum": "", "BreedteBouwwerk": "1000", "LengteBouwwerk": "0", "OBJECTID": 114}}, {"type": "Feature", "id": 115, "geometry": {"type": "Point", "coordinates": [106411.09899999946, 454650.5720000006]}, "properties": {"Stelsel": "", "stelseltype": "", "naam": "BKBI-166", "type": "http://data.gwsw.nl/1.4/totaal/Gemaal", "Begindatum": "", "BreedteBouwwerk": "1000", "LengteBouwwerk": "3000", "OBJECTID": 115}}, {"type": "Feature", "id": 116, "geometry": {"type": "Point", "coordinates": [105126.87999999896, 453568.6000000015]}, "properties": {"Stelsel": "", "stelseltype": "", "naam": "BKPDH-38A", "type": "http://data.gwsw.nl/1.4/totaal/Gemaal", "Begindatum": "", "BreedteBouwwerk": "0", "LengteBouwwerk": "0", "OBJECTID": 116}}, {"type": "Feature", "id": 117, "geometry": {"type": "Point", "coordinates": [103353.82999999821, 454396]}, "properties": {"Stelsel": "", "stelseltype": "", "naam": "BK10348", "type": "http://data.gwsw.nl/1.4/totaal/Gemaal", "Begindatum": "", "BreedteBouwwerk": "0", "LengteBouwwerk": "0", "OBJECTID": 117}}, {"type": "Feature", "id": 118, "geometry": {"type": "Point", "coordinates": [97327.55999999866, 454379.83999999985]}, "properties": {"Stelsel": "", "stelseltype": "", "naam": "B2885", "type": "http://data.gwsw.nl/1.4/totaal/Gemaal", "Begindatum": "", "BreedteBouwwerk": "1000", "LengteBouwwerk": "1000", "OBJECTID": 118}}, {"type": "Feature", "id": 119, "geometry": {"type": "Point", "coordinates": [96750.67000000179, 454299.8999999985]}, "properties": {"Stelsel": "", "stelseltype": "", "naam": "B3050X", "type": "http://data.gwsw.nl/1.4/totaal/Gemaal", "Begindatum": "", "BreedteBouwwerk": "0", "LengteBouwwerk": "2230", "OBJECTID": 119}}, {"type": "Feature", "id": 120, "geometry": {"type": "Point", "coordinates": [97983.80200000107, 454470.0370000005]}, "properties": {"Stelsel": "", "stelseltype": "", "naam": "B4260X", "type": "http://data.gwsw.nl/1.4/totaal/Gemaal", "Begindatum": "", "BreedteBouwwerk": "1500", "LengteBouwwerk": "1500", "OBJECTID": 120}}, {"type": "Feature", "id": 121, "geometry": {"type": "Point", "coordinates": [101031.96299999952, 456619.54100000113]}, "properties": {"Stelsel": "", "stelseltype": "", "naam": "DG0825", "type": "http://data.gwsw.nl/1.4/totaal/Gemaal", "Begindatum": "", "BreedteBouwwerk": "0", "LengteBouwwerk": "800", "OBJECTID": 121}}, {"type": "Feature", "id": 122, "geometry": {"type": "Point", "coordinates": [100858.94000000134, 456976.76000000164]}, "properties": {"Stelsel": "", "stelseltype": "", "naam": "DG10232", "type": "http://data.gwsw.nl/1.4/totaal/Gemaal", "Begindatum": "", "BreedteBouwwerk": "0", "LengteBouwwerk": "0", "OBJECTID": 122}}, {"type": "Feature", "id": 123, "geometry": {"type": "Point", "coordinates": [100665, 457151.19000000134]}, "properties": {"Stelsel": "", "stelseltype": "", "naam": "DG1730", "type": "http://data.gwsw.nl/1.4/totaal/Gemaal", "Begindatum": "", "BreedteBouwwerk": "0", "LengteBouwwerk": "0", "OBJECTID": 123}}, {"type": "Feature", "id": 124, "geometry": {"type": "Point", "coordinates": [103660.71999999881, 460194.4600000009]}, "properties": {"Stelsel": "", "stelseltype": "", "naam": "A13719", "type": "http://data.gwsw.nl/1.4/totaal/Gemaal", "Begindatum": "", "BreedteBouwwerk": "0", "LengteBouwwerk": "0", "OBJECTID": 124}}, {"type": "Feature", "id": 125, "geometry": {"type": "Point", "coordinates": [106131.5700000003, 461597.33999999985]}, "properties": {"Stelsel": "", "stelseltype": "", "naam": "A16049", "type": "http://data.gwsw.nl/1.4/totaal/Gemaal", "Begindatum": "", "BreedteBouwwerk": "0", "LengteBouwwerk": "0", "OBJECTID": 125}}, {"type": "Feature", "id": 126, "geometry": {"type": "Point", "coordinates": [106257.53000000119, 461263.44000000134]}, "properties": {"Stelsel": "", "stelseltype": "", "naam": "A16051", "type": "http://data.gwsw.nl/1.4/totaal/Gemaal", "Begindatum": "", "BreedteBouwwerk": "0", "LengteBouwwerk": "0", "OBJECTID": 126}}, {"type": "Feature", "id": 127, "geometry": {"type": "Point", "coordinates": [109675.98000000045, 461282.23000000045]}, "properties": {"Stelsel": "", "stelseltype": "", "naam": "A16201", "type": "http://data.gwsw.nl/1.4/totaal/Gemaal", "Begindatum": "", "BreedteBouwwerk": "0", "LengteBouwwerk": "0", "OBJECTID": 127}}, {"type": "Feature", "id": 128, "geometry": {"type": "Point", "coordinates": [109446.36499999836, 457949.85500000045]}, "properties": {"Stelsel": "", "stelseltype": "", "naam": "A16203", "type": "http://data.gwsw.nl/1.4/totaal/Gemaal", "Begindatum": "", "BreedteBouwwerk": "0", "LengteBouwwerk": "0", "OBJECTID": 128}}, {"type": "Feature", "id": 129, "geometry": {"type": "Point", "coordinates": [106065.58999999985, 460617.2800000012]}, "properties": {"Stelsel": "", "stelseltype": "", "naam": "A17821", "type": "http://data.gwsw.nl/1.4/totaal/Gemaal", "Begindatum": "", "BreedteBouwwerk": "0", "LengteBouwwerk": "0", "OBJECTID": 129}}, {"type": "Feature", "id": 130, "geometry": {"type": "Point", "coordinates": [105995.73600000143, 462804.7470000014]}, "properties": {"Stelsel": "", "stelseltype": "", "naam": "A29219C1", "type": "http://data.gwsw.nl/1.4/totaal/Gemaal", "Begindatum": "2018-01-01", "BreedteBouwwerk": "1520", "LengteBouwwerk": "2500", "OBJECTID": 130}}, {"type": "Feature", "id": 131, "geometry": {"type": "Point", "coordinates": [105995.47199999914, 462803.1640000008]}, "properties": {"Stelsel": "", "stelseltype": "", "naam": "A29219C2", "type": "http://data.gwsw.nl/1.4/totaal/Gemaal", "Begindatum": "2018-01-01", "BreedteBouwwerk": "1520", "LengteBouwwerk": "2500", "OBJECTID": 131}}, {"type": "Feature", "id": 132, "geometry": {"type": "Point", "coordinates": [105995.17700000107, 462801.58100000024]}, "properties": {"Stelsel": "", "stelseltype": "", "naam": "A29219C3", "type": "http://data.gwsw.nl/1.4/totaal/Gemaal", "Begindatum": "2018-01-01", "BreedteBouwwerk": "1520", "LengteBouwwerk": "2500", "OBJECTID": 132}}, {"type": "Feature", "id": 133, "geometry": {"type": "Point", "coordinates": [105615.16800000146, 459573.3599999994]}, "properties": {"Stelsel": "", "stelseltype": "", "naam": "A4424", "type": "http://data.gwsw.nl/1.4/totaal/Gemaal", "Begindatum": "", "BreedteBouwwerk": "0", "LengteBouwwerk": "0", "OBJECTID": 133}}, {"type": "Feature", "id": 134, "geometry": {"type": "Point", "coordinates": [104865.51000000164, 454380.62000000104]}, "properties": {"Stelsel": "", "stelseltype": "", "naam": "BKPBS-03", "type": "http://data.gwsw.nl/1.4/totaal/Gemaal", "Begindatum": "", "BreedteBouwwerk": "0", "LengteBouwwerk": "0", "OBJECTID": 134}}, {"type": "Feature", "id": 135, "geometry": {"type": "Point", "coordinates": [104912.73600000143, 454614.118999999]}, "properties": {"Stelsel": "", "stelseltype": "", "naam": "BKPBS-130", "type": "http://data.gwsw.nl/1.4/totaal/Gemaal", "Begindatum": "", "BreedteBouwwerk": "0", "LengteBouwwerk": "0", "OBJECTID": 135}}, {"type": "Feature", "id": 136, "geometry": {"type": "Point", "coordinates": [105081.80999999866, 453885.30999999866]}, "properties": {"Stelsel": "", "stelseltype": "", "naam": "BK10156", "type": "http://data.gwsw.nl/1.4/totaal/Gemaal", "Begindatum": "", "BreedteBouwwerk": "0", "LengteBouwwerk": "0", "OBJECTID": 136}}, {"type": "Feature", "id": 137, "geometry": {"type": "Point", "coordinates": [105562.2340000011, 452341.81799999997]}, "properties": {"Stelsel": "", "stelseltype": "", "naam": "BK10450", "type": "http://data.gwsw.nl/1.4/totaal/Gemaal", "Begindatum": "", "BreedteBouwwerk": "0", "LengteBouwwerk": "0", "OBJECTID": 137}}, {"type": "Feature", "id": 138, "geometry": {"type": "Point", "coordinates": [100271.63399999961, 456901.756000001]}, "properties": {"Stelsel": "", "stelseltype": "", "naam": "Z3055", "type": "http://data.gwsw.nl/1.4/totaal/Gemaal", "Begindatum": "", "BreedteBouwwerk": "800", "LengteBouwwerk": "800", "OBJECTID": 138}}, {"type": "Feature", "id": 139, "geometry": {"type": "Point", "coordinates": [102256.07699999958, 455400.51900000125]}, "properties": {"Stelsel": "", "stelseltype": "", "naam": "G PCT", "type": "http://data.gwsw.nl/1.4/totaal/Gemaal", "Begindatum": "", "BreedteBouwwerk": "0", "LengteBouwwerk": "0", "OBJECTID": 139}}, {"type": "Feature", "id": 140, "geometry": {"type": "Point", "coordinates": [98012.9299999997, 460892]}, "properties": {"Stelsel": "", "stelseltype": "", "naam": "G0120", "type": "http://data.gwsw.nl/1.4/totaal/Gemaal", "Begindatum": "", "BreedteBouwwerk": "800", "LengteBouwwerk": "800", "OBJECTID": 140}}, {"type": "Feature", "id": 141, "geometry": {"type": "Point", "coordinates": [98071.18299999833, 460692.8819999993]}, "properties": {"Stelsel": "", "stelseltype": "", "naam": "G0260", "type": "http://data.gwsw.nl/1.4/totaal/Gemaal", "Begindatum": "2003-01-01", "BreedteBouwwerk": "800", "LengteBouwwerk": "800", "OBJECTID": 141}}, {"type": "Feature", "id": 142, "geometry": {"type": "Point", "coordinates": [101222.42000000179, 461153.87999999896]}, "properties": {"Stelsel": "", "stelseltype": "", "naam": "KGEMHHR", "type": "http://data.gwsw.nl/1.4/totaal/Gemaal", "Begindatum": "", "BreedteBouwwerk": "0", "LengteBouwwerk": "0", "OBJECTID": 142}}, {"type": "Feature", "id": 143, "geometry": {"type": "Point", "coordinates": [101566.73999999836, 460856.16000000015]}, "properties": {"Stelsel": "", "stelseltype": "", "naam": "KG1491", "type": "http://data.gwsw.nl/1.4/totaal/Gemaal", "Begindatum": "", "BreedteBouwwerk": "0", "LengteBouwwerk": "800", "OBJECTID": 143}}, {"type": "Feature", "id": 144, "geometry": {"type": "Point", "coordinates": [101629.30600000173, 461188.60500000045]}, "properties": {"Stelsel": "", "stelseltype": "", "naam": "KG3240", "type": "http://data.gwsw.nl/1.4/totaal/Gemaal", "Begindatum": "", "BreedteBouwwerk": "0", "LengteBouwwerk": "800", "OBJECTID": 144}}, {"type": "Feature", "id": 145, "geometry": {"type": "Point", "coordinates": [100651.64299999923, 460763.1090000011]}, "properties": {"Stelsel": "", "stelseltype": "", "naam": "KG4050", "type": "http://data.gwsw.nl/1.4/totaal/Gemaal", "Begindatum": "", "BreedteBouwwerk": "0", "LengteBouwwerk": "800", "OBJECTID": 145}}, {"type": "Feature", "id": 146, "geometry": {"type": "Point", "coordinates": [100391.48200000077, 460658.6090000011]}, "properties": {"Stelsel": "", "stelseltype": "", "naam": "KG4150", "type": "http://data.gwsw.nl/1.4/totaal/Gemaal", "Begindatum": "", "BreedteBouwwerk": "0", "LengteBouwwerk": "0", "OBJECTID": 146}}, {"type": "Feature", "id": 147, "geometry": {"type": "Point", "coordinates": [100131.58399999887, 460473.4299999997]}, "properties": {"Stelsel": "", "stelseltype": "", "naam": "KG4220", "type": "http://data.gwsw.nl/1.4/totaal/Gemaal", "Begindatum": "1978-01-01", "BreedteBouwwerk": "0", "LengteBouwwerk": "0", "OBJECTID": 147}}, {"type": "Feature", "id": 148, "geometry": {"type": "Point", "coordinates": [102560.89999999851, 460880.69000000134]}, "properties": {"Stelsel": "", "stelseltype": "", "naam": "KG5155", "type": "http://data.gwsw.nl/1.4/totaal/Gemaal", "Begindatum": "", "BreedteBouwwerk": "0", "LengteBouwwerk": "0", "OBJECTID": 148}}, {"type": "Feature", "id": 149, "geometry": {"type": "Point", "coordinates": [101646.68899999931, 460532.18499999866]}, "properties": {"Stelsel": "", "stelseltype": "", "naam": "KR7500", "type": "http://data.gwsw.nl/1.4/totaal/Gemaal", "Begindatum": "", "BreedteBouwwerk": "800", "LengteBouwwerk": "800", "OBJECTID": 149}}, {"type": "Feature", "id": 150, "geometry": {"type": "Point", "coordinates": [103325.91800000146, 455709.05999999866]}, "properties": {"Stelsel": "", "stelseltype": "", "naam": "P0243", "type": "http://data.gwsw.nl/1.4/totaal/Gemaal", "Begindatum": "", "BreedteBouwwerk": "800", "LengteBouwwerk": "800", "OBJECTID": 150}}, {"type": "Feature", "id": 151, "geometry": {"type": "Point", "coordinates": [102503.61400000006, 454820.12099999934]}, "properties": {"Stelsel": "", "stelseltype": "", "naam": "P0437", "type": "http://data.gwsw.nl/1.4/totaal/Gemaal", "Begindatum": "", "BreedteBouwwerk": "1330", "LengteBouwwerk": "1330", "OBJECTID": 151}}, {"type": "Feature", "id": 152, "geometry": {"type": "Point", "coordinates": [100621, 460144.69000000134]}, "properties": {"Stelsel": "", "stelseltype": "", "naam": "P0470", "type": "http://data.gwsw.nl/1.4/totaal/Gemaal", "Begindatum": "", "BreedteBouwwerk": "0", "LengteBouwwerk": "0", "OBJECTID": 152}}, {"type": "Feature", "id": 153, "geometry": {"type": "Point", "coordinates": [100610.62999999896, 460142.2199999988]}, "properties": {"Stelsel": "", "stelseltype": "", "naam": "P0471A", "type": "http://data.gwsw.nl/1.4/totaal/Gemaal", "Begindatum": "", "BreedteBouwwerk": "0", "LengteBouwwerk": "1000", "OBJECTID": 153}}, {"type": "Feature", "id": 154, "geometry": {"type": "Point", "coordinates": [100334.09200000018, 460110.15900000185]}, "properties": {"Stelsel": "", "stelseltype": "", "naam": "RG2052", "type": "http://data.gwsw.nl/1.4/totaal/Gemaal", "Begindatum": "", "BreedteBouwwerk": "0", "LengteBouwwerk": "1500", "OBJECTID": 154}}, {"type": "Feature", "id": 155, "geometry": {"type": "Point", "coordinates": [100624.83999999985, 459995]}, "properties": {"Stelsel": "", "stelseltype": "", "naam": "RG4123", "type": "http://data.gwsw.nl/1.4/totaal/Gemaal", "Begindatum": "", "BreedteBouwwerk": "0", "LengteBouwwerk": "0", "OBJECTID": 155}}, {"type": "Feature", "id": 156, "geometry": {"type": "Point", "coordinates": [100593.9299999997, 460146.12999999896]}, "properties": {"Stelsel": "", "stelseltype": "", "naam": "RR3066", "type": "http://data.gwsw.nl/1.4/totaal/Gemaal", "Begindatum": "", "BreedteBouwwerk": "0", "LengteBouwwerk": "0", "OBJECTID": 156}}, {"type": "Feature", "id": 157, "geometry": {"type": "Point", "coordinates": [99934.65100000054, 456892.2989999987]}, "properties": {"Stelsel": "", "stelseltype": "", "naam": "ZG0140E", "type": "http://data.gwsw.nl/1.4/totaal/Gemaal", "Begindatum": "", "BreedteBouwwerk": "0", "LengteBouwwerk": "800", "OBJECTID": 157}}, {"type": "Feature", "id": 158, "geometry": {"type": "Point", "coordinates": [99576.93899999931, 456814.41699999943]}, "properties": {"Stelsel": "", "stelseltype": "", "naam": "ZG3033", "type": "http://data.gwsw.nl/1.4/totaal/Gemaal", "Begindatum": "", "BreedteBouwwerk": "0", "LengteBouwwerk": "800", "OBJECTID": 158}}, {"type": "Feature", "id": 159, "geometry": {"type": "Point", "coordinates": [100282.20199999958, 456425.94999999925]}, "properties": {"Stelsel": "", "stelseltype": "", "naam": "Z2300", "type": "http://data.gwsw.nl/1.4/totaal/Gemaal", "Begindatum": "", "BreedteBouwwerk": "3470", "LengteBouwwerk": "4460", "OBJECTID": 159}}, {"type": "Feature", "id": 160, "geometry": {"type": "Point", "coordinates": [100160.10000000149, 456735.25]}, "properties": {"Stelsel": "", "stelseltype": "", "naam": "Z2430", "type": "http://data.gwsw.nl/1.4/totaal/Gemaal", "Begindatum": "", "BreedteBouwwerk": "800", "LengteBouwwerk": "800", "OBJECTID": 160}}]}