{"type": "FeatureCollection", "features": [{"type": "Feature", "id": 1, "geometry": {"type": "Point", "coordinates": [111509.30000000075, 453474.1000000015]}, "properties": {"Stelsel": "", "stelseltype": "", "naam": "BG1738", "type": "http://data.gwsw.nl/1.4/totaal/Uitlaatconstructie", "Begindatum": "1978-01-01", "BreedteBouwwerk": "310", "LengteBouwwerk": "310", "OBJECTID": 1}}, {"type": "Feature", "id": 2, "geometry": {"type": "Point", "coordinates": [110788.59899999946, 453921.19000000134]}, "properties": {"Stelsel": "", "stelseltype": "", "naam": "BG1744", "type": "http://data.gwsw.nl/1.4/totaal/Uitlaatconstructie", "Begindatum": "1970-01-01", "BreedteBouwwerk": "500", "LengteBouwwerk": "500", "OBJECTID": 2}}, {"type": "Feature", "id": 3, "geometry": {"type": "Point", "coordinates": [111013.25, 453617.1620000005]}, "properties": {"Stelsel": "", "stelseltype": "", "naam": "BG1745B", "type": "http://data.gwsw.nl/1.4/totaal/Rioolgemaal", "Begindatum": "1900-01-01", "BreedteBouwwerk": "990", "LengteBouwwerk": "990", "OBJECTID": 3}}, {"type": "Feature", "id": 4, "geometry": {"type": "Point", "coordinates": [109969.5700000003, 451611.7199999988]}, "properties": {"Stelsel": "", "stelseltype": "", "naam": "RB2076", "type": "http://data.gwsw.nl/1.4/totaal/Uitlaatconstructie", "Begindatum": "1992-01-01", "BreedteBouwwerk": "160", "LengteBouwwerk": "160", "OBJECTID": 4}}, {"type": "Feature", "id": 5, "geometry": {"type": "Point", "coordinates": [110007.01999999955, 451635.0799999982]}, "properties": {"Stelsel": "", "stelseltype": "", "naam": "RB2152", "type": "http://data.gwsw.nl/1.4/totaal/Uitlaatconstructie", "Begindatum": "1993-01-01", "BreedteBouwwerk": "160", "LengteBouwwerk": "160", "OBJECTID": 5}}, {"type": "Feature", "id": 6, "geometry": {"type": "Point", "coordinates": [109554.8900000006, 451024.51999999955]}, "properties": {"Stelsel": "", "stelseltype": "", "naam": "RB2328", "type": "http://data.gwsw.nl/1.4/totaal/Uitlaatconstructie", "Begindatum": "2015-01-01", "BreedteBouwwerk": "400", "LengteBouwwerk": "400", "OBJECTID": 6}}, {"type": "Feature", "id": 7, "geometry": {"type": "Point", "coordinates": [110714.30000000075, 455340.30000000075]}, "properties": {"Stelsel": "", "stelseltype": "", "naam": "BG0135", "type": "http://data.gwsw.nl/1.4/totaal/Rioolgemaal", "Begindatum": "1974-01-01", "BreedteBouwwerk": "1000", "LengteBouwwerk": "1000", "OBJECTID": 7}}, {"type": "Feature", "id": 8, "geometry": {"type": "Point", "coordinates": [111161.72700000182, 454698.21400000155]}, "properties": {"Stelsel": "", "stelseltype": "", "naam": "BG0206", "type": "http://data.gwsw.nl/1.4/totaal/Uitlaatconstructie", "Begindatum": "", "BreedteBouwwerk": "1000", "LengteBouwwerk": "1000", "OBJECTID": 8}}, {"type": "Feature", "id": 9, "geometry": {"type": "Point", "coordinates": [111170.7490000017, 454717.3720000014]}, "properties": {"Stelsel": "", "stelseltype": "", "naam": "BG0211", "type": "http://data.gwsw.nl/1.4/totaal/Uitlaatconstructie", "Begindatum": "", "BreedteBouwwerk": "1000", "LengteBouwwerk": "1000", "OBJECTID": 9}}, {"type": "Feature", "id": 10, "geometry": {"type": "Point", "coordinates": [111687.05600000173, 454111.88800000027]}, "properties": {"Stelsel": "", "stelseltype": "", "naam": "BG0551C", "type": "http://data.gwsw.nl/1.4/totaal/Uitlaatconstructie", "Begindatum": "", "BreedteBouwwerk": "500", "LengteBouwwerk": "500", "OBJECTID": 10}}, {"type": "Feature", "id": 11, "geometry": {"type": "Point", "coordinates": [111258.83999999985, 454892.58999999985]}, "properties": {"Stelsel": "", "stelseltype": "", "naam": "BG0796", "type": "http://data.gwsw.nl/1.4/totaal/Uitlaatconstructie", "Begindatum": "1968-01-01", "BreedteBouwwerk": "1000", "LengteBouwwerk": "1000", "OBJECTID": 11}}, {"type": "Feature", "id": 12, "geometry": {"type": "Point", "coordinates": [111176.1799999997, 454467.5]}, "properties": {"Stelsel": "", "stelseltype": "", "naam": "BG0826", "type": "http://data.gwsw.nl/1.4/totaal/Uitlaatconstructie", "Begindatum": "2007-01-01", "BreedteBouwwerk": "2000", "LengteBouwwerk": "1500", "OBJECTID": 12}}, {"type": "Feature", "id": 13, "geometry": {"type": "Point", "coordinates": [111424.06500000134, 455842.2100000009]}, "properties": {"Stelsel": "", "stelseltype": "", "naam": "BG1117", "type": "http://data.gwsw.nl/1.4/totaal/Uitlaatconstructie", "Begindatum": "2005-01-01", "BreedteBouwwerk": "1500", "LengteBouwwerk": "1500", "OBJECTID": 13}}, {"type": "Feature", "id": 14, "geometry": {"type": "Point", "coordinates": [111886.20199999958, 455339.0080000013]}, "properties": {"Stelsel": "", "stelseltype": "", "naam": "BG1176", "type": "http://data.gwsw.nl/1.4/totaal/Uitlaatconstructie", "Begindatum": "1987-01-01", "BreedteBouwwerk": "2000", "LengteBouwwerk": "1200", "OBJECTID": 14}}, {"type": "Feature", "id": 15, "geometry": {"type": "Point", "coordinates": [111434.1799999997, 454342.4600000009]}, "properties": {"Stelsel": "", "stelseltype": "", "naam": "BG1243", "type": "http://data.gwsw.nl/1.4/totaal/Uitlaatconstructie", "Begindatum": "2007-01-01", "BreedteBouwwerk": "1000", "LengteBouwwerk": "1000", "OBJECTID": 15}}, {"type": "Feature", "id": 16, "geometry": {"type": "Point", "coordinates": [111518.94000000134, 454092.1499999985]}, "properties": {"Stelsel": "", "stelseltype": "", "naam": "BG1246", "type": "http://data.gwsw.nl/1.4/totaal/Uitlaatconstructie", "Begindatum": "2007-01-01", "BreedteBouwwerk": "1000", "LengteBouwwerk": "1000", "OBJECTID": 16}}, {"type": "Feature", "id": 17, "geometry": {"type": "Point", "coordinates": [111379.72399999946, 453643.3029999994]}, "properties": {"Stelsel": "", "stelseltype": "", "naam": "BG1248E", "type": "http://data.gwsw.nl/1.4/totaal/Rioolgemaal", "Begindatum": "1900-01-01", "BreedteBouwwerk": "1250", "LengteBouwwerk": "4940", "OBJECTID": 17}}, {"type": "Feature", "id": 18, "geometry": {"type": "Point", "coordinates": [111758.47899999842, 454502.6420000009]}, "properties": {"Stelsel": "", "stelseltype": "", "naam": "BG1249", "type": "http://data.gwsw.nl/1.4/totaal/Uitlaatconstructie", "Begindatum": "1900-01-01", "BreedteBouwwerk": "1000", "LengteBouwwerk": "1000", "OBJECTID": 18}}, {"type": "Feature", "id": 19, "geometry": {"type": "Point", "coordinates": [112058.63100000098, 454598.7419999987]}, "properties": {"Stelsel": "", "stelseltype": "", "naam": "BG1592", "type": "http://data.gwsw.nl/1.4/totaal/Uitlaatconstructie", "Begindatum": "2011-01-01", "BreedteBouwwerk": "400", "LengteBouwwerk": "400", "OBJECTID": 19}}, {"type": "Feature", "id": 20, "geometry": {"type": "Point", "coordinates": [111992.75, 454211.69999999925]}, "properties": {"Stelsel": "", "stelseltype": "", "naam": "BG1638", "type": "http://data.gwsw.nl/1.4/totaal/Uitlaatconstructie", "Begindatum": "2011-01-01", "BreedteBouwwerk": "750", "LengteBouwwerk": "750", "OBJECTID": 20}}, {"type": "Feature", "id": 21, "geometry": {"type": "Point", "coordinates": [111060.67500000075, 454504.87999999896]}, "properties": {"Stelsel": "", "stelseltype": "", "naam": "BG1660", "type": "http://data.gwsw.nl/1.4/totaal/Uitlaatconstructie", "Begindatum": "2010-01-01", "BreedteBouwwerk": "1500", "LengteBouwwerk": "1500", "OBJECTID": 21}}, {"type": "Feature", "id": 22, "geometry": {"type": "Point", "coordinates": [111333.92000000179, 454891.0399999991]}, "properties": {"Stelsel": "", "stelseltype": "", "naam": "BG1676", "type": "http://data.gwsw.nl/1.4/totaal/Uitlaatconstructie", "Begindatum": "2012-01-01", "BreedteBouwwerk": "1000", "LengteBouwwerk": "1000", "OBJECTID": 22}}, {"type": "Feature", "id": 23, "geometry": {"type": "Point", "coordinates": [112431.3200000003, 454306.01000000164]}, "properties": {"Stelsel": "", "stelseltype": "", "naam": "BG1752", "type": "http://data.gwsw.nl/1.4/totaal/Uitlaatconstructie", "Begindatum": "2014-01-01", "BreedteBouwwerk": "500", "LengteBouwwerk": "500", "OBJECTID": 23}}, {"type": "Feature", "id": 24, "geometry": {"type": "Point", "coordinates": [110444.0700000003, 455511.6499999985]}, "properties": {"Stelsel": "", "stelseltype": "", "naam": "BG1754", "type": "http://data.gwsw.nl/1.4/totaal/Uitlaatconstructie", "Begindatum": "2009-01-01", "BreedteBouwwerk": "600", "LengteBouwwerk": "600", "OBJECTID": 24}}, {"type": "Feature", "id": 25, "geometry": {"type": "Point", "coordinates": [110289.10000000149, 456049.19000000134]}, "properties": {"Stelsel": "", "stelseltype": "", "naam": "BG1756", "type": "http://data.gwsw.nl/1.4/totaal/Uitlaatconstructie", "Begindatum": "2009-01-01", "BreedteBouwwerk": "1000", "LengteBouwwerk": "1000", "OBJECTID": 25}}, {"type": "Feature", "id": 26, "geometry": {"type": "Point", "coordinates": [111868.42000000179, 454758.67599999905]}, "properties": {"Stelsel": "", "stelseltype": "", "naam": "BG1759", "type": "http://data.gwsw.nl/1.4/totaal/Uitlaatconstructie", "Begindatum": "1995-01-01", "BreedteBouwwerk": "1000", "LengteBouwwerk": "1000", "OBJECTID": 26}}, {"type": "Feature", "id": 27, "geometry": {"type": "Point", "coordinates": [110844.10799999908, 455068.3520000018]}, "properties": {"Stelsel": "", "stelseltype": "", "naam": "BG1760", "type": "http://data.gwsw.nl/1.4/totaal/Uitlaatconstructie", "Begindatum": "1970-01-01", "BreedteBouwwerk": "500", "LengteBouwwerk": "500", "OBJECTID": 27}}, {"type": "Feature", "id": 28, "geometry": {"type": "Point", "coordinates": [111289.375, 454961.07499999925]}, "properties": {"Stelsel": "", "stelseltype": "", "naam": "BG1827", "type": "http://data.gwsw.nl/1.4/totaal/Uitlaatconstructie", "Begindatum": "1975-01-01", "BreedteBouwwerk": "1500", "LengteBouwwerk": "1500", "OBJECTID": 28}}, {"type": "Feature", "id": 29, "geometry": {"type": "Point", "coordinates": [111500.18600000069, 454944.5769999996]}, "properties": {"Stelsel": "", "stelseltype": "", "naam": "BG1830", "type": "http://data.gwsw.nl/1.4/totaal/Uitlaatconstructie", "Begindatum": "2008-01-01", "BreedteBouwwerk": "1000", "LengteBouwwerk": "1000", "OBJECTID": 29}}, {"type": "Feature", "id": 30, "geometry": {"type": "Point", "coordinates": [111490.0150000006, 454908.5399999991]}, "properties": {"Stelsel": "", "stelseltype": "", "naam": "BG1833", "type": "http://data.gwsw.nl/1.4/totaal/Uitlaatconstructie", "Begindatum": "2008-01-01", "BreedteBouwwerk": "1000", "LengteBouwwerk": "1000", "OBJECTID": 30}}, {"type": "Feature", "id": 31, "geometry": {"type": "Point", "coordinates": [110871.80000000075, 454169.3999999985]}, "properties": {"Stelsel": "", "stelseltype": "", "naam": "BG2010", "type": "http://data.gwsw.nl/1.4/totaal/Uitlaatconstructie", "Begindatum": "1991-01-01", "BreedteBouwwerk": "1000", "LengteBouwwerk": "1000", "OBJECTID": 31}}, {"type": "Feature", "id": 32, "geometry": {"type": "Point", "coordinates": [110984.32800000161, 454347.4459999986]}, "properties": {"Stelsel": "", "stelseltype": "", "naam": "BG2044", "type": "http://data.gwsw.nl/1.4/totaal/Uitlaatconstructie", "Begindatum": "2014-01-01", "BreedteBouwwerk": "1000", "LengteBouwwerk": "1000", "OBJECTID": 32}}, {"type": "Feature", "id": 33, "geometry": {"type": "Point", "coordinates": [110852.77800000086, 454599.73000000045]}, "properties": {"Stelsel": "", "stelseltype": "", "naam": "BG2078", "type": "http://data.gwsw.nl/1.4/totaal/Uitlaatconstructie", "Begindatum": "2010-01-01", "BreedteBouwwerk": "1000", "LengteBouwwerk": "1000", "OBJECTID": 33}}, {"type": "Feature", "id": 34, "geometry": {"type": "Point", "coordinates": [112026.99199999869, 454376.1279999986]}, "properties": {"Stelsel": "", "stelseltype": "", "naam": "BG2118", "type": "http://data.gwsw.nl/1.4/totaal/Uitlaatconstructie", "Begindatum": "2011-01-01", "BreedteBouwwerk": "600", "LengteBouwwerk": "600", "OBJECTID": 34}}, {"type": "Feature", "id": 35, "geometry": {"type": "Point", "coordinates": [110282.85000000149, 456060.0399999991]}, "properties": {"Stelsel": "", "stelseltype": "", "naam": "BG2146", "type": "http://data.gwsw.nl/1.4/totaal/Uitlaatconstructie", "Begindatum": "2011-01-01", "BreedteBouwwerk": "600", "LengteBouwwerk": "600", "OBJECTID": 35}}, {"type": "Feature", "id": 36, "geometry": {"type": "Point", "coordinates": [110302.84800000116, 456125.95899999887]}, "properties": {"Stelsel": "", "stelseltype": "", "naam": "BG2156", "type": "http://data.gwsw.nl/1.4/totaal/Uitlaatconstructie", "Begindatum": "2011-01-01", "BreedteBouwwerk": "600", "LengteBouwwerk": "600", "OBJECTID": 36}}, {"type": "Feature", "id": 37, "geometry": {"type": "Point", "coordinates": [110586.37000000104, 455034.7199999988]}, "properties": {"Stelsel": "", "stelseltype": "", "naam": "BG2181", "type": "http://data.gwsw.nl/1.4/totaal/Uitlaatconstructie", "Begindatum": "2015-01-01", "BreedteBouwwerk": "160", "LengteBouwwerk": "160", "OBJECTID": 37}}, {"type": "Feature", "id": 38, "geometry": {"type": "Point", "coordinates": [111814.83100000024, 453668.88599999994]}, "properties": {"Stelsel": "", "stelseltype": "", "naam": "BG2198B", "type": "http://data.gwsw.nl/1.4/totaal/Uitlaatconstructie", "Begindatum": "", "BreedteBouwwerk": "600", "LengteBouwwerk": "600", "OBJECTID": 38}}, {"type": "Feature", "id": 39, "geometry": {"type": "Point", "coordinates": [112144.15199999884, 454034.12000000104]}, "properties": {"Stelsel": "", "stelseltype": "", "naam": "BG2520", "type": "http://data.gwsw.nl/1.4/totaal/Uitlaatconstructie", "Begindatum": "2020-01-01", "BreedteBouwwerk": "750", "LengteBouwwerk": "750", "OBJECTID": 39}}, {"type": "Feature", "id": 40, "geometry": {"type": "Point", "coordinates": [112290.61199999973, 454145.08999999985]}, "properties": {"Stelsel": "", "stelseltype": "", "naam": "BG2531", "type": "http://data.gwsw.nl/1.4/totaal/Uitlaatconstructie", "Begindatum": "2020-01-01", "BreedteBouwwerk": "750", "LengteBouwwerk": "750", "OBJECTID": 40}}, {"type": "Feature", "id": 41, "geometry": {"type": "Point", "coordinates": [112414.16299999878, 454158.2529999986]}, "properties": {"Stelsel": "", "stelseltype": "", "naam": "BG2566", "type": "http://data.gwsw.nl/1.4/totaal/Uitlaatconstructie", "Begindatum": "2020-01-01", "BreedteBouwwerk": "750", "LengteBouwwerk": "750", "OBJECTID": 41}}, {"type": "Feature", "id": 42, "geometry": {"type": "Point", "coordinates": [112408.80900000036, 454125.78400000185]}, "properties": {"Stelsel": "", "stelseltype": "", "naam": "BG2567", "type": "http://data.gwsw.nl/1.4/totaal/Uitlaatconstructie", "Begindatum": "2019-01-01", "BreedteBouwwerk": "750", "LengteBouwwerk": "750", "OBJECTID": 42}}, {"type": "Feature", "id": 43, "geometry": {"type": "Point", "coordinates": [112403.59899999946, 454094.18499999866]}, "properties": {"Stelsel": "", "stelseltype": "", "naam": "BG2568", "type": "http://data.gwsw.nl/1.4/totaal/Uitlaatconstructie", "Begindatum": "2019-01-01", "BreedteBouwwerk": "750", "LengteBouwwerk": "750", "OBJECTID": 43}}, {"type": "Feature", "id": 44, "geometry": {"type": "Point", "coordinates": [112393.45399999991, 454033.65900000185]}, "properties": {"Stelsel": "", "stelseltype": "", "naam": "BG2569", "type": "http://data.gwsw.nl/1.4/totaal/Uitlaatconstructie", "Begindatum": "2019-01-01", "BreedteBouwwerk": "750", "LengteBouwwerk": "750", "OBJECTID": 44}}, {"type": "Feature", "id": 45, "geometry": {"type": "Point", "coordinates": [112383.53400000185, 453972.3740000017]}, "properties": {"Stelsel": "", "stelseltype": "", "naam": "BG2570", "type": "http://data.gwsw.nl/1.4/totaal/Uitlaatconstructie", "Begindatum": "2019-01-01", "BreedteBouwwerk": "750", "LengteBouwwerk": "750", "OBJECTID": 45}}, {"type": "Feature", "id": 46, "geometry": {"type": "Point", "coordinates": [110983.93200000003, 453586.1550000012]}, "properties": {"Stelsel": "", "stelseltype": "", "naam": "BG2574", "type": "http://data.gwsw.nl/1.4/totaal/Uitlaatconstructie", "Begindatum": "", "BreedteBouwwerk": "1000", "LengteBouwwerk": "1000", "OBJECTID": 46}}, {"type": "Feature", "id": 47, "geometry": {"type": "Point", "coordinates": [112019.84499999881, 454328.58399999887]}, "properties": {"Stelsel": "", "stelseltype": "", "naam": "BG2612", "type": "http://data.gwsw.nl/1.4/totaal/Uitlaatconstructie", "Begindatum": "2011-01-01", "BreedteBouwwerk": "200", "LengteBouwwerk": "200", "OBJECTID": 47}}, {"type": "Feature", "id": 48, "geometry": {"type": "Point", "coordinates": [112027.31500000134, 454368.7430000007]}, "properties": {"Stelsel": "", "stelseltype": "", "naam": "BG2613", "type": "http://data.gwsw.nl/1.4/totaal/Uitlaatconstructie", "Begindatum": "2011-01-01", "BreedteBouwwerk": "200", "LengteBouwwerk": "200", "OBJECTID": 48}}, {"type": "Feature", "id": 49, "geometry": {"type": "Point", "coordinates": [110253.73000000045, 455030.80000000075]}, "properties": {"Stelsel": "", "stelseltype": "", "naam": "BG7712", "type": "http://data.gwsw.nl/1.4/totaal/Uitlaatconstructie", "Begindatum": "1900-01-01", "BreedteBouwwerk": "110", "LengteBouwwerk": "110", "OBJECTID": 49}}, {"type": "Feature", "id": 50, "geometry": {"type": "Point", "coordinates": [114621.68499999866, 450662.87900000066]}, "properties": {"Stelsel": "", "stelseltype": "", "naam": "DR2027", "type": "http://data.gwsw.nl/1.4/totaal/Uitlaatconstructie", "Begindatum": "2008-01-01", "BreedteBouwwerk": "500", "LengteBouwwerk": "500", "OBJECTID": 50}}, {"type": "Feature", "id": 51, "geometry": {"type": "Point", "coordinates": [114623.12900000066, 450678.03400000185]}, "properties": {"Stelsel": "", "stelseltype": "", "naam": "DR2049", "type": "http://data.gwsw.nl/1.4/totaal/Uitlaatconstructie", "Begindatum": "2008-01-01", "BreedteBouwwerk": "400", "LengteBouwwerk": "400", "OBJECTID": 51}}, {"type": "Feature", "id": 52, "geometry": {"type": "Point", "coordinates": [114419.48000000045, 450857.98999999836]}, "properties": {"Stelsel": "", "stelseltype": "", "naam": "DR2098", "type": "http://data.gwsw.nl/1.4/totaal/Uitlaatconstructie", "Begindatum": "2013-01-01", "BreedteBouwwerk": "400", "LengteBouwwerk": "400", "OBJECTID": 52}}, {"type": "Feature", "id": 53, "geometry": {"type": "Point", "coordinates": [114925.59899999946, 451043.6970000006]}, "properties": {"Stelsel": "", "stelseltype": "", "naam": "DR2140", "type": "http://data.gwsw.nl/1.4/totaal/Uitlaatconstructie", "Begindatum": "2018-01-01", "BreedteBouwwerk": "300", "LengteBouwwerk": "300", "OBJECTID": 53}}, {"type": "Feature", "id": 54, "geometry": {"type": "Point", "coordinates": [115034.31700000167, 451033.79199999943]}, "properties": {"Stelsel": "", "stelseltype": "", "naam": "DR2141", "type": "http://data.gwsw.nl/1.4/totaal/Uitlaatconstructie", "Begindatum": "2018-01-01", "BreedteBouwwerk": "300", "LengteBouwwerk": "300", "OBJECTID": 54}}, {"type": "Feature", "id": 55, "geometry": {"type": "Point", "coordinates": [109016.2899999991, 450552.1499999985]}, "properties": {"Stelsel": "", "stelseltype": "", "naam": "RB2013", "type": "http://data.gwsw.nl/1.4/totaal/Uitlaatconstructie", "Begindatum": "1997-01-01", "BreedteBouwwerk": "500", "LengteBouwwerk": "500", "OBJECTID": 55}}, {"type": "Feature", "id": 56, "geometry": {"type": "Point", "coordinates": [110053.83999999985, 451469.69999999925]}, "properties": {"Stelsel": "", "stelseltype": "", "naam": "RB2043", "type": "http://data.gwsw.nl/1.4/totaal/Uitlaatconstructie", "Begindatum": "1988-01-01", "BreedteBouwwerk": "200", "LengteBouwwerk": "200", "OBJECTID": 56}}, {"type": "Feature", "id": 57, "geometry": {"type": "Point", "coordinates": [109967.27400000021, 451466.20699999854]}, "properties": {"Stelsel": "", "stelseltype": "", "naam": "RB2047", "type": "http://data.gwsw.nl/1.4/totaal/Uitlaatconstructie", "Begindatum": "1988-01-01", "BreedteBouwwerk": "200", "LengteBouwwerk": "200", "OBJECTID": 57}}, {"type": "Feature", "id": 58, "geometry": {"type": "Point", "coordinates": [109966.5700000003, 451463.5]}, "properties": {"Stelsel": "", "stelseltype": "", "naam": "RB2049", "type": "http://data.gwsw.nl/1.4/totaal/Uitlaatconstructie", "Begindatum": "1988-01-01", "BreedteBouwwerk": "200", "LengteBouwwerk": "200", "OBJECTID": 58}}, {"type": "Feature", "id": 59, "geometry": {"type": "Point", "coordinates": [110046.57999999821, 451443.26000000164]}, "properties": {"Stelsel": "", "stelseltype": "", "naam": "RB2051", "type": "http://data.gwsw.nl/1.4/totaal/Uitlaatconstructie", "Begindatum": "1988-01-01", "BreedteBouwwerk": "200", "LengteBouwwerk": "200", "OBJECTID": 59}}, {"type": "Feature", "id": 60, "geometry": {"type": "Point", "coordinates": [109961.94099999964, 451466.9140000008]}, "properties": {"Stelsel": "", "stelseltype": "", "naam": "RB2054", "type": "http://data.gwsw.nl/1.4/totaal/Uitlaatconstructie", "Begindatum": "1992-01-01", "BreedteBouwwerk": "200", "LengteBouwwerk": "200", "OBJECTID": 60}}, {"type": "Feature", "id": 61, "geometry": {"type": "Point", "coordinates": [109960.5700000003, 451464.80000000075]}, "properties": {"Stelsel": "", "stelseltype": "", "naam": "RB2055", "type": "http://data.gwsw.nl/1.4/totaal/Uitlaatconstructie", "Begindatum": "1992-01-01", "BreedteBouwwerk": "200", "LengteBouwwerk": "200", "OBJECTID": 61}}, {"type": "Feature", "id": 62, "geometry": {"type": "Point", "coordinates": [109973.26000000164, 451526.8999999985]}, "properties": {"Stelsel": "", "stelseltype": "", "naam": "RB2066", "type": "http://data.gwsw.nl/1.4/totaal/Uitlaatconstructie", "Begindatum": "1992-01-01", "BreedteBouwwerk": "160", "LengteBouwwerk": "160", "OBJECTID": 62}}, {"type": "Feature", "id": 63, "geometry": {"type": "Point", "coordinates": [109925.55999999866, 451623.83999999985]}, "properties": {"Stelsel": "", "stelseltype": "", "naam": "RB2071", "type": "http://data.gwsw.nl/1.4/totaal/Uitlaatconstructie", "Begindatum": "1992-01-01", "BreedteBouwwerk": "200", "LengteBouwwerk": "200", "OBJECTID": 63}}, {"type": "Feature", "id": 64, "geometry": {"type": "Point", "coordinates": [109882.17000000179, 451555.01000000164]}, "properties": {"Stelsel": "", "stelseltype": "", "naam": "RB2077", "type": "http://data.gwsw.nl/1.4/totaal/Uitlaatconstructie", "Begindatum": "1988-01-01", "BreedteBouwwerk": "160", "LengteBouwwerk": "160", "OBJECTID": 64}}, {"type": "Feature", "id": 65, "geometry": {"type": "Point", "coordinates": [110064.17000000179, 451506.76000000164]}, "properties": {"Stelsel": "", "stelseltype": "", "naam": "RB2080", "type": "http://data.gwsw.nl/1.4/totaal/Uitlaatconstructie", "Begindatum": "1988-01-01", "BreedteBouwwerk": "160", "LengteBouwwerk": "160", "OBJECTID": 65}}, {"type": "Feature", "id": 66, "geometry": {"type": "Point", "coordinates": [110069, 451525.8200000003]}, "properties": {"Stelsel": "", "stelseltype": "", "naam": "RB2085", "type": "http://data.gwsw.nl/1.4/totaal/Uitlaatconstructie", "Begindatum": "1990-01-01", "BreedteBouwwerk": "200", "LengteBouwwerk": "200", "OBJECTID": 66}}, {"type": "Feature", "id": 67, "geometry": {"type": "Point", "coordinates": [110076.48000000045, 451554.44999999925]}, "properties": {"Stelsel": "", "stelseltype": "", "naam": "RB2087", "type": "http://data.gwsw.nl/1.4/totaal/Uitlaatconstructie", "Begindatum": "1990-01-01", "BreedteBouwwerk": "200", "LengteBouwwerk": "200", "OBJECTID": 67}}, {"type": "Feature", "id": 68, "geometry": {"type": "Point", "coordinates": [110010.42000000179, 451609.8599999994]}, "properties": {"Stelsel": "", "stelseltype": "", "naam": "RB2095", "type": "http://data.gwsw.nl/1.4/totaal/Uitlaatconstructie", "Begindatum": "1990-01-01", "BreedteBouwwerk": "160", "LengteBouwwerk": "160", "OBJECTID": 68}}, {"type": "Feature", "id": 69, "geometry": {"type": "Point", "coordinates": [110027.60000000149, 451703.76000000164]}, "properties": {"Stelsel": "", "stelseltype": "", "naam": "RB2106", "type": "http://data.gwsw.nl/1.4/totaal/Uitlaatconstructie", "Begindatum": "1993-01-01", "BreedteBouwwerk": "160", "LengteBouwwerk": "160", "OBJECTID": 69}}, {"type": "Feature", "id": 70, "geometry": {"type": "Point", "coordinates": [110029.05999999866, 451703.44999999925]}, "properties": {"Stelsel": "", "stelseltype": "", "naam": "RB2110", "type": "http://data.gwsw.nl/1.4/totaal/Uitlaatconstructie", "Begindatum": "1993-01-01", "BreedteBouwwerk": "160", "LengteBouwwerk": "160", "OBJECTID": 70}}, {"type": "Feature", "id": 71, "geometry": {"type": "Point", "coordinates": [110030.87000000104, 451703.1099999994]}, "properties": {"Stelsel": "", "stelseltype": "", "naam": "RB2113", "type": "http://data.gwsw.nl/1.4/totaal/Uitlaatconstructie", "Begindatum": "1993-01-01", "BreedteBouwwerk": "160", "LengteBouwwerk": "160", "OBJECTID": 71}}, {"type": "Feature", "id": 72, "geometry": {"type": "Point", "coordinates": [109943.6400000006, 451743.87999999896]}, "properties": {"Stelsel": "", "stelseltype": "", "naam": "RB2118", "type": "http://data.gwsw.nl/1.4/totaal/Uitlaatconstructie", "Begindatum": "1993-01-01", "BreedteBouwwerk": "160", "LengteBouwwerk": "160", "OBJECTID": 72}}, {"type": "Feature", "id": 73, "geometry": {"type": "Point", "coordinates": [110084.25, 451747.44999999925]}, "properties": {"Stelsel": "", "stelseltype": "", "naam": "RB2132", "type": "http://data.gwsw.nl/1.4/totaal/Uitlaatconstructie", "Begindatum": "1993-01-01", "BreedteBouwwerk": "160", "LengteBouwwerk": "160", "OBJECTID": 73}}, {"type": "Feature", "id": 74, "geometry": {"type": "Point", "coordinates": [110021.6099999994, 451689.8900000006]}, "properties": {"Stelsel": "", "stelseltype": "", "naam": "RB2141", "type": "http://data.gwsw.nl/1.4/totaal/Uitlaatconstructie", "Begindatum": "1993-01-01", "BreedteBouwwerk": "160", "LengteBouwwerk": "160", "OBJECTID": 74}}, {"type": "Feature", "id": 75, "geometry": {"type": "Point", "coordinates": [109927.6099999994, 451629.6499999985]}, "properties": {"Stelsel": "", "stelseltype": "", "naam": "RB2147", "type": "http://data.gwsw.nl/1.4/totaal/Uitlaatconstructie", "Begindatum": "1993-01-01", "BreedteBouwwerk": "200", "LengteBouwwerk": "200", "OBJECTID": 75}}, {"type": "Feature", "id": 76, "geometry": {"type": "Point", "coordinates": [110007.7100000009, 451637.66000000015]}, "properties": {"Stelsel": "", "stelseltype": "", "naam": "RB2154", "type": "http://data.gwsw.nl/1.4/totaal/Uitlaatconstructie", "Begindatum": "1993-01-01", "BreedteBouwwerk": "160", "LengteBouwwerk": "160", "OBJECTID": 76}}, {"type": "Feature", "id": 77, "geometry": {"type": "Point", "coordinates": [110021.3200000003, 451646.12999999896]}, "properties": {"Stelsel": "", "stelseltype": "", "naam": "RB2160", "type": "http://data.gwsw.nl/1.4/totaal/Uitlaatconstructie", "Begindatum": "1990-01-01", "BreedteBouwwerk": "160", "LengteBouwwerk": "160", "OBJECTID": 77}}, {"type": "Feature", "id": 78, "geometry": {"type": "Point", "coordinates": [110153.3900000006, 451566.6000000015]}, "properties": {"Stelsel": "", "stelseltype": "", "naam": "RB2174", "type": "http://data.gwsw.nl/1.4/totaal/Uitlaatconstructie", "Begindatum": "2000-01-01", "BreedteBouwwerk": "200", "LengteBouwwerk": "200", "OBJECTID": 78}}, {"type": "Feature", "id": 79, "geometry": {"type": "Point", "coordinates": [109863.8599999994, 451640.91000000015]}, "properties": {"Stelsel": "", "stelseltype": "", "naam": "RB2176", "type": "http://data.gwsw.nl/1.4/totaal/Uitlaatconstructie", "Begindatum": "1998-01-01", "BreedteBouwwerk": "200", "LengteBouwwerk": "200", "OBJECTID": 79}}, {"type": "Feature", "id": 80, "geometry": {"type": "Point", "coordinates": [109861.5, 451733.69000000134]}, "properties": {"Stelsel": "", "stelseltype": "", "naam": "RB2177", "type": "http://data.gwsw.nl/1.4/totaal/Uitlaatconstructie", "Begindatum": "1998-01-01", "BreedteBouwwerk": "200", "LengteBouwwerk": "200", "OBJECTID": 80}}, {"type": "Feature", "id": 81, "geometry": {"type": "Point", "coordinates": [109915.33999999985, 451720.48999999836]}, "properties": {"Stelsel": "", "stelseltype": "", "naam": "RB2182", "type": "http://data.gwsw.nl/1.4/totaal/Uitlaatconstructie", "Begindatum": "1998-01-01", "BreedteBouwwerk": "200", "LengteBouwwerk": "200", "OBJECTID": 81}}, {"type": "Feature", "id": 82, "geometry": {"type": "Point", "coordinates": [109907.26000000164, 451796.3500000015]}, "properties": {"Stelsel": "", "stelseltype": "", "naam": "RB2189", "type": "http://data.gwsw.nl/1.4/totaal/Uitlaatconstructie", "Begindatum": "2004-01-01", "BreedteBouwwerk": "200", "LengteBouwwerk": "200", "OBJECTID": 82}}, {"type": "Feature", "id": 83, "geometry": {"type": "Point", "coordinates": [109014.94000000134, 450089.91000000015]}, "properties": {"Stelsel": "", "stelseltype": "", "naam": "RB2202", "type": "http://data.gwsw.nl/1.4/totaal/Uitlaatconstructie", "Begindatum": "2014-01-01", "BreedteBouwwerk": "250", "LengteBouwwerk": "250", "OBJECTID": 83}}, {"type": "Feature", "id": 84, "geometry": {"type": "Point", "coordinates": [109580.14600000158, 450772.46400000155]}, "properties": {"Stelsel": "", "stelseltype": "", "naam": "RB2214", "type": "http://data.gwsw.nl/1.4/totaal/Uitlaatconstructie", "Begindatum": "2007-01-01", "BreedteBouwwerk": "400", "LengteBouwwerk": "400", "OBJECTID": 84}}, {"type": "Feature", "id": 85, "geometry": {"type": "Point", "coordinates": [109357.05999999866, 451598.94999999925]}, "properties": {"Stelsel": "", "stelseltype": "", "naam": "RB2237", "type": "http://data.gwsw.nl/1.4/totaal/Uitlaatconstructie", "Begindatum": "2007-01-01", "BreedteBouwwerk": "160", "LengteBouwwerk": "160", "OBJECTID": 85}}, {"type": "Feature", "id": 86, "geometry": {"type": "Point", "coordinates": [109637.67000000179, 451927.1000000015]}, "properties": {"Stelsel": "", "stelseltype": "", "naam": "RB2250", "type": "http://data.gwsw.nl/1.4/totaal/Uitlaatconstructie", "Begindatum": "2007-01-01", "BreedteBouwwerk": "400", "LengteBouwwerk": "400", "OBJECTID": 86}}, {"type": "Feature", "id": 87, "geometry": {"type": "Point", "coordinates": [109789.80999999866, 451726.01999999955]}, "properties": {"Stelsel": "", "stelseltype": "", "naam": "RB2279", "type": "http://data.gwsw.nl/1.4/totaal/Uitlaatconstructie", "Begindatum": "2014-01-01", "BreedteBouwwerk": "400", "LengteBouwwerk": "400", "OBJECTID": 87}}, {"type": "Feature", "id": 88, "geometry": {"type": "Point", "coordinates": [109937.98999999836, 451370.0700000003]}, "properties": {"Stelsel": "", "stelseltype": "", "naam": "RB2299", "type": "http://data.gwsw.nl/1.4/totaal/Uitlaatconstructie", "Begindatum": "2011-01-01", "BreedteBouwwerk": "500", "LengteBouwwerk": "500", "OBJECTID": 88}}, {"type": "Feature", "id": 89, "geometry": {"type": "Point", "coordinates": [109220.2100000009, 451163.26000000164]}, "properties": {"Stelsel": "", "stelseltype": "", "naam": "RB2360", "type": "http://data.gwsw.nl/1.4/totaal/Uitlaatconstructie", "Begindatum": "1900-01-01", "BreedteBouwwerk": "160", "LengteBouwwerk": "160", "OBJECTID": 89}}, {"type": "Feature", "id": 90, "geometry": {"type": "Point", "coordinates": [109236.55000000075, 451179.4299999997]}, "properties": {"Stelsel": "", "stelseltype": "", "naam": "RB2372", "type": "http://data.gwsw.nl/1.4/totaal/Uitlaatconstructie", "Begindatum": "1900-01-01", "BreedteBouwwerk": "160", "LengteBouwwerk": "160", "OBJECTID": 90}}, {"type": "Feature", "id": 91, "geometry": {"type": "Point", "coordinates": [109531.06399999931, 451028.15300000086]}, "properties": {"Stelsel": "", "stelseltype": "", "naam": "RB2386E", "type": "http://data.gwsw.nl/1.4/totaal/Uitlaatconstructie", "Begindatum": "2009-01-01", "BreedteBouwwerk": "1000", "LengteBouwwerk": "200", "OBJECTID": 91}}, {"type": "Feature", "id": 92, "geometry": {"type": "Point", "coordinates": [109988.25, 451744.44999999925]}, "properties": {"Stelsel": "", "stelseltype": "", "naam": "RB7038", "type": "http://data.gwsw.nl/1.4/totaal/Uitlaatconstructie", "Begindatum": "1993-01-01", "BreedteBouwwerk": "160", "LengteBouwwerk": "160", "OBJECTID": 92}}, {"type": "Feature", "id": 93, "geometry": {"type": "Point", "coordinates": [109976.2899999991, 451418.80999999866]}, "properties": {"Stelsel": "", "stelseltype": "", "naam": "RBX017", "type": "http://data.gwsw.nl/1.4/totaal/Uitlaatconstructie", "Begindatum": "1980-01-01", "BreedteBouwwerk": "500", "LengteBouwwerk": "500", "OBJECTID": 93}}, {"type": "Feature", "id": 94, "geometry": {"type": "Point", "coordinates": [107180.76099999994, 452233.58100000024]}, "properties": {"Stelsel": "", "stelseltype": "", "naam": "RD0010", "type": "http://data.gwsw.nl/1.4/totaal/Uitlaatconstructie", "Begindatum": "1999-01-01", "BreedteBouwwerk": "310", "LengteBouwwerk": "310", "OBJECTID": 94}}, {"type": "Feature", "id": 95, "geometry": {"type": "Point", "coordinates": [107361.4849999994, 451943.51900000125]}, "properties": {"Stelsel": "", "stelseltype": "", "naam": "RD2022", "type": "http://data.gwsw.nl/1.4/totaal/Uitlaatconstructie", "Begindatum": "2010-01-01", "BreedteBouwwerk": "400", "LengteBouwwerk": "400", "OBJECTID": 95}}, {"type": "Feature", "id": 96, "geometry": {"type": "Point", "coordinates": [116448.07400000095, 452486.06799999997]}, "properties": {"Stelsel": "", "stelseltype": "", "naam": "WA0163", "type": "http://data.gwsw.nl/1.4/totaal/Rioolgemaal", "Begindatum": "1988-01-01", "BreedteBouwwerk": "1500", "LengteBouwwerk": "1500", "OBJECTID": 96}}, {"type": "Feature", "id": 97, "geometry": {"type": "Point", "coordinates": [114497.56300000101, 450635.22300000116]}, "properties": {"Stelsel": "", "stelseltype": "", "naam": "DR0207", "type": "http://data.gwsw.nl/1.4/totaal/Uitlaatconstructie", "Begindatum": "2008-01-01", "BreedteBouwwerk": "500", "LengteBouwwerk": "500", "OBJECTID": 97}}, {"type": "Feature", "id": 98, "geometry": {"type": "Point", "coordinates": [111040.12000000104, 454975.55999999866]}, "properties": {"Stelsel": "", "stelseltype": "", "naam": "BG5198", "type": "http://data.gwsw.nl/1.4/totaal/Uitlaatconstructie", "Begindatum": "2009-01-01", "BreedteBouwwerk": "160", "LengteBouwwerk": "160", "OBJECTID": 98}}, {"type": "Feature", "id": 99, "geometry": {"type": "Point", "coordinates": [110835.7899999991, 454953.58999999985]}, "properties": {"Stelsel": "", "stelseltype": "", "naam": "BG5230", "type": "http://data.gwsw.nl/1.4/totaal/Uitlaatconstructie", "Begindatum": "2016-01-01", "BreedteBouwwerk": "200", "LengteBouwwerk": "200", "OBJECTID": 99}}, {"type": "Feature", "id": 100, "geometry": {"type": "Point", "coordinates": [114674.90199999884, 450688.83900000155]}, "properties": {"Stelsel": "", "stelseltype": "", "naam": "DR0081", "type": "http://data.gwsw.nl/1.4/totaal/Uitlaatconstructie", "Begindatum": "2008-01-01", "BreedteBouwwerk": "1500", "LengteBouwwerk": "1500", "OBJECTID": 100}}, {"type": "Feature", "id": 101, "geometry": {"type": "Point", "coordinates": [115038.26000000164, 451034.0700000003]}, "properties": {"Stelsel": "", "stelseltype": "", "naam": "DR0095", "type": "http://data.gwsw.nl/1.4/totaal/Uitlaatconstructie", "Begindatum": "1998-01-01", "BreedteBouwwerk": "400", "LengteBouwwerk": "400", "OBJECTID": 101}}, {"type": "Feature", "id": 102, "geometry": {"type": "Point", "coordinates": [106630.51999999955, 452230.1799999997]}, "properties": {"Stelsel": "", "stelseltype": "", "naam": "RD7618", "type": "http://data.gwsw.nl/1.4/totaal/Rioolgemaal", "Begindatum": "1990-01-01", "BreedteBouwwerk": "110", "LengteBouwwerk": "110", "OBJECTID": 102}}, {"type": "Feature", "id": 103, "geometry": {"type": "Point", "coordinates": [114638.98999999836, 450932.6790000014]}, "properties": {"Stelsel": "", "stelseltype": "", "naam": "DR0159", "type": "http://data.gwsw.nl/1.4/totaal/Uitlaatconstructie", "Begindatum": "1968-01-01", "BreedteBouwwerk": "400", "LengteBouwwerk": "400", "OBJECTID": 103}}, {"type": "Feature", "id": 104, "geometry": {"type": "Point", "coordinates": [115122.23999999836, 451018.23000000045]}, "properties": {"Stelsel": "", "stelseltype": "", "naam": "DR7299", "type": "http://data.gwsw.nl/1.4/totaal/Rioolgemaal", "Begindatum": "1984-01-01", "BreedteBouwwerk": "160", "LengteBouwwerk": "160", "OBJECTID": 104}}, {"type": "Feature", "id": 105, "geometry": {"type": "Point", "coordinates": [116186.2100000009, 452980.34899999946]}, "properties": {"Stelsel": "", "stelseltype": "", "naam": "WA0022", "type": "http://data.gwsw.nl/1.4/totaal/Uitlaatconstructie", "Begindatum": "1998-01-01", "BreedteBouwwerk": "500", "LengteBouwwerk": "500", "OBJECTID": 105}}, {"type": "Feature", "id": 106, "geometry": {"type": "Point", "coordinates": [116170.5540000014, 452610.90399999917]}, "properties": {"Stelsel": "", "stelseltype": "", "naam": "WA0111", "type": "http://data.gwsw.nl/1.4/totaal/Uitlaatconstructie", "Begindatum": "1996-01-01", "BreedteBouwwerk": "310", "LengteBouwwerk": "310", "OBJECTID": 106}}, {"type": "Feature", "id": 107, "geometry": {"type": "Point", "coordinates": [110854.87799999863, 455099.79100000113]}, "properties": {"Stelsel": "", "stelseltype": "", "naam": "BG0048", "type": "http://data.gwsw.nl/1.4/totaal/Uitlaatconstructie", "Begindatum": "1974-01-01", "BreedteBouwwerk": "2000", "LengteBouwwerk": "2000", "OBJECTID": 107}}, {"type": "Feature", "id": 108, "geometry": {"type": "Point", "coordinates": [111148.49500000104, 454481.9290000014]}, "properties": {"Stelsel": "", "stelseltype": "", "naam": "BG1255F", "type": "http://data.gwsw.nl/1.4/totaal/Uitlaatconstructie", "Begindatum": "2007-01-01", "BreedteBouwwerk": "2000", "LengteBouwwerk": "1500", "OBJECTID": 108}}, {"type": "Feature", "id": 109, "geometry": {"type": "Point", "coordinates": [111181.5, 453532.8999999985]}, "properties": {"Stelsel": "", "stelseltype": "", "naam": "BG1742", "type": "http://data.gwsw.nl/1.4/totaal/Uitlaatconstructie", "Begindatum": "1971-01-01", "BreedteBouwwerk": "500", "LengteBouwwerk": "500", "OBJECTID": 109}}, {"type": "Feature", "id": 110, "geometry": {"type": "Point", "coordinates": [112081.60000000149, 453592.75]}, "properties": {"Stelsel": "", "stelseltype": "", "naam": "BG1748", "type": "http://data.gwsw.nl/1.4/totaal/Uitlaatconstructie", "Begindatum": "1995-01-01", "BreedteBouwwerk": "600", "LengteBouwwerk": "600", "OBJECTID": 110}}, {"type": "Feature", "id": 111, "geometry": {"type": "Point", "coordinates": [112101.91000000015, 453637.6499999985]}, "properties": {"Stelsel": "", "stelseltype": "", "naam": "BG1750", "type": "http://data.gwsw.nl/1.4/totaal/Uitlaatconstructie", "Begindatum": "1995-01-01", "BreedteBouwwerk": "600", "LengteBouwwerk": "600", "OBJECTID": 111}}, {"type": "Feature", "id": 112, "geometry": {"type": "Point", "coordinates": [111605.875, 454854.44200000167]}, "properties": {"Stelsel": "", "stelseltype": "", "naam": "BG1758", "type": "http://data.gwsw.nl/1.4/totaal/Uitlaatconstructie", "Begindatum": "1994-01-01", "BreedteBouwwerk": "1000", "LengteBouwwerk": "1000", "OBJECTID": 112}}, {"type": "Feature", "id": 113, "geometry": {"type": "Point", "coordinates": [116104.19999999925, 454261.80000000075]}, "properties": {"Stelsel": "", "stelseltype": "", "naam": "NI0123", "type": "http://data.gwsw.nl/1.4/totaal/Rioolgemaal", "Begindatum": "1985-01-01", "BreedteBouwwerk": "1500", "LengteBouwwerk": "1500", "OBJECTID": 113}}, {"type": "Feature", "id": 114, "geometry": {"type": "Point", "coordinates": [115744.53599999845, 454246.2470000014]}, "properties": {"Stelsel": "", "stelseltype": "", "naam": "NI0131", "type": "http://data.gwsw.nl/1.4/totaal/Uitlaatconstructie", "Begindatum": "2016-01-01", "BreedteBouwwerk": "1500", "LengteBouwwerk": "1500", "OBJECTID": 114}}, {"type": "Feature", "id": 115, "geometry": {"type": "Point", "coordinates": [109308.44200000167, 450539.38599999994]}, "properties": {"Stelsel": "", "stelseltype": "", "naam": "RB0024", "type": "http://data.gwsw.nl/1.4/totaal/Uitlaatconstructie", "Begindatum": "1989-01-01", "BreedteBouwwerk": "500", "LengteBouwwerk": "500", "OBJECTID": 115}}, {"type": "Feature", "id": 116, "geometry": {"type": "Point", "coordinates": [109005.2100000009, 450251.3900000006]}, "properties": {"Stelsel": "", "stelseltype": "", "naam": "RB0071", "type": "http://data.gwsw.nl/1.4/totaal/Uitlaatconstructie", "Begindatum": "2002-01-01", "BreedteBouwwerk": "400", "LengteBouwwerk": "400", "OBJECTID": 116}}, {"type": "Feature", "id": 117, "geometry": {"type": "Point", "coordinates": [109337.21999999881, 451456.3999999985]}, "properties": {"Stelsel": "", "stelseltype": "", "naam": "RB0164", "type": "http://data.gwsw.nl/1.4/totaal/Uitlaatconstructie", "Begindatum": "1995-01-01", "BreedteBouwwerk": "500", "LengteBouwwerk": "500", "OBJECTID": 117}}, {"type": "Feature", "id": 118, "geometry": {"type": "Point", "coordinates": [109190.05000000075, 450765.4699999988]}, "properties": {"Stelsel": "", "stelseltype": "", "naam": "RB0198", "type": "http://data.gwsw.nl/1.4/totaal/Uitlaatconstructie", "Begindatum": "1995-01-01", "BreedteBouwwerk": "500", "LengteBouwwerk": "500", "OBJECTID": 118}}, {"type": "Feature", "id": 119, "geometry": {"type": "Point", "coordinates": [108987.5, 450910.73999999836]}, "properties": {"Stelsel": "", "stelseltype": "", "naam": "RB0284", "type": "http://data.gwsw.nl/1.4/totaal/Uitlaatconstructie", "Begindatum": "1984-01-01", "BreedteBouwwerk": "400", "LengteBouwwerk": "400", "OBJECTID": 119}}, {"type": "Feature", "id": 120, "geometry": {"type": "Point", "coordinates": [109556.44000000134, 451043.4699999988]}, "properties": {"Stelsel": "", "stelseltype": "", "naam": "RB0518", "type": "http://data.gwsw.nl/1.4/totaal/Uitlaatconstructie", "Begindatum": "1998-01-01", "BreedteBouwwerk": "700", "LengteBouwwerk": "700", "OBJECTID": 120}}, {"type": "Feature", "id": 121, "geometry": {"type": "Point", "coordinates": [109947.35000000149, 451394.9299999997]}, "properties": {"Stelsel": "", "stelseltype": "", "naam": "RB0554", "type": "http://data.gwsw.nl/1.4/totaal/Uitlaatconstructie", "Begindatum": "2011-01-01", "BreedteBouwwerk": "500", "LengteBouwwerk": "500", "OBJECTID": 121}}, {"type": "Feature", "id": 122, "geometry": {"type": "Point", "coordinates": [109655.46999999881, 451503.7100000009]}, "properties": {"Stelsel": "", "stelseltype": "", "naam": "RB0557", "type": "http://data.gwsw.nl/1.4/totaal/Uitlaatconstructie", "Begindatum": "1970-01-01", "BreedteBouwwerk": "500", "LengteBouwwerk": "500", "OBJECTID": 122}}, {"type": "Feature", "id": 123, "geometry": {"type": "Point", "coordinates": [109929.96999999881, 451431.62000000104]}, "properties": {"Stelsel": "", "stelseltype": "", "naam": "RB0558", "type": "http://data.gwsw.nl/1.4/totaal/Uitlaatconstructie", "Begindatum": "2009-01-01", "BreedteBouwwerk": "500", "LengteBouwwerk": "500", "OBJECTID": 123}}, {"type": "Feature", "id": 124, "geometry": {"type": "Point", "coordinates": [109005.56899999827, 450309.7259999998]}, "properties": {"Stelsel": "", "stelseltype": "", "naam": "RB0664", "type": "http://data.gwsw.nl/1.4/totaal/Uitlaatconstructie", "Begindatum": "2000-01-01", "BreedteBouwwerk": "500", "LengteBouwwerk": "500", "OBJECTID": 124}}, {"type": "Feature", "id": 125, "geometry": {"type": "Point", "coordinates": [109685, 450688.16000000015]}, "properties": {"Stelsel": "", "stelseltype": "", "naam": "RB0682", "type": "http://data.gwsw.nl/1.4/totaal/Uitlaatconstructie", "Begindatum": "1980-01-01", "BreedteBouwwerk": "500", "LengteBouwwerk": "500", "OBJECTID": 125}}, {"type": "Feature", "id": 126, "geometry": {"type": "Point", "coordinates": [109647.03000000119, 450739.62000000104]}, "properties": {"Stelsel": "", "stelseltype": "", "naam": "RB0693", "type": "http://data.gwsw.nl/1.4/totaal/Uitlaatconstructie", "Begindatum": "1987-01-01", "BreedteBouwwerk": "500", "LengteBouwwerk": "500", "OBJECTID": 126}}, {"type": "Feature", "id": 127, "geometry": {"type": "Point", "coordinates": [109765.55000000075, 450761.6799999997]}, "properties": {"Stelsel": "", "stelseltype": "", "naam": "RB0738", "type": "http://data.gwsw.nl/1.4/totaal/Uitlaatconstructie", "Begindatum": "1989-01-01", "BreedteBouwwerk": "500", "LengteBouwwerk": "500", "OBJECTID": 127}}, {"type": "Feature", "id": 128, "geometry": {"type": "Point", "coordinates": [109121.25, 450758.26999999955]}, "properties": {"Stelsel": "", "stelseltype": "", "naam": "RB0769", "type": "http://data.gwsw.nl/1.4/totaal/Uitlaatconstructie", "Begindatum": "1985-01-01", "BreedteBouwwerk": "500", "LengteBouwwerk": "500", "OBJECTID": 128}}, {"type": "Feature", "id": 129, "geometry": {"type": "Point", "coordinates": [108964.76000000164, 450902.44000000134]}, "properties": {"Stelsel": "", "stelseltype": "", "naam": "RB0978", "type": "http://data.gwsw.nl/1.4/totaal/Uitlaatconstructie", "Begindatum": "1986-01-01", "BreedteBouwwerk": "400", "LengteBouwwerk": "400", "OBJECTID": 129}}, {"type": "Feature", "id": 130, "geometry": {"type": "Point", "coordinates": [109552.59099999815, 451022.67500000075]}, "properties": {"Stelsel": "", "stelseltype": "", "naam": "RB10000", "type": "http://data.gwsw.nl/1.4/totaal/Uitlaatconstructie", "Begindatum": "2009-01-01", "BreedteBouwwerk": "2000", "LengteBouwwerk": "2000", "OBJECTID": 130}}, {"type": "Feature", "id": 131, "geometry": {"type": "Point", "coordinates": [109575.98699999973, 451011.7179999985]}, "properties": {"Stelsel": "", "stelseltype": "", "naam": "RB10002", "type": "http://data.gwsw.nl/1.4/totaal/Uitlaatconstructie", "Begindatum": "2009-01-01", "BreedteBouwwerk": "2000", "LengteBouwwerk": "2000", "OBJECTID": 131}}, {"type": "Feature", "id": 132, "geometry": {"type": "Point", "coordinates": [109200.80000000075, 451422.0300000012]}, "properties": {"Stelsel": "", "stelseltype": "", "naam": "RB1099", "type": "http://data.gwsw.nl/1.4/totaal/Uitlaatconstructie", "Begindatum": "2007-01-01", "BreedteBouwwerk": "400", "LengteBouwwerk": "400", "OBJECTID": 132}}, {"type": "Feature", "id": 133, "geometry": {"type": "Point", "coordinates": [109270.23800000176, 450728.4780000001]}, "properties": {"Stelsel": "", "stelseltype": "", "naam": "RB1127", "type": "http://data.gwsw.nl/1.4/totaal/Uitlaatconstructie", "Begindatum": "2007-01-01", "BreedteBouwwerk": "1500", "LengteBouwwerk": "1000", "OBJECTID": 133}}, {"type": "Feature", "id": 134, "geometry": {"type": "Point", "coordinates": [110096.8200000003, 451380.37000000104]}, "properties": {"Stelsel": "", "stelseltype": "", "naam": "RB1128", "type": "http://data.gwsw.nl/1.4/totaal/Rioolgemaal", "Begindatum": "1970-01-01", "BreedteBouwwerk": "1500", "LengteBouwwerk": "1500", "OBJECTID": 134}}, {"type": "Feature", "id": 135, "geometry": {"type": "Point", "coordinates": [109171.05000000075, 451084.5799999982]}, "properties": {"Stelsel": "", "stelseltype": "", "naam": "RB1129", "type": "http://data.gwsw.nl/1.4/totaal/Rioolgemaal", "Begindatum": "1985-01-01", "BreedteBouwwerk": "500", "LengteBouwwerk": "500", "OBJECTID": 135}}]}