{"type": "FeatureCollection", "features": [{"type": "Feature", "id": 1, "geometry": {"type": "LineString", "coordinates": [[104392.15, 462098.639], [104392.12, 462098.811], [104392.033, 462098.961], [104391.9, 462099.073], [104391.737, 462099.132], [104391.563, 462099.132], [104391.4, 462099.073], [104391.267, 462098.961], [104391.18, 462098.811], [104392.15, 462098.64]]}, "properties": {"OBJECTID": 1, "Datum": "20190807", "Knoopnr": "A12329C", "X": 104391.685, "Y": 462098.831, "CKwaliteit": "niet gemeten", "Peil_mv": 1, "MKwaliteit": "onbekend", "Peil_bodem": -2.38, "Peil_water": -2.38, "Vorm": "rond", "Breedte": 1000, "Lengte": 1000, "Type": "compartiment", "NMK": "onbekend", "Territory": "onbekend", "Materiaal": "hdpe", "Jaar": "2007", "Oppervlak": 0.79, "Afvoertype": "hemelwater vgs", "Dekseltype": "onbekend", "StrProtype": "onbekend", "Construct": "onbekend", "Adres": 0, "InstrmInw": 0, "InstrmBdr": 0, "Verlies": 0, "opmerking": "", "Nr_positie": 0, "OBJ_ID": "0", "Shape_Length": 2.374813844151109}}, {"type": "Feature", "id": 2, "geometry": {"type": "LineString", "coordinates": [[103704.694, 453236.461], [103702.012, 453233.611]]}, "properties": {"OBJECTID": 2, "Datum": "20190606", "Knoopnr": "BK1334", "X": 103704.316, "Y": 453235.92, "CKwaliteit": "meting", "Peil_mv": -5.17, "MKwaliteit": "meting", "Peil_bodem": -6.65, "Peil_water": -6.65, "Vorm": "rond", "Breedte": 600, "Lengte": 600, "Type": "inspectieput", "NMK": "onbekend", "Territory": "onbekend", "Materiaal": "polyester", "Jaar": "1970", "Oppervlak": 0.28, "Afvoertype": "gemengd", "Dekseltype": "onbekend", "StrProtype": "onbekend", "Construct": "onbekend", "Adres": 0, "InstrmInw": 0, "InstrmBdr": 0, "Verlies": 0, "opmerking": "", "Nr_positie": 0, "OBJ_ID": "9", "Shape_Length": 3.9135181103711294}}, {"type": "Feature", "id": 3, "geometry": {"type": "LineString", "coordinates": [[104291.7, 453155.399], [104291.676, 453155.645], [104291.589, 453155.796], [104291.456, 453155.907], [104291.293, 453155.967], [104291.119, 453155.967], [104290.956, 453155.907], [104290.823, 453155.796], [104290.736, 453155.645], [104290.71, 453155.444], [104291.7, 453155.395]]}, "properties": {"OBJECTID": 3, "Datum": "20190128", "Knoopnr": "BK2533", "X": 104291.21, "Y": 453155.42, "CKwaliteit": "meting", "Peil_mv": -5.13, "MKwaliteit": "meting", "Peil_bodem": -6.58, "Peil_water": -6.58, "Vorm": "rond", "Breedte": 1000, "Lengte": 500, "Type": "externe overstort", "NMK": "onbekend", "Territory": "onbekend", "Materiaal": "hdpe", "Jaar": "1989", "Oppervlak": 0.79, "Afvoertype": "vuilwater gs", "Dekseltype": "onbekend", "StrProtype": "onbekend", "Construct": "onbekend", "Adres": 0, "InstrmInw": 0, "InstrmBdr": 0, "Verlies": 0, "opmerking": "", "Nr_positie": 0, "OBJ_ID": "0", "Shape_Length": 2.6574466757976465}}, {"type": "Feature", "id": 4, "geometry": {"type": "LineString", "coordinates": [[100896.009, 456978.258], [100896.776, 456977.615]]}, "properties": {"OBJECTID": 4, "Datum": "20190814", "Knoopnr": "DR10206", "X": 100896.549, "Y": 456978.126, "CKwaliteit": "meting", "Peil_mv": -1.97, "MKwaliteit": "ahn3", "Peil_bodem": -2.64, "Peil_water": -2.64, "Vorm": "rechthoek", "Breedte": 500, "Lengte": 1000, "Type": "compartiment", "NMK": "onbekend", "Territory": "onbekend", "Materiaal": "beton", "Jaar": "2013", "Oppervlak": 0.5, "Afvoertype": "hemelwater gs", "Dekseltype": "onbekend", "StrProtype": "onbekend", "Construct": "onbekend", "Adres": 0, "InstrmInw": 0, "InstrmBdr": 0, "Verlies": 0, "opmerking": "", "Nr_positie": 0, "OBJ_ID": "0", "Shape_Length": 1.0008686227298846}}, {"type": "Feature", "id": 5, "geometry": {"type": "LineString", "coordinates": [[100896.375, 456978.651], [100897.141, 456978.009]]}, "properties": {"OBJECTID": 5, "Datum": "20190814", "Knoopnr": "F08227U", "X": 100897.94, "Y": 456979.888, "CKwaliteit": "niet gemeten", "Peil_mv": -1.97, "MKwaliteit": "ahn3", "Peil_bodem": -2.64, "Peil_water": -2.64, "Vorm": "rechthoek", "Breedte": 500, "Lengte": 1000, "Type": "uitstroombak", "NMK": "onbekend", "Territory": "onbekend", "Materiaal": "beton", "Jaar": "0", "Oppervlak": 0.5, "Afvoertype": "hemelwater gs", "Dekseltype": "onbekend", "StrProtype": "onbekend", "Construct": "onbekend", "Adres": 0, "InstrmInw": 0, "InstrmBdr": 0, "Verlies": 0, "opmerking": "", "Nr_positie": 0, "OBJ_ID": "e", "Shape_Length": 0.9994598541189272}}]}