{"type": "FeatureCollection", "features": [{"type": "Feature", "id": 1, "geometry": {"type": "Polygon", "coordinates": [[[99772.21000000462, 460358.799999997], [104785.2330000028, 461464.54500000924], [99772.21000000462, 460358.799999997], [104785.2330000028, 461464.54500000924], [99772.21000000462, 460358.799999997]]]}, "properties": {"OBJECTID": 1, "Datum": "20190128", "Van_knpnr": "DP0427U", "Naar_knpnr": "DP0428U", "Strengnr": 967603, "Offset": 0, "Strengtype": "duiker", "Afvoertype": "oppervlaktewater", "Jaar": "0", "Jaar_recon": "0", "Materiaal": "onbekend", "Vorm": "onbekend", "Voeg": "onbekend", "Grondslag": "zware zavel", "Fundatie": "onbekend", "VanBobpeil": "", "NarBobpeil": "", "Straat": "\"hondsdijk, koudekerk aan den rijn\"", "Straattype": "onbekend", "Verh_type": "onbekend", "Breedte": 0, "Hoogte": 0, "BodemBrdt": 130, "Lengte": 5.88999987, "Gebied": "duikers", "Inspectie": "", "JaarVerv": "0", "Beslismodl": "Geen beoordeling", "Beoordeeld": "0000", "Tactisch": 7, "Act_Direct": 0, "Act_In_5Y": 0, "Act_In_10Y": 0, "Geen_actie": 0, "Niet_beord": 5.89, "Operationl": 0, "Project": "", "APM": 0, "APV": "", "Kosten": 510.94, "Opmerking": "", "Tekening": "onbekend", "OBJ_ID": "0", "Shape_Length": 20534.097147354805, "Shape_Area": 0}}, {"type": "Feature", "id": 2, "geometry": {"type": "Polygon", "coordinates": [[[105944.88003524393, 459147.2116787955], [104785.19303524494, 461464.54667880014], [105944.88003524393, 459147.2116787955], [104785.19303524494, 461464.54667880014], [105944.88003524393, 459147.2116787955]]]}, "properties": {"OBJECTID": 2, "Datum": "20180321", "Van_knpnr": "F03094", "Naar_knpnr": "F03094", "Strengnr": 2229908, "Offset": 0, "Strengtype": "drain", "Afvoertype": "drainagestelsel", "Jaar": "0", "Jaar_recon": "0", "Materiaal": "onbekend", "Vorm": "rond", "Voeg": "mof-spie", "Grondslag": "onbekend", "Fundatie": "onbekend", "VanBobpeil": "", "NarBobpeil": "", "Straat": "\"gravenstraat, alphen aan den rijn\"", "Straattype": "onbekend", "Verh_type": "onbekend", "Breedte": 80, "Hoogte": 80, "BodemBrdt": 130, "Lengte": 0, "Gebied": "overig", "Inspectie": "", "JaarVerv": "0", "Beslismodl": "Geen beoordeling", "Beoordeeld": "0000", "Tactisch": 7, "Act_Direct": 0, "Act_In_5Y": 0, "Act_In_10Y": 0, "Geen_actie": 0, "Niet_beord": 0, "Operationl": 0, "Project": "", "APM": 0, "APV": "", "Kosten": 0, "Opmerking": "", "Tekening": "onbekend", "OBJ_ID": "0", "Shape_Length": 10365.261552098382, "Shape_Area": 0}}, {"type": "Feature", "id": 3, "geometry": {"type": "Polygon", "coordinates": [[[105700.90452775732, 453380.05332205445], [104785.20152775571, 461464.5463220589], [105700.90452775732, 453380.05332205445], [104785.20152775571, 461464.5463220589], [105700.90452775732, 453380.05332205445]]]}, "properties": {"OBJECTID": 3, "Datum": "20181113", "Van_knpnr": "F03241", "Naar_knpnr": "F03241", "Strengnr": 2251013, "Offset": 0, "Strengtype": "persleiding", "Afvoertype": "vuilwater gs", "Jaar": "1992", "Jaar_recon": "1992", "Materiaal": "hdpe", "Vorm": "rond", "Voeg": "trekvast", "Grondslag": "veen", "Fundatie": "onbekend", "VanBobpeil": "0.000", "NarBobpeil": "0.000", "Straat": "\"zuidwijk, boskoop\"", "Straattype": "onbekend", "Verh_type": "onbekend", "Breedte": 63, "Hoogte": 63, "BodemBrdt": 4, "Lengte": 0, "Gebied": "riool onder druk", "Inspectie": "", "JaarVerv": "0", "Beslismodl": "Geen beoordeling", "Beoordeeld": "0000", "Tactisch": 7, "Act_Direct": 0, "Act_In_5Y": 0, "Act_In_10Y": 0, "Geen_actie": 0, "Niet_beord": 0, "Operationl": 0, "Project": "", "APM": 0, "APV": "", "Kosten": 0, "Opmerking": "", "Tekening": "onbekend", "OBJ_ID": "f326848b80f6493e9c904cce61b94242", "Shape_Length": 32544.74803745335, "Shape_Area": 0}}]}