{"type": "FeatureCollection", "features": [{"type": "Feature", "id": 8, "geometry": {"type": "Polygon", "coordinates": [[[104396.037, 455296.222], [104396.019, 455296.12], [104395.967, 455296.03], [104395.887, 455295.963], [104395.789, 455295.927], [104395.685, 455295.927], [104395.789, 455296.518], [104395.887, 455296.482], [104395.967, 455296.415], [104396.019, 455296.325], [104396.037, 455296.222]]]}, "properties": {"OBJECTID": 8, "Datum": "20190128", "Knoopnr": "BK3169", "X": 104395.744, "Y": 455296.223, "CKwaliteit": "luchtfoto", "Peil_mv": -1.69, "MKwaliteit": "meting", "Peil_bodem": -3.73, "Peil_water": -3.73, "Vorm": "rond", "Breedte": 600, "Lengte": 300, "Type": "externe overstort", "NMK": "onbekend", "Territory": "onbekend", "Materiaal": "hdpe", "Jaar": "2014", "Oppervlak": 0.28, "Afvoertype": "vuilwater gs", "Dekseltype": "onbekend", "StrProtype": "onbekend", "Construct": "onbekend", "Adres": 0, "InstrmInw": 0, "InstrmBdr": 0, "Verlies": 0, "opmerking": "", "Nr_positie": 0, "OBJ_ID": "8", "Shape_Length": 1.537609330063913, "Shape_Area": -0.13846699999575923}}, {"type": "Feature", "id": 9, "geometry": {"type": "Polygon", "coordinates": [[[104399.786, 455583.096], [104399.768, 455582.994], [104399.716, 455582.903], [104399.636, 455582.836], [104399.538, 455582.801], [104399.434, 455582.801], [104399.336, 455582.836], [104399.256, 455582.903], [104399.204, 455582.994], [104399.186, 455583.096], [104399.204, 455583.199], [104399.256, 455583.289], [104399.336, 455583.356], [104399.434, 455583.392], [104399.538, 455583.392], [104399.636, 455583.356], [104399.716, 455583.289], [104399.768, 455583.199], [104399.786, 455583.096]]]}, "properties": {"OBJECTID": 9, "Datum": "20190626", "Knoopnr": "BK3180", "X": 104399.489, "Y": 455583.095, "CKwaliteit": "niet gemeten", "Peil_mv": -1.4, "MKwaliteit": "onbekend", "Peil_bodem": -2.84, "Peil_water": -2.84, "Vorm": "rond", "Breedte": 600, "Lengte": 600, "Type": "inspectieput", "NMK": "onbekend", "Territory": "onbekend", "Materiaal": "polyester", "Jaar": "1987", "Oppervlak": 0.28, "Afvoertype": "vuilwater gs", "Dekseltype": "onbekend", "StrProtype": "onbekend", "Construct": "onbekend", "Adres": 0, "InstrmInw": 0, "InstrmBdr": 0, "Verlies": 0, "opmerking": "", "Nr_positie": 0, "OBJ_ID": "0", "Shape_Length": 1.8761099548643443, "Shape_Area": -0.2772440000076373}}, {"type": "Feature", "id": 10, "geometry": {"type": "Polygon", "coordinates": [[[106523.945, 455129.222], [106523.915, 455129.051], [106523.828, 455128.901], [106523.695, 455128.789], [106523.532, 455128.73], [106523.358, 455128.73], [106523.195, 455128.789], [106523.695, 455129.655], [106523.828, 455129.544], [106523.915, 455129.393], [106523.945, 455129.222]]]}, "properties": {"OBJECTID": 10, "Datum": "20190606", "Knoopnr": "BK4264A", "X": 106523.502, "Y": 455129.285, "CKwaliteit": "meting", "Peil_mv": -1.74, "MKwaliteit": "meting", "Peil_bodem": -3.33, "Peil_water": -3.33, "Vorm": "rond", "Breedte": 1000, "Lengte": 500, "Type": "externe overstort", "NMK": "onbekend", "Territory": "onbekend", "Materiaal": "hdpe", "Jaar": "1984", "Oppervlak": 0.79, "Afvoertype": "vuilwater gs", "Dekseltype": "onbekend", "StrProtype": "onbekend", "Construct": "onbekend", "Adres": 0, "InstrmInw": 0, "InstrmBdr": 0, "Verlies": 0, "opmerking": "", "Nr_positie": 0, "OBJ_ID": "0", "Shape_Length": 2.5626843839276496, "Shape_Area": -0.38470900000586955}}]}