{"type": "FeatureCollection", "features": [{"type": "Feature", "id": 1, "geometry": {"type": "Point", "coordinates": [99815.795, 456460.88]}, "properties": {"OBJECTID": 1, "Vorm": "onbekend", "Datum": "20160804", "Van_knpnr": "Z2181", "Naar_knpnr": "Z2182U", "Drempelnr": 1, "Hoogte": -5.25, "Breedte": 5, "Afv_coeff": 0, "Stroomrcht": 1}}, {"type": "Feature", "id": 2, "geometry": {"type": "Point", "coordinates": [103556.499, 461219.685]}, "properties": {"OBJECTID": 2, "Vorm": "onbekend", "Datum": "20180507", "Van_knpnr": "A25858", "Naar_knpnr": "A25857", "Drempelnr": 1, "Hoogte": -0.800000012, "Breedte": 1.79999995, "Afv_coeff": 0, "Stroomrcht": 0}}, {"type": "Feature", "id": 3, "geometry": {"type": "Point", "coordinates": [104744.231, 460979.78]}, "properties": {"OBJECTID": 3, "Vorm": "onbekend", "Datum": "20180403", "Van_knpnr": "A21577", "Naar_knpnr": "A21577C", "Drempelnr": 1, "Hoogte": -1.70000005, "Breedte": 6, "Afv_coeff": 0, "Stroomrcht": 0}}, {"type": "Feature", "id": 4, "geometry": {"type": "Point", "coordinates": [101643.884, 460979.774]}, "properties": {"OBJECTID": 4, "Vorm": "rechthoek", "Datum": "20190430", "Van_knpnr": "K1440", "Naar_knpnr": "K1440C", "Drempelnr": 1, "Hoogte": -1.75999999, "Breedte": 2, "Afv_coeff": 0, "Stroomrcht": 1}}, {"type": "Feature", "id": 5, "geometry": {"type": "Point", "coordinates": [101678.97, 460754.56]}, "properties": {"OBJECTID": 5, "Vorm": "rechthoek", "Datum": "20190430", "Van_knpnr": "K1580", "Naar_knpnr": "K1580C", "Drempelnr": 1, "Hoogte": -1.79999995, "Breedte": 2, "Afv_coeff": 0, "Stroomrcht": 1}}, {"type": "Feature", "id": 6, "geometry": {"type": "Point", "coordinates": [101202.039, 460795.373]}, "properties": {"OBJECTID": 6, "Vorm": "rechthoek", "Datum": "20190801", "Van_knpnr": "K1890C", "Naar_knpnr": "KW0157", "Drempelnr": 1, "Hoogte": -1.49000001, "Breedte": 1, "Afv_coeff": 0, "Stroomrcht": 0}}, {"type": "Feature", "id": 7, "geometry": {"type": "Point", "coordinates": [105611.731, 459579.528]}, "properties": {"OBJECTID": 7, "Vorm": "rechthoek", "Datum": "20180404", "Van_knpnr": "A4425", "Naar_knpnr": "A4425C", "Drempelnr": 1, "Hoogte": -1.02999997, "Breedte": 1.38999999, "Afv_coeff": 0, "Stroomrcht": 0}}, {"type": "Feature", "id": 8, "geometry": {"type": "Point", "coordinates": [104283.111, 461524.562]}, "properties": {"OBJECTID": 8, "Vorm": "rechthoek", "Datum": "20180403", "Van_knpnr": "A17473", "Naar_knpnr": "A17473C", "Drempelnr": 1, "Hoogte": -1.40999997, "Breedte": 1.20000005, "Afv_coeff": 0, "Stroomrcht": 0}}, {"type": "Feature", "id": 9, "geometry": {"type": "Point", "coordinates": [106376.434, 462677.514]}, "properties": {"OBJECTID": 9, "Vorm": "rechthoek", "Datum": "20160720", "Van_knpnr": "A5244", "Naar_knpnr": "", "Drempelnr": 1, "Hoogte": 0, "Breedte": 0, "Afv_coeff": 0, "Stroomrcht": 1}}, {"type": "Feature", "id": 10, "geometry": {"type": "Point", "coordinates": [105675.693, 454169.761]}, "properties": {"OBJECTID": 10, "Vorm": "rechthoek", "Datum": "20181212", "Van_knpnr": "BKGZW-04C", "Naar_knpnr": "F03957U", "Drempelnr": 1, "Hoogte": -1.77999997, "Breedte": 0.400000006, "Afv_coeff": 0, "Stroomrcht": 0}}, {"type": "Feature", "id": 11, "geometry": {"type": "Point", "coordinates": [106347.347, 459657.32]}, "properties": {"OBJECTID": 11, "Vorm": "rechthoek", "Datum": "20181211", "Van_knpnr": "AW0979", "Naar_knpnr": "AW0979C", "Drempelnr": 1, "Hoogte": -2, "Breedte": 1, "Afv_coeff": 0, "Stroomrcht": 0}}, {"type": "Feature", "id": 12, "geometry": {"type": "Point", "coordinates": [100734.706, 456961.631]}, "properties": {"OBJECTID": 12, "Vorm": "rechthoek", "Datum": "20190425", "Van_knpnr": "D10356", "Naar_knpnr": "D10356C", "Drempelnr": 1, "Hoogte": -1.79999995, "Breedte": 2, "Afv_coeff": 0, "Stroomrcht": 0}}, {"type": "Feature", "id": 13, "geometry": {"type": "Point", "coordinates": [100071.669, 459846.135]}, "properties": {"OBJECTID": 13, "Vorm": "rechthoek", "Datum": "20190430", "Van_knpnr": "R2053", "Naar_knpnr": "R2053C", "Drempelnr": 1, "Hoogte": -1.79999995, "Breedte": 0.800000012, "Afv_coeff": 0, "Stroomrcht": 0}}, {"type": "Feature", "id": 14, "geometry": {"type": "Point", "coordinates": [106263.452, 460069.544]}, "properties": {"OBJECTID": 14, "Vorm": "rechthoek", "Datum": "20190521", "Van_knpnr": "A29341", "Naar_knpnr": "A29341C", "Drempelnr": 1, "Hoogte": -1.45000005, "Breedte": 0, "Afv_coeff": 0, "Stroomrcht": 0}}, {"type": "Feature", "id": 15, "geometry": {"type": "Point", "coordinates": [104960.933, 460172.992]}, "properties": {"OBJECTID": 15, "Vorm": "rechthoek", "Datum": "20190730", "Van_knpnr": "A25218", "Naar_knpnr": "A25219", "Drempelnr": 1, "Hoogte": -1.64999998, "Breedte": 0, "Afv_coeff": 0, "Stroomrcht": 0}}, {"type": "Feature", "id": 16, "geometry": {"type": "Point", "coordinates": [101231.77, 460626.13]}, "properties": {"OBJECTID": 16, "Vorm": "rechthoek", "Datum": "20190801", "Van_knpnr": "K0290", "Naar_knpnr": "K0290D", "Drempelnr": 2, "Hoogte": -1.89999998, "Breedte": 0.800000012, "Afv_coeff": 0, "Stroomrcht": 0}}, {"type": "Feature", "id": 17, "geometry": {"type": "Point", "coordinates": [101232.191, 460626.132]}, "properties": {"OBJECTID": 17, "Vorm": "rechthoek", "Datum": "20190801", "Van_knpnr": "K0290D", "Naar_knpnr": "K0290C", "Drempelnr": 1, "Hoogte": -1.89999998, "Breedte": 0.800000012, "Afv_coeff": 0, "Stroomrcht": 0}}, {"type": "Feature", "id": 18, "geometry": {"type": "Point", "coordinates": [105283.209, 459235.019]}, "properties": {"OBJECTID": 18, "Vorm": "rechthoek", "Datum": "20180409", "Van_knpnr": "A10929", "Naar_knpnr": "A10929C", "Drempelnr": 1, "Hoogte": -2.0999999, "Breedte": 1.5, "Afv_coeff": 0, "Stroomrcht": 0}}, {"type": "Feature", "id": 19, "geometry": {"type": "Point", "coordinates": [104843.757, 461881.922]}, "properties": {"OBJECTID": 19, "Vorm": "rechthoek", "Datum": "20160720", "Van_knpnr": "A16629", "Naar_knpnr": "", "Drempelnr": 1, "Hoogte": 0, "Breedte": 0, "Afv_coeff": 0, "Stroomrcht": 1}}, {"type": "Feature", "id": 20, "geometry": {"type": "Point", "coordinates": [103632.234, 454163.793]}, "properties": {"OBJECTID": 20, "Vorm": "rechthoek", "Datum": "20190521", "Van_knpnr": "BK1155", "Naar_knpnr": "BK1155C", "Drempelnr": 1, "Hoogte": -5.71999979, "Breedte": 2.5, "Afv_coeff": 0, "Stroomrcht": 0}}, {"type": "Feature", "id": 21, "geometry": {"type": "Point", "coordinates": [103683.27, 453386.52]}, "properties": {"OBJECTID": 21, "Vorm": "rechthoek", "Datum": "20190521", "Van_knpnr": "BK1310", "Naar_knpnr": "BK1310C", "Drempelnr": 1, "Hoogte": -5.71000004, "Breedte": 1, "Afv_coeff": 0, "Stroomrcht": 0}}, {"type": "Feature", "id": 22, "geometry": {"type": "Point", "coordinates": [104001.952, 453203.661]}, "properties": {"OBJECTID": 22, "Vorm": "rechthoek", "Datum": "20190521", "Van_knpnr": "BK1338", "Naar_knpnr": "BK1338C", "Drempelnr": 1, "Hoogte": -5.73999977, "Breedte": 1, "Afv_coeff": 0, "Stroomrcht": 0}}, {"type": "Feature", "id": 23, "geometry": {"type": "Point", "coordinates": [103765.548, 453239.26]}, "properties": {"OBJECTID": 23, "Vorm": "rechthoek", "Datum": "20190521", "Van_knpnr": "BK1341", "Naar_knpnr": "BK1341C", "Drempelnr": 1, "Hoogte": -5.78000021, "Breedte": 1.39999998, "Afv_coeff": 0, "Stroomrcht": 0}}, {"type": "Feature", "id": 24, "geometry": {"type": "Point", "coordinates": [109683.622, 457740.549]}, "properties": {"OBJECTID": 24, "Vorm": "rechthoek", "Datum": "20160728", "Van_knpnr": "ZM0007", "Naar_knpnr": "F07257U", "Drempelnr": 1, "Hoogte": 0, "Breedte": 0, "Afv_coeff": 0, "Stroomrcht": 1}}, {"type": "Feature", "id": 25, "geometry": {"type": "Point", "coordinates": [109703.023, 457844.094]}, "properties": {"OBJECTID": 25, "Vorm": "rechthoek", "Datum": "20180409", "Van_knpnr": "ZMR0003", "Naar_knpnr": "ZMR0003C", "Drempelnr": 1, "Hoogte": -0.5, "Breedte": 1, "Afv_coeff": 0, "Stroomrcht": 0}}, {"type": "Feature", "id": 26, "geometry": {"type": "Point", "coordinates": [105217.001, 459741.484]}, "properties": {"OBJECTID": 26, "Vorm": "rechthoek", "Datum": "20180403", "Van_knpnr": "A18990", "Naar_knpnr": "AG18992", "Drempelnr": 1, "Hoogte": -2.26999998, "Breedte": 1.5, "Afv_coeff": 0, "Stroomrcht": 0}}, {"type": "Feature", "id": 27, "geometry": {"type": "Point", "coordinates": [102386.585, 460698.053]}, "properties": {"OBJECTID": 27, "Vorm": "rechthoek", "Datum": "20190325", "Van_knpnr": "K5090", "Naar_knpnr": "KR6050", "Drempelnr": 1, "Hoogte": -1.16999996, "Breedte": 2, "Afv_coeff": 0, "Stroomrcht": 1}}, {"type": "Feature", "id": 28, "geometry": {"type": "Point", "coordinates": [97183.225, 454311.238]}, "properties": {"OBJECTID": 28, "Vorm": "rechthoek", "Datum": "20160728", "Van_knpnr": "BBB_10A", "Naar_knpnr": "BBB_10U", "Drempelnr": 1, "Hoogte": -5.4000001, "Breedte": 5, "Afv_coeff": 0, "Stroomrcht": 1}}, {"type": "Feature", "id": 29, "geometry": {"type": "Point", "coordinates": [104751.047, 461126.855]}, "properties": {"OBJECTID": 29, "Vorm": "rechthoek", "Datum": "20160720", "Van_knpnr": "A21130", "Naar_knpnr": "", "Drempelnr": 1, "Hoogte": 0, "Breedte": 0, "Afv_coeff": 0, "Stroomrcht": 1}}, {"type": "Feature", "id": 30, "geometry": {"type": "Point", "coordinates": [104763.866, 461356.145]}, "properties": {"OBJECTID": 30, "Vorm": "rechthoek", "Datum": "20160720", "Van_knpnr": "A21134", "Naar_knpnr": "", "Drempelnr": 1, "Hoogte": 0, "Breedte": 0, "Afv_coeff": 0, "Stroomrcht": 1}}, {"type": "Feature", "id": 31, "geometry": {"type": "Point", "coordinates": [104745.835, 461024.311]}, "properties": {"OBJECTID": 31, "Vorm": "rechthoek", "Datum": "20180403", "Van_knpnr": "A481", "Naar_knpnr": "A481C", "Drempelnr": 1, "Hoogte": -1.85000002, "Breedte": 6, "Afv_coeff": 0, "Stroomrcht": 0}}, {"type": "Feature", "id": 32, "geometry": {"type": "Point", "coordinates": [104699.649, 461457.244]}, "properties": {"OBJECTID": 32, "Vorm": "rechthoek", "Datum": "20160720", "Van_knpnr": "A21137", "Naar_knpnr": "", "Drempelnr": 1, "Hoogte": 0, "Breedte": 0, "Afv_coeff": 0, "Stroomrcht": 1}}, {"type": "Feature", "id": 33, "geometry": {"type": "Point", "coordinates": [104634.09, 461133.622]}, "properties": {"OBJECTID": 33, "Vorm": "rechthoek", "Datum": "20160720", "Van_knpnr": "A21145", "Naar_knpnr": "", "Drempelnr": 1, "Hoogte": 0, "Breedte": 0, "Afv_coeff": 0, "Stroomrcht": 1}}, {"type": "Feature", "id": 34, "geometry": {"type": "Point", "coordinates": [100554.38, 456673.72]}, "properties": {"OBJECTID": 34, "Vorm": "rechthoek", "Datum": "20160728", "Van_knpnr": "D1150", "Naar_knpnr": "D1150U", "Drempelnr": 1, "Hoogte": -1.84000003, "Breedte": 0.790000021, "Afv_coeff": 0, "Stroomrcht": 1}}, {"type": "Feature", "id": 35, "geometry": {"type": "Point", "coordinates": [100811.558, 460235.06]}, "properties": {"OBJECTID": 35, "Vorm": "rechthoek", "Datum": "20160804", "Van_knpnr": "R6113", "Naar_knpnr": "R6113U", "Drempelnr": 1, "Hoogte": -1.89999998, "Breedte": 6.5, "Afv_coeff": 0, "Stroomrcht": 1}}, {"type": "Feature", "id": 36, "geometry": {"type": "Point", "coordinates": [103328.848, 460347.746]}, "properties": {"OBJECTID": 36, "Vorm": "rechthoek", "Datum": "20180409", "Van_knpnr": "A11496", "Naar_knpnr": "A11496C", "Drempelnr": 1, "Hoogte": -2.0999999, "Breedte": 1.5, "Afv_coeff": 0, "Stroomrcht": 0}}, {"type": "Feature", "id": 37, "geometry": {"type": "Point", "coordinates": [103147.193, 460157.573]}, "properties": {"OBJECTID": 37, "Vorm": "rechthoek", "Datum": "20180409", "Van_knpnr": "A11567", "Naar_knpnr": "A11567C", "Drempelnr": 1, "Hoogte": -2.0999999, "Breedte": 1.5, "Afv_coeff": 0, "Stroomrcht": 0}}, {"type": "Feature", "id": 38, "geometry": {"type": "Point", "coordinates": [103932.64, 458834.716]}, "properties": {"OBJECTID": 38, "Vorm": "rechthoek", "Datum": "20180409", "Van_knpnr": "A19743", "Naar_knpnr": "A19743C", "Drempelnr": 1, "Hoogte": -2.0999999, "Breedte": 0.800000012, "Afv_coeff": 0, "Stroomrcht": 0}}, {"type": "Feature", "id": 39, "geometry": {"type": "Point", "coordinates": [100100.602, 456457.337]}, "properties": {"OBJECTID": 39, "Vorm": "rechthoek", "Datum": "20160720", "Van_knpnr": "ZR0006", "Naar_knpnr": "", "Drempelnr": 1, "Hoogte": 0, "Breedte": 0, "Afv_coeff": 0, "Stroomrcht": 1}}, {"type": "Feature", "id": 40, "geometry": {"type": "Point", "coordinates": [99421.216, 456824.501]}, "properties": {"OBJECTID": 40, "Vorm": "rechthoek", "Datum": "20160720", "Van_knpnr": "Z0010", "Naar_knpnr": "", "Drempelnr": 1, "Hoogte": 0, "Breedte": 0, "Afv_coeff": 0, "Stroomrcht": 1}}, {"type": "Feature", "id": 41, "geometry": {"type": "Point", "coordinates": [99944.94, 456814.433]}, "properties": {"OBJECTID": 41, "Vorm": "rechthoek", "Datum": "20160720", "Van_knpnr": "Z0140A", "Naar_knpnr": "", "Drempelnr": 1, "Hoogte": 0, "Breedte": 0, "Afv_coeff": 0, "Stroomrcht": 1}}, {"type": "Feature", "id": 42, "geometry": {"type": "Point", "coordinates": [100382.275, 456591.075]}, "properties": {"OBJECTID": 42, "Vorm": "rechthoek", "Datum": "20160728", "Van_knpnr": "Z0500", "Naar_knpnr": "Z0500U", "Drempelnr": 1, "Hoogte": -4.80000019, "Breedte": 1.32000005, "Afv_coeff": 0, "Stroomrcht": 1}}, {"type": "Feature", "id": 43, "geometry": {"type": "Point", "coordinates": [104162.675, 460743.728]}, "properties": {"OBJECTID": 43, "Vorm": "rechthoek", "Datum": "20160728", "Van_knpnr": "A4726", "Naar_knpnr": "F08787U", "Drempelnr": 1, "Hoogte": -1.64999998, "Breedte": 1.32000005, "Afv_coeff": 0, "Stroomrcht": 1}}, {"type": "Feature", "id": 44, "geometry": {"type": "Point", "coordinates": [106717.201, 462626.695]}, "properties": {"OBJECTID": 44, "Vorm": "rechthoek", "Datum": "20160720", "Van_knpnr": "A4889", "Naar_knpnr": "", "Drempelnr": 1, "Hoogte": 0, "Breedte": 0, "Afv_coeff": 0, "Stroomrcht": 1}}, {"type": "Feature", "id": 45, "geometry": {"type": "Point", "coordinates": [104291.21, 453155.42]}, "properties": {"OBJECTID": 45, "Vorm": "rechthoek", "Datum": "20181212", "Van_knpnr": "BK2533", "Naar_knpnr": "BK2533C", "Drempelnr": 1, "Hoogte": -5.98999977, "Breedte": 1, "Afv_coeff": 0, "Stroomrcht": 0}}, {"type": "Feature", "id": 46, "geometry": {"type": "Point", "coordinates": [104893.47, 454616.7]}, "properties": {"OBJECTID": 46, "Vorm": "rechthoek", "Datum": "20181212", "Van_knpnr": "BK3089", "Naar_knpnr": "BK3089C", "Drempelnr": 1, "Hoogte": -2.27999997, "Breedte": 0.600000024, "Afv_coeff": 0, "Stroomrcht": 0}}, {"type": "Feature", "id": 47, "geometry": {"type": "Point", "coordinates": [105188.86, 454773.736]}, "properties": {"OBJECTID": 47, "Vorm": "rechthoek", "Datum": "20170816", "Van_knpnr": "BK3136", "Naar_knpnr": "BK3136O", "Drempelnr": 1, "Hoogte": -2.8499999, "Breedte": 1, "Afv_coeff": 1.10000002, "Stroomrcht": 0}}, {"type": "Feature", "id": 48, "geometry": {"type": "Point", "coordinates": [103256.683, 461132.433]}, "properties": {"OBJECTID": 48, "Vorm": "rechthoek", "Datum": "20180117", "Van_knpnr": "A28879", "Naar_knpnr": "A28879A", "Drempelnr": 1, "Hoogte": -1.46000004, "Breedte": 0.730000019, "Afv_coeff": 0, "Stroomrcht": 0}}, {"type": "Feature", "id": 49, "geometry": {"type": "Point", "coordinates": [105843.336, 461003.477]}, "properties": {"OBJECTID": 49, "Vorm": "rechthoek", "Datum": "20180404", "Van_knpnr": "A21575", "Naar_knpnr": "A21575C", "Drempelnr": 1, "Hoogte": -1.70000005, "Breedte": 6.69999981, "Afv_coeff": 0, "Stroomrcht": 0}}, {"type": "Feature", "id": 50, "geometry": {"type": "Point", "coordinates": [104955.074, 460542.717]}, "properties": {"OBJECTID": 50, "Vorm": "rechthoek", "Datum": "20180403", "Van_knpnr": "A17811", "Naar_knpnr": "A17811C", "Drempelnr": 1, "Hoogte": -1.70000005, "Breedte": 7.19999981, "Afv_coeff": 0, "Stroomrcht": 0}}, {"type": "Feature", "id": 51, "geometry": {"type": "Point", "coordinates": [104597.086, 461888.486]}, "properties": {"OBJECTID": 51, "Vorm": "rechthoek", "Datum": "20160720", "Van_knpnr": "A1375", "Naar_knpnr": "", "Drempelnr": 1, "Hoogte": 0, "Breedte": 0, "Afv_coeff": 0, "Stroomrcht": 1}}, {"type": "Feature", "id": 52, "geometry": {"type": "Point", "coordinates": [109549.571, 457676.914]}, "properties": {"OBJECTID": 52, "Vorm": "rechthoek", "Datum": "20160720", "Van_knpnr": "ZM0001", "Naar_knpnr": "", "Drempelnr": 1, "Hoogte": 0, "Breedte": 0, "Afv_coeff": 0, "Stroomrcht": 1}}, {"type": "Feature", "id": 53, "geometry": {"type": "Point", "coordinates": [104914.48, 454108.99]}, "properties": {"OBJECTID": 53, "Vorm": "rechthoek", "Datum": "20160720", "Van_knpnr": "BK1657", "Naar_knpnr": "", "Drempelnr": 1, "Hoogte": 0, "Breedte": 0, "Afv_coeff": 0, "Stroomrcht": 1}}, {"type": "Feature", "id": 54, "geometry": {"type": "Point", "coordinates": [103978.877, 454357.508]}, "properties": {"OBJECTID": 54, "Vorm": "rechthoek", "Datum": "20181212", "Van_knpnr": "BK1804", "Naar_knpnr": "BK1804C", "Drempelnr": 1, "Hoogte": -2.29999995, "Breedte": 0.600000024, "Afv_coeff": 0, "Stroomrcht": 0}}, {"type": "Feature", "id": 55, "geometry": {"type": "Point", "coordinates": [106103.667, 461490.265]}, "properties": {"OBJECTID": 55, "Vorm": "rechthoek", "Datum": "20180409", "Van_knpnr": "A11850", "Naar_knpnr": "A11850C", "Drempelnr": 1, "Hoogte": -1.79999995, "Breedte": 0.800000012, "Afv_coeff": 0, "Stroomrcht": 0}}, {"type": "Feature", "id": 56, "geometry": {"type": "Point", "coordinates": [99845.184, 456459.55]}, "properties": {"OBJECTID": 56, "Vorm": "rechthoek", "Datum": "20191218", "Van_knpnr": "Z2180", "Naar_knpnr": "ZG2180", "Drempelnr": 1, "Hoogte": -5.44999981, "Breedte": 5, "Afv_coeff": 0, "Stroomrcht": 0}}, {"type": "Feature", "id": 57, "geometry": {"type": "Point", "coordinates": [105574.194, 454232.334]}, "properties": {"OBJECTID": 57, "Vorm": "rechthoek", "Datum": "20181212", "Van_knpnr": "BK9952A", "Naar_knpnr": "BK9952AC", "Drempelnr": 1, "Hoogte": -2.06999993, "Breedte": 0.99000001, "Afv_coeff": 0, "Stroomrcht": 0}}, {"type": "Feature", "id": 58, "geometry": {"type": "Point", "coordinates": [97316.64, 454439.754]}, "properties": {"OBJECTID": 58, "Vorm": "rechthoek", "Datum": "20160728", "Van_knpnr": "B3020", "Naar_knpnr": "B0970", "Drempelnr": 1, "Hoogte": -5.1500001, "Breedte": 1.22000003, "Afv_coeff": 0, "Stroomrcht": 1}}, {"type": "Feature", "id": 59, "geometry": {"type": "Point", "coordinates": [96881.687, 454267.71]}, "properties": {"OBJECTID": 59, "Vorm": "rechthoek", "Datum": "20160804", "Van_knpnr": "B5022", "Naar_knpnr": "B5048U", "Drempelnr": 1, "Hoogte": -5.03999996, "Breedte": 1.5, "Afv_coeff": 0, "Stroomrcht": 1}}, {"type": "Feature", "id": 60, "geometry": {"type": "Point", "coordinates": [105836.196, 462832.512]}, "properties": {"OBJECTID": 60, "Vorm": "rechthoek", "Datum": "20160720", "Van_knpnr": "A5443", "Naar_knpnr": "", "Drempelnr": 1, "Hoogte": 0, "Breedte": 0, "Afv_coeff": 0, "Stroomrcht": 1}}, {"type": "Feature", "id": 61, "geometry": {"type": "Point", "coordinates": [104561.99, 462131.57]}, "properties": {"OBJECTID": 61, "Vorm": "rechthoek", "Datum": "20180409", "Van_knpnr": "A19321", "Naar_knpnr": "A19321C", "Drempelnr": 1, "Hoogte": -1.82000005, "Breedte": 1.5, "Afv_coeff": 0, "Stroomrcht": 0}}, {"type": "Feature", "id": 62, "geometry": {"type": "Point", "coordinates": [109684.274, 457741.887]}, "properties": {"OBJECTID": 62, "Vorm": "rechthoek", "Datum": "20191205", "Van_knpnr": "ZM0004", "Naar_knpnr": "ZM0004C", "Drempelnr": 1, "Hoogte": -0.970000029, "Breedte": 1.99000001, "Afv_coeff": 0, "Stroomrcht": 0}}, {"type": "Feature", "id": 63, "geometry": {"type": "Point", "coordinates": [109725.02, 457655.84]}, "properties": {"OBJECTID": 63, "Vorm": "rechthoek", "Datum": "20180409", "Van_knpnr": "ZM0005", "Naar_knpnr": "ZM0005C", "Drempelnr": 1, "Hoogte": -0.75, "Breedte": 2, "Afv_coeff": 0, "Stroomrcht": 0}}, {"type": "Feature", "id": 64, "geometry": {"type": "Point", "coordinates": [100433.963, 459930.457]}, "properties": {"OBJECTID": 64, "Vorm": "rechthoek", "Datum": "20190430", "Van_knpnr": "R3052", "Naar_knpnr": "R3052C", "Drempelnr": 1, "Hoogte": -1.88, "Breedte": 0.159999996, "Afv_coeff": 0, "Stroomrcht": 0}}, {"type": "Feature", "id": 65, "geometry": {"type": "Point", "coordinates": [101303.829, 460757.235]}, "properties": {"OBJECTID": 65, "Vorm": "rechthoek", "Datum": "20160803", "Van_knpnr": "BBB_40A", "Naar_knpnr": "", "Drempelnr": 1, "Hoogte": -1.29999995, "Breedte": 7, "Afv_coeff": 0, "Stroomrcht": 1}}, {"type": "Feature", "id": 66, "geometry": {"type": "Point", "coordinates": [103150.06, 461098.48]}, "properties": {"OBJECTID": 66, "Vorm": "rechthoek", "Datum": "20180404", "Van_knpnr": "A11646", "Naar_knpnr": "F09359U", "Drempelnr": 1, "Hoogte": -1.60000002, "Breedte": 1.29999995, "Afv_coeff": 0, "Stroomrcht": 0}}, {"type": "Feature", "id": 67, "geometry": {"type": "Point", "coordinates": [104876.685, 462314.192]}, "properties": {"OBJECTID": 67, "Vorm": "rechthoek", "Datum": "20180409", "Van_knpnr": "A8024", "Naar_knpnr": "A8024C", "Drempelnr": 1, "Hoogte": -2.02999997, "Breedte": 1.22000003, "Afv_coeff": 0, "Stroomrcht": 0}}, {"type": "Feature", "id": 68, "geometry": {"type": "Point", "coordinates": [105420.479, 462177.821]}, "properties": {"OBJECTID": 68, "Vorm": "rechthoek", "Datum": "20180409", "Van_knpnr": "A8047", "Naar_knpnr": "A8047C", "Drempelnr": 1, "Hoogte": -2.02999997, "Breedte": 1.22000003, "Afv_coeff": 0, "Stroomrcht": 0}}, {"type": "Feature", "id": 69, "geometry": {"type": "Point", "coordinates": [106124.08, 461917.91]}, "properties": {"OBJECTID": 69, "Vorm": "rechthoek", "Datum": "20180409", "Van_knpnr": "A8446", "Naar_knpnr": "A8046C", "Drempelnr": 1, "Hoogte": -1.77999997, "Breedte": 1.22000003, "Afv_coeff": 0, "Stroomrcht": 0}}, {"type": "Feature", "id": 70, "geometry": {"type": "Point", "coordinates": [105086.956, 459846.971]}, "properties": {"OBJECTID": 70, "Vorm": "rechthoek", "Datum": "20180404", "Van_knpnr": "A17845", "Naar_knpnr": "A17845C", "Drempelnr": 1, "Hoogte": -2.1500001, "Breedte": 5.30000019, "Afv_coeff": 0, "Stroomrcht": 0}}, {"type": "Feature", "id": 71, "geometry": {"type": "Point", "coordinates": [105276.153, 459483.395]}, "properties": {"OBJECTID": 71, "Vorm": "rechthoek", "Datum": "20180403", "Van_knpnr": "A1323C", "Naar_knpnr": "A1323", "Drempelnr": 1, "Hoogte": -1.82000005, "Breedte": 2.01999998, "Afv_coeff": 0, "Stroomrcht": 0}}, {"type": "Feature", "id": 72, "geometry": {"type": "Point", "coordinates": [100675.39, 459982.315]}, "properties": {"OBJECTID": 72, "Vorm": "rechthoek", "Datum": "20160804", "Van_knpnr": "R5005", "Naar_knpnr": "", "Drempelnr": 1, "Hoogte": -1.82000005, "Breedte": 1, "Afv_coeff": 0, "Stroomrcht": 1}}, {"type": "Feature", "id": 73, "geometry": {"type": "Point", "coordinates": [105090.675, 459808.973]}, "properties": {"OBJECTID": 73, "Vorm": "rechthoek", "Datum": "20180404", "Van_knpnr": "A17840", "Naar_knpnr": "A17840C", "Drempelnr": 1, "Hoogte": -2, "Breedte": 5.30000019, "Afv_coeff": 0, "Stroomrcht": 0}}, {"type": "Feature", "id": 74, "geometry": {"type": "Point", "coordinates": [104319.248, 460135.522]}, "properties": {"OBJECTID": 74, "Vorm": "rechthoek", "Datum": "20160720", "Van_knpnr": "AW0324", "Naar_knpnr": "", "Drempelnr": 1, "Hoogte": 0, "Breedte": 0, "Afv_coeff": 0, "Stroomrcht": 1}}, {"type": "Feature", "id": 75, "geometry": {"type": "Point", "coordinates": [104799.859, 461450.524]}, "properties": {"OBJECTID": 75, "Vorm": "rechthoek", "Datum": "20160720", "Van_knpnr": "A21360", "Naar_knpnr": "", "Drempelnr": 1, "Hoogte": 0, "Breedte": 0, "Afv_coeff": 0, "Stroomrcht": 1}}, {"type": "Feature", "id": 76, "geometry": {"type": "Point", "coordinates": [104794.746, 461362.858]}, "properties": {"OBJECTID": 76, "Vorm": "rechthoek", "Datum": "20160720", "Van_knpnr": "A21361", "Naar_knpnr": "", "Drempelnr": 1, "Hoogte": 0, "Breedte": 0, "Afv_coeff": 0, "Stroomrcht": 1}}, {"type": "Feature", "id": 77, "geometry": {"type": "Point", "coordinates": [104787.886, 461235.714]}, "properties": {"OBJECTID": 77, "Vorm": "rechthoek", "Datum": "20160720", "Van_knpnr": "A21363", "Naar_knpnr": "", "Drempelnr": 1, "Hoogte": 0, "Breedte": 0, "Afv_coeff": 0, "Stroomrcht": 1}}, {"type": "Feature", "id": 78, "geometry": {"type": "Point", "coordinates": [104766.65, 461102.14]}, "properties": {"OBJECTID": 78, "Vorm": "rechthoek", "Datum": "20160720", "Van_knpnr": "A21366", "Naar_knpnr": "", "Drempelnr": 1, "Hoogte": 0, "Breedte": 0, "Afv_coeff": 0, "Stroomrcht": 1}}, {"type": "Feature", "id": 79, "geometry": {"type": "Point", "coordinates": [100722.95, 456577.81]}, "properties": {"OBJECTID": 79, "Vorm": "rechthoek", "Datum": "20160728", "Van_knpnr": "D1040", "Naar_knpnr": "D1040U", "Drempelnr": 1, "Hoogte": -1.94000006, "Breedte": 1.20000005, "Afv_coeff": 0, "Stroomrcht": 1}}, {"type": "Feature", "id": 80, "geometry": {"type": "Point", "coordinates": [104868.554, 458977.707]}, "properties": {"OBJECTID": 80, "Vorm": "rechthoek", "Datum": "20180409", "Van_knpnr": "AA10853", "Naar_knpnr": "AA10853C", "Drempelnr": 1, "Hoogte": -2.0999999, "Breedte": 1.5, "Afv_coeff": 0, "Stroomrcht": 0}}, {"type": "Feature", "id": 81, "geometry": {"type": "Point", "coordinates": [102961.846, 460679.514]}, "properties": {"OBJECTID": 81, "Vorm": "rechthoek", "Datum": "20180404", "Van_knpnr": "A11145", "Naar_knpnr": "A11145C", "Drempelnr": 1, "Hoogte": -1.60000002, "Breedte": 1, "Afv_coeff": 0, "Stroomrcht": 0}}, {"type": "Feature", "id": 82, "geometry": {"type": "Point", "coordinates": [103302.463, 460703.476]}, "properties": {"OBJECTID": 82, "Vorm": "rechthoek", "Datum": "20180404", "Van_knpnr": "A11170", "Naar_knpnr": "A11170C", "Drempelnr": 1, "Hoogte": -1.60000002, "Breedte": 1, "Afv_coeff": 0, "Stroomrcht": 1}}, {"type": "Feature", "id": 83, "geometry": {"type": "Point", "coordinates": [100818.128, 460201.602]}, "properties": {"OBJECTID": 83, "Vorm": "rechthoek", "Datum": "20160803", "Van_knpnr": "R6112", "Naar_knpnr": "RG6112", "Drempelnr": 1, "Hoogte": -1.95000005, "Breedte": 6.5, "Afv_coeff": 0, "Stroomrcht": 1}}, {"type": "Feature", "id": 84, "geometry": {"type": "Point", "coordinates": [104921.757, 459803.406]}, "properties": {"OBJECTID": 84, "Vorm": "rechthoek", "Datum": "20180409", "Van_knpnr": "A11314", "Naar_knpnr": "A11314C", "Drempelnr": 1, "Hoogte": -1.60000002, "Breedte": 1.5, "Afv_coeff": 0, "Stroomrcht": 0}}, {"type": "Feature", "id": 85, "geometry": {"type": "Point", "coordinates": [100462.069, 456936.656]}, "properties": {"OBJECTID": 85, "Vorm": "rechthoek", "Datum": "20160728", "Van_knpnr": "D1340", "Naar_knpnr": "D1341U", "Drempelnr": 1, "Hoogte": -1.89999998, "Breedte": 0.99000001, "Afv_coeff": 0, "Stroomrcht": 1}}, {"type": "Feature", "id": 86, "geometry": {"type": "Point", "coordinates": [100670.677, 457150.171]}, "properties": {"OBJECTID": 86, "Vorm": "rechthoek", "Datum": "20160728", "Van_knpnr": "D1750", "Naar_knpnr": "D1750U", "Drempelnr": 1, "Hoogte": -5.88999987, "Breedte": 1, "Afv_coeff": 0, "Stroomrcht": 1}}, {"type": "Feature", "id": 87, "geometry": {"type": "Point", "coordinates": [98016.179, 460790.223]}, "properties": {"OBJECTID": 87, "Vorm": "rechthoek", "Datum": "20160728", "Van_knpnr": "G0080", "Naar_knpnr": "F07415U", "Drempelnr": 1, "Hoogte": -1.07000005, "Breedte": 1, "Afv_coeff": 0, "Stroomrcht": 1}}, {"type": "Feature", "id": 88, "geometry": {"type": "Point", "coordinates": [101598.894, 460708.743]}, "properties": {"OBJECTID": 88, "Vorm": "rechthoek", "Datum": "20160728", "Van_knpnr": "KR7507", "Naar_knpnr": "F09567U", "Drempelnr": 1, "Hoogte": -1.45000005, "Breedte": 1, "Afv_coeff": 0, "Stroomrcht": 1}}, {"type": "Feature", "id": 89, "geometry": {"type": "Point", "coordinates": [105147.068, 460118.113]}, "properties": {"OBJECTID": 89, "Vorm": "rechthoek", "Datum": "20180404", "Van_knpnr": "A1493", "Naar_knpnr": "A1493C", "Drempelnr": 1, "Hoogte": -1.75999999, "Breedte": 0.620000005, "Afv_coeff": 0, "Stroomrcht": 0}}, {"type": "Feature", "id": 90, "geometry": {"type": "Point", "coordinates": [106523.502, 455129.285]}, "properties": {"OBJECTID": 90, "Vorm": "rechthoek", "Datum": "20181212", "Van_knpnr": "BK4264A", "Naar_knpnr": "BK4264C", "Drempelnr": 1, "Hoogte": -3.23000002, "Breedte": 0.800000012, "Afv_coeff": 1.10000002, "Stroomrcht": 0}}, {"type": "Feature", "id": 91, "geometry": {"type": "Point", "coordinates": [105012.404, 461819.259]}, "properties": {"OBJECTID": 91, "Vorm": "rechthoek", "Datum": "20180409", "Van_knpnr": "A16664", "Naar_knpnr": "A16664C", "Drempelnr": 1, "Hoogte": -2.26999998, "Breedte": 0.319999993, "Afv_coeff": 0, "Stroomrcht": 0}}, {"type": "Feature", "id": 92, "geometry": {"type": "Point", "coordinates": [106045.112, 460128.512]}, "properties": {"OBJECTID": 92, "Vorm": "rechthoek", "Datum": "20180404", "Van_knpnr": "A17858", "Naar_knpnr": "A17858C", "Drempelnr": 1, "Hoogte": -1.39999998, "Breedte": 7, "Afv_coeff": 0, "Stroomrcht": 0}}, {"type": "Feature", "id": 93, "geometry": {"type": "Point", "coordinates": [105056.259, 461434.349]}, "properties": {"OBJECTID": 93, "Vorm": "rechthoek", "Datum": "20160720", "Van_knpnr": "A529", "Naar_knpnr": "", "Drempelnr": 1, "Hoogte": 0, "Breedte": 0, "Afv_coeff": 0, "Stroomrcht": 1}}, {"type": "Feature", "id": 94, "geometry": {"type": "Point", "coordinates": [104415.377, 461110.401]}, "properties": {"OBJECTID": 94, "Vorm": "rechthoek", "Datum": "20191218", "Van_knpnr": "A25787", "Naar_knpnr": "A25787C", "Drempelnr": 1, "Hoogte": -1.40999997, "Breedte": 0.800000012, "Afv_coeff": 0, "Stroomrcht": 0}}, {"type": "Feature", "id": 95, "geometry": {"type": "Point", "coordinates": [104887.98, 458726.611]}, "properties": {"OBJECTID": 95, "Vorm": "rechthoek", "Datum": "20180409", "Van_knpnr": "A11063", "Naar_knpnr": "A11063C", "Drempelnr": 1, "Hoogte": -2.0999999, "Breedte": 1.5, "Afv_coeff": 0, "Stroomrcht": 0}}, {"type": "Feature", "id": 96, "geometry": {"type": "Point", "coordinates": [103498.15, 461401.02]}, "properties": {"OBJECTID": 96, "Vorm": "rechthoek", "Datum": "20180404", "Van_knpnr": "A12726", "Naar_knpnr": "", "Drempelnr": 1, "Hoogte": -1.66999996, "Breedte": 0.699999988, "Afv_coeff": 0, "Stroomrcht": 0}}, {"type": "Feature", "id": 97, "geometry": {"type": "Point", "coordinates": [105197.896, 459612.749]}, "properties": {"OBJECTID": 97, "Vorm": "rechthoek", "Datum": "20160720", "Van_knpnr": "A1315", "Naar_knpnr": "", "Drempelnr": 1, "Hoogte": 0, "Breedte": 0, "Afv_coeff": 0, "Stroomrcht": 1}}, {"type": "Feature", "id": 98, "geometry": {"type": "Point", "coordinates": [109726.4, 457804.91]}, "properties": {"OBJECTID": 98, "Vorm": "rechthoek", "Datum": "20160720", "Van_knpnr": "ZM0002", "Naar_knpnr": "", "Drempelnr": 1, "Hoogte": 0, "Breedte": 0, "Afv_coeff": 0, "Stroomrcht": 1}}, {"type": "Feature", "id": 99, "geometry": {"type": "Point", "coordinates": [101099.407, 460299.225]}, "properties": {"OBJECTID": 99, "Vorm": "rechthoek", "Datum": "20160720", "Van_knpnr": "R6055A", "Naar_knpnr": "", "Drempelnr": 1, "Hoogte": 0, "Breedte": 0, "Afv_coeff": 0, "Stroomrcht": 1}}, {"type": "Feature", "id": 100, "geometry": {"type": "Point", "coordinates": [96697.22, 454359.867]}, "properties": {"OBJECTID": 100, "Vorm": "rechthoek", "Datum": "20180410", "Van_knpnr": "B3075", "Naar_knpnr": "B3075C", "Drempelnr": 1, "Hoogte": -5.03000021, "Breedte": 1, "Afv_coeff": 0, "Stroomrcht": 0}}, {"type": "Feature", "id": 101, "geometry": {"type": "Point", "coordinates": [104158.974, 463638.462]}, "properties": {"OBJECTID": 101, "Vorm": "rechthoek", "Datum": "20160720", "Van_knpnr": "A7270", "Naar_knpnr": "", "Drempelnr": 1, "Hoogte": 0, "Breedte": 0, "Afv_coeff": 0, "Stroomrcht": 1}}, {"type": "Feature", "id": 102, "geometry": {"type": "Point", "coordinates": [104087.206, 463623.761]}, "properties": {"OBJECTID": 102, "Vorm": "rechthoek", "Datum": "20160720", "Van_knpnr": "A7271", "Naar_knpnr": "", "Drempelnr": 1, "Hoogte": 0, "Breedte": 0, "Afv_coeff": 0, "Stroomrcht": 1}}, {"type": "Feature", "id": 103, "geometry": {"type": "Point", "coordinates": [109832.782, 457905.075]}, "properties": {"OBJECTID": 103, "Vorm": "rechthoek", "Datum": "20180409", "Van_knpnr": "ZM0008", "Naar_knpnr": "ZM0008C", "Drempelnr": 1, "Hoogte": -0.939999998, "Breedte": 1.25, "Afv_coeff": 0, "Stroomrcht": 0}}, {"type": "Feature", "id": 104, "geometry": {"type": "Point", "coordinates": [104821.301, 459329.453]}, "properties": {"OBJECTID": 104, "Vorm": "rechthoek", "Datum": "20160720", "Van_knpnr": "AW0870", "Naar_knpnr": "", "Drempelnr": 1, "Hoogte": 0, "Breedte": 0, "Afv_coeff": 0, "Stroomrcht": 1}}, {"type": "Feature", "id": 105, "geometry": {"type": "Point", "coordinates": [105357.034, 459105.369]}, "properties": {"OBJECTID": 105, "Vorm": "rechthoek", "Datum": "20180409", "Van_knpnr": "A11579", "Naar_knpnr": "A11579C", "Drempelnr": 1, "Hoogte": -1.5, "Breedte": 1, "Afv_coeff": 0, "Stroomrcht": 0}}, {"type": "Feature", "id": 106, "geometry": {"type": "Point", "coordinates": [97179.44, 454346.534]}, "properties": {"OBJECTID": 106, "Vorm": "rechthoek", "Datum": "20160804", "Van_knpnr": "BBB_10", "Naar_knpnr": "BBB_10C", "Drempelnr": 1, "Hoogte": -5.5, "Breedte": 5, "Afv_coeff": 0, "Stroomrcht": 1}}, {"type": "Feature", "id": 107, "geometry": {"type": "Point", "coordinates": [100707.118, 456967.03]}, "properties": {"OBJECTID": 107, "Vorm": "rechthoek", "Datum": "20160728", "Van_knpnr": "F07794", "Naar_knpnr": "", "Drempelnr": 1, "Hoogte": -1.87, "Breedte": 0.860000014, "Afv_coeff": 0, "Stroomrcht": 1}}, {"type": "Feature", "id": 108, "geometry": {"type": "Point", "coordinates": [100893.298, 456973.318]}, "properties": {"OBJECTID": 108, "Vorm": "rechthoek", "Datum": "20160728", "Van_knpnr": "D0600", "Naar_knpnr": "D0601", "Drempelnr": 1, "Hoogte": -1.82000005, "Breedte": 1.05999994, "Afv_coeff": 0, "Stroomrcht": 1}}, {"type": "Feature", "id": 109, "geometry": {"type": "Point", "coordinates": [100878.461, 456646.738]}, "properties": {"OBJECTID": 109, "Vorm": "rechthoek", "Datum": "20160728", "Van_knpnr": "D0700", "Naar_knpnr": "D0700AU", "Drempelnr": 1, "Hoogte": -1.75, "Breedte": 1.01999998, "Afv_coeff": 0, "Stroomrcht": 1}}, {"type": "Feature", "id": 110, "geometry": {"type": "Point", "coordinates": [105161.062, 459655.841]}, "properties": {"OBJECTID": 110, "Vorm": "rechthoek", "Datum": "20180403", "Van_knpnr": "A1123", "Naar_knpnr": "A1123C", "Drempelnr": 1, "Hoogte": -1.39999998, "Breedte": 2.5, "Afv_coeff": 0, "Stroomrcht": 1}}, {"type": "Feature", "id": 111, "geometry": {"type": "Point", "coordinates": [104057.383, 453179.086]}, "properties": {"OBJECTID": 111, "Vorm": "rechthoek", "Datum": "20190521", "Van_knpnr": "BK1366", "Naar_knpnr": "BK1366C", "Drempelnr": 1, "Hoogte": -5.94000006, "Breedte": 0.800000012, "Afv_coeff": 0, "Stroomrcht": 0}}, {"type": "Feature", "id": 112, "geometry": {"type": "Point", "coordinates": [103686.912, 460166.323]}, "properties": {"OBJECTID": 112, "Vorm": "rechthoek", "Datum": "20180409", "Van_knpnr": "A7796", "Naar_knpnr": "A7796C", "Drempelnr": 1, "Hoogte": -1.5, "Breedte": 1, "Afv_coeff": 0, "Stroomrcht": 0}}, {"type": "Feature", "id": 113, "geometry": {"type": "Point", "coordinates": [105185.414, 458495.358]}, "properties": {"OBJECTID": 113, "Vorm": "rechthoek", "Datum": "20180409", "Van_knpnr": "A11905", "Naar_knpnr": "A11905C", "Drempelnr": 1, "Hoogte": -1.60000002, "Breedte": 1.5, "Afv_coeff": 0, "Stroomrcht": 0}}, {"type": "Feature", "id": 114, "geometry": {"type": "Point", "coordinates": [105616.784, 458653.188]}, "properties": {"OBJECTID": 114, "Vorm": "rechthoek", "Datum": "20180409", "Van_knpnr": "A11915", "Naar_knpnr": "A11915C", "Drempelnr": 1, "Hoogte": -1.60000002, "Breedte": 1.5, "Afv_coeff": 0, "Stroomrcht": 0}}, {"type": "Feature", "id": 115, "geometry": {"type": "Point", "coordinates": [101258.482, 461058.387]}, "properties": {"OBJECTID": 115, "Vorm": "rechthoek", "Datum": "20190617", "Van_knpnr": "K0431", "Naar_knpnr": "K0431C", "Drempelnr": 1, "Hoogte": -1.95000005, "Breedte": 1.20000005, "Afv_coeff": 0, "Stroomrcht": 0}}, {"type": "Feature", "id": 116, "geometry": {"type": "Point", "coordinates": [104872.71, 460443.82]}, "properties": {"OBJECTID": 116, "Vorm": "rechthoek", "Datum": "20180404", "Van_knpnr": "A11885", "Naar_knpnr": "A11885C", "Drempelnr": 1, "Hoogte": -1.35000002, "Breedte": 1.60000002, "Afv_coeff": 0, "Stroomrcht": 0}}, {"type": "Feature", "id": 117, "geometry": {"type": "Point", "coordinates": [106044.923, 460263.89]}, "properties": {"OBJECTID": 117, "Vorm": "rechthoek", "Datum": "20180404", "Van_knpnr": "A19566", "Naar_knpnr": "A19566C", "Drempelnr": 1, "Hoogte": -1.10000002, "Breedte": 1, "Afv_coeff": 0, "Stroomrcht": 0}}, {"type": "Feature", "id": 118, "geometry": {"type": "Point", "coordinates": [105816.3, 459840.54]}, "properties": {"OBJECTID": 118, "Vorm": "rechthoek", "Datum": "20180409", "Van_knpnr": "A13736", "Naar_knpnr": "A13736C", "Drempelnr": 1, "Hoogte": -1.38, "Breedte": 0.699999988, "Afv_coeff": 0, "Stroomrcht": 0}}, {"type": "Feature", "id": 119, "geometry": {"type": "Point", "coordinates": [104158.807, 461786.48]}, "properties": {"OBJECTID": 119, "Vorm": "rechthoek", "Datum": "20180409", "Van_knpnr": "A12745", "Naar_knpnr": "A12745C", "Drempelnr": 1, "Hoogte": -1, "Breedte": 1, "Afv_coeff": 0, "Stroomrcht": 0}}, {"type": "Feature", "id": 120, "geometry": {"type": "Point", "coordinates": [105365.515, 459363.223]}, "properties": {"OBJECTID": 120, "Vorm": "rechthoek", "Datum": "20180619", "Van_knpnr": "A21061", "Naar_knpnr": "A21061C", "Drempelnr": 1, "Hoogte": -1.89999998, "Breedte": 1.20000005, "Afv_coeff": 0, "Stroomrcht": 0}}, {"type": "Feature", "id": 121, "geometry": {"type": "Point", "coordinates": [106747.481, 461976.655]}, "properties": {"OBJECTID": 121, "Vorm": "rechthoek", "Datum": "20180409", "Van_knpnr": "A8469", "Naar_knpnr": "A8469C", "Drempelnr": 1, "Hoogte": -1.84000003, "Breedte": 1.21000004, "Afv_coeff": 0, "Stroomrcht": 0}}, {"type": "Feature", "id": 122, "geometry": {"type": "Point", "coordinates": [105961.657, 460703.63]}, "properties": {"OBJECTID": 122, "Vorm": "rechthoek", "Datum": "20180404", "Van_knpnr": "A85", "Naar_knpnr": "A85C", "Drempelnr": 1, "Hoogte": -1.39999998, "Breedte": 2, "Afv_coeff": 0, "Stroomrcht": 0}}, {"type": "Feature", "id": 123, "geometry": {"type": "Point", "coordinates": [100534.4, 456716.56]}, "properties": {"OBJECTID": 123, "Vorm": "rechthoek", "Datum": "20160804", "Van_knpnr": "D1240", "Naar_knpnr": "", "Drempelnr": 1, "Hoogte": -1.92999995, "Breedte": 0.600000024, "Afv_coeff": 0, "Stroomrcht": 1}}, {"type": "Feature", "id": 124, "geometry": {"type": "Point", "coordinates": [100774.721, 460443.823]}, "properties": {"OBJECTID": 124, "Vorm": "rechthoek", "Datum": "20180808", "Van_knpnr": "R4002", "Naar_knpnr": "R4002C", "Drempelnr": 1, "Hoogte": -1.76999998, "Breedte": 1.5, "Afv_coeff": 0, "Stroomrcht": 0}}, {"type": "Feature", "id": 125, "geometry": {"type": "Point", "coordinates": [100758.736, 460454.275]}, "properties": {"OBJECTID": 125, "Vorm": "rechthoek", "Datum": "20190430", "Van_knpnr": "R4004", "Naar_knpnr": "R4004C", "Drempelnr": 1, "Hoogte": -1.89999998, "Breedte": 1.40999997, "Afv_coeff": 0, "Stroomrcht": 1}}, {"type": "Feature", "id": 126, "geometry": {"type": "Point", "coordinates": [101051.947, 460974.016]}, "properties": {"OBJECTID": 126, "Vorm": "rechthoek", "Datum": "20160804", "Van_knpnr": "K0721", "Naar_knpnr": "KW0014U", "Drempelnr": 1, "Hoogte": -1.38999999, "Breedte": 2, "Afv_coeff": 0, "Stroomrcht": 1}}, {"type": "Feature", "id": 127, "geometry": {"type": "Point", "coordinates": [101608.072, 461165.256]}, "properties": {"OBJECTID": 127, "Vorm": "rechthoek", "Datum": "20160804", "Van_knpnr": "K1311", "Naar_knpnr": "F09565U", "Drempelnr": 1, "Hoogte": -1.84000003, "Breedte": 0.600000024, "Afv_coeff": 0, "Stroomrcht": 1}}, {"type": "Feature", "id": 128, "geometry": {"type": "Point", "coordinates": [103984.423, 460587.94]}, "properties": {"OBJECTID": 128, "Vorm": "rechthoek", "Datum": "20170601", "Van_knpnr": "A708", "Naar_knpnr": "A708C", "Drempelnr": 1, "Hoogte": -1.70000005, "Breedte": 3, "Afv_coeff": 1.10000002, "Stroomrcht": 1}}, {"type": "Feature", "id": 129, "geometry": {"type": "Point", "coordinates": [109670.274, 461287.466]}, "properties": {"OBJECTID": 129, "Vorm": "rechthoek", "Datum": "20180409", "Van_knpnr": "AV0073", "Naar_knpnr": "AV0073C", "Drempelnr": 1, "Hoogte": -4.9000001, "Breedte": 1.5, "Afv_coeff": 0, "Stroomrcht": 0}}, {"type": "Feature", "id": 130, "geometry": {"type": "Point", "coordinates": [103201.84, 460980.6]}, "properties": {"OBJECTID": 130, "Vorm": "rechthoek", "Datum": "20180404", "Van_knpnr": "A11660", "Naar_knpnr": "A11660C", "Drempelnr": 1, "Hoogte": -1.60000002, "Breedte": 1.29999995, "Afv_coeff": 0, "Stroomrcht": 0}}, {"type": "Feature", "id": 131, "geometry": {"type": "Point", "coordinates": [103250.5, 460412.72]}, "properties": {"OBJECTID": 131, "Vorm": "rechthoek", "Datum": "20180404", "Van_knpnr": "A11781", "Naar_knpnr": "A11781C", "Drempelnr": 1, "Hoogte": -1.60000002, "Breedte": 1.25, "Afv_coeff": 0, "Stroomrcht": 0}}, {"type": "Feature", "id": 132, "geometry": {"type": "Point", "coordinates": [104307.56, 460733.81]}, "properties": {"OBJECTID": 132, "Vorm": "rechthoek", "Datum": "20160728", "Van_knpnr": "A924", "Naar_knpnr": "A891", "Drempelnr": 1, "Hoogte": -1.60000002, "Breedte": 3, "Afv_coeff": 0, "Stroomrcht": 1}}, {"type": "Feature", "id": 133, "geometry": {"type": "Point", "coordinates": [106085.319, 461252.505]}, "properties": {"OBJECTID": 133, "Vorm": "rechthoek", "Datum": "20180409", "Van_knpnr": "A11843", "Naar_knpnr": "A11843C", "Drempelnr": 1, "Hoogte": -1.79999995, "Breedte": 0.800000012, "Afv_coeff": 0, "Stroomrcht": 0}}, {"type": "Feature", "id": 134, "geometry": {"type": "Point", "coordinates": [100303.669, 459981.668]}, "properties": {"OBJECTID": 134, "Vorm": "rechthoek", "Datum": "20160728", "Van_knpnr": "R2051", "Naar_knpnr": "F09613U", "Drempelnr": 1, "Hoogte": -1.60000002, "Breedte": 0.200000003, "Afv_coeff": 0, "Stroomrcht": 1}}, {"type": "Feature", "id": 135, "geometry": {"type": "Point", "coordinates": [100072.105, 459845.246]}, "properties": {"OBJECTID": 135, "Vorm": "rechthoek", "Datum": "20160728", "Van_knpnr": "F09614U", "Naar_knpnr": "", "Drempelnr": 1, "Hoogte": -1.79999995, "Breedte": 1.60000002, "Afv_coeff": 0, "Stroomrcht": 1}}, {"type": "Feature", "id": 136, "geometry": {"type": "Point", "coordinates": [100538.111, 460414.708]}, "properties": {"OBJECTID": 136, "Vorm": "rechthoek", "Datum": "20160728", "Van_knpnr": "R3014", "Naar_knpnr": "R3014U", "Drempelnr": 1, "Hoogte": -1.55999994, "Breedte": 1.5, "Afv_coeff": 0, "Stroomrcht": 1}}, {"type": "Feature", "id": 137, "geometry": {"type": "Point", "coordinates": [100372.005, 460349.666]}, "properties": {"OBJECTID": 137, "Vorm": "rechthoek", "Datum": "20160728", "Van_knpnr": "R3023", "Naar_knpnr": "F09568U", "Drempelnr": 1, "Hoogte": -1.71000004, "Breedte": 0.629999995, "Afv_coeff": 0, "Stroomrcht": 1}}, {"type": "Feature", "id": 138, "geometry": {"type": "Point", "coordinates": [105502.005, 458891.249]}, "properties": {"OBJECTID": 138, "Vorm": "rechthoek", "Datum": "20180409", "Van_knpnr": "A11936", "Naar_knpnr": "A11936C", "Drempelnr": 1, "Hoogte": -1.60000002, "Breedte": 1.5, "Afv_coeff": 0, "Stroomrcht": 0}}, {"type": "Feature", "id": 139, "geometry": {"type": "Point", "coordinates": [97208.745, 454304.095]}, "properties": {"OBJECTID": 139, "Vorm": "rechthoek", "Datum": "20160720", "Van_knpnr": "BW0024", "Naar_knpnr": "", "Drempelnr": 1, "Hoogte": 0, "Breedte": 0, "Afv_coeff": 0, "Stroomrcht": 1}}, {"type": "Feature", "id": 140, "geometry": {"type": "Point", "coordinates": [105000.967, 460549.099]}, "properties": {"OBJECTID": 140, "Vorm": "rechthoek", "Datum": "20180403", "Van_knpnr": "A17810", "Naar_knpnr": "A17810C", "Drempelnr": 1, "Hoogte": -1.85000002, "Breedte": 7.19999981, "Afv_coeff": 0, "Stroomrcht": 0}}, {"type": "Feature", "id": 141, "geometry": {"type": "Point", "coordinates": [102901.258, 460024.22]}, "properties": {"OBJECTID": 141, "Vorm": "rechthoek", "Datum": "20180409", "Van_knpnr": "A16311", "Naar_knpnr": "A16311C", "Drempelnr": 1, "Hoogte": -1.5, "Breedte": 1, "Afv_coeff": 0, "Stroomrcht": 0}}, {"type": "Feature", "id": 142, "geometry": {"type": "Point", "coordinates": [103763.096, 461237.787]}, "properties": {"OBJECTID": 142, "Vorm": "rechthoek", "Datum": "20180404", "Van_knpnr": "A1582", "Naar_knpnr": "A1582C", "Drempelnr": 1, "Hoogte": -0.449999988, "Breedte": 1.98000002, "Afv_coeff": 0, "Stroomrcht": 0}}, {"type": "Feature", "id": 143, "geometry": {"type": "Point", "coordinates": [103953.766, 461304.368]}, "properties": {"OBJECTID": 143, "Vorm": "rechthoek", "Datum": "20180404", "Van_knpnr": "A1588", "Naar_knpnr": "A1588C", "Drempelnr": 1, "Hoogte": -0.449999988, "Breedte": 1.98000002, "Afv_coeff": 0, "Stroomrcht": 0}}, {"type": "Feature", "id": 144, "geometry": {"type": "Point", "coordinates": [107315.48, 458500.57]}, "properties": {"OBJECTID": 144, "Vorm": "rechthoek", "Datum": "20180409", "Van_knpnr": "A16059", "Naar_knpnr": "A16059C", "Drempelnr": 1, "Hoogte": -1.85000002, "Breedte": 1, "Afv_coeff": 0, "Stroomrcht": 0}}, {"type": "Feature", "id": 145, "geometry": {"type": "Point", "coordinates": [106295.167, 459108.738]}, "properties": {"OBJECTID": 145, "Vorm": "rechthoek", "Datum": "20191218", "Van_knpnr": "A11411", "Naar_knpnr": "A28735", "Drempelnr": 1, "Hoogte": -0.449999988, "Breedte": 1.29999995, "Afv_coeff": 0, "Stroomrcht": 0}}, {"type": "Feature", "id": 146, "geometry": {"type": "Point", "coordinates": [99697.88, 456643.59]}, "properties": {"OBJECTID": 146, "Vorm": "rechthoek", "Datum": "20160804", "Van_knpnr": "Z1370", "Naar_knpnr": "Z1370U", "Drempelnr": 1, "Hoogte": -4.82999992, "Breedte": 1.5, "Afv_coeff": 0, "Stroomrcht": 1}}, {"type": "Feature", "id": 147, "geometry": {"type": "Point", "coordinates": [105055.968, 455111.489]}, "properties": {"OBJECTID": 147, "Vorm": "rechthoek", "Datum": "20181212", "Van_knpnr": "BK3148", "Naar_knpnr": "BK3148C", "Drempelnr": 1, "Hoogte": -2.18000007, "Breedte": 1, "Afv_coeff": 1.10000002, "Stroomrcht": 0}}, {"type": "Feature", "id": 148, "geometry": {"type": "Point", "coordinates": [104395.744, 455296.223]}, "properties": {"OBJECTID": 148, "Vorm": "rechthoek", "Datum": "20181212", "Van_knpnr": "BK3169", "Naar_knpnr": "BK3169C", "Drempelnr": 1, "Hoogte": -2.38000011, "Breedte": 1, "Afv_coeff": 1.10000002, "Stroomrcht": 0}}, {"type": "Feature", "id": 149, "geometry": {"type": "Point", "coordinates": [105089.728, 454122.506]}, "properties": {"OBJECTID": 149, "Vorm": "rechthoek", "Datum": "20181212", "Van_knpnr": "BK3193", "Naar_knpnr": "BK3193C", "Drempelnr": 1, "Hoogte": -2.53999996, "Breedte": 0.800000012, "Afv_coeff": 0, "Stroomrcht": 0}}, {"type": "Feature", "id": 150, "geometry": {"type": "Point", "coordinates": [105308.77, 454736.7]}, "properties": {"OBJECTID": 150, "Vorm": "rechthoek", "Datum": "20191106", "Van_knpnr": "BK4011", "Naar_knpnr": "BK4011C", "Drempelnr": 1, "Hoogte": -2.1400001, "Breedte": 0.800000012, "Afv_coeff": 1.10000002, "Stroomrcht": 0}}, {"type": "Feature", "id": 151, "geometry": {"type": "Point", "coordinates": [106513.621, 454602.03]}, "properties": {"OBJECTID": 151, "Vorm": "rechthoek", "Datum": "20181212", "Van_knpnr": "BK4216", "Naar_knpnr": "BK4216C", "Drempelnr": 1, "Hoogte": -2.27999997, "Breedte": 1, "Afv_coeff": 1, "Stroomrcht": 0}}, {"type": "Feature", "id": 152, "geometry": {"type": "Point", "coordinates": [106576.13, 454128.01]}, "properties": {"OBJECTID": 152, "Vorm": "rechthoek", "Datum": "20181212", "Van_knpnr": "BK4282", "Naar_knpnr": "BK4282C", "Drempelnr": 1, "Hoogte": -2.0999999, "Breedte": 1, "Afv_coeff": 0, "Stroomrcht": 0}}, {"type": "Feature", "id": 153, "geometry": {"type": "Point", "coordinates": [106018.625, 460124.925]}, "properties": {"OBJECTID": 153, "Vorm": "rechthoek", "Datum": "20180404", "Van_knpnr": "A17857", "Naar_knpnr": "A17857C", "Drempelnr": 1, "Hoogte": -1.70000005, "Breedte": 7, "Afv_coeff": 0, "Stroomrcht": 0}}, {"type": "Feature", "id": 154, "geometry": {"type": "Point", "coordinates": [105855.726, 454679.808]}, "properties": {"OBJECTID": 154, "Vorm": "rechthoek", "Datum": "20181212", "Van_knpnr": "BK4279", "Naar_knpnr": "BK4279C", "Drempelnr": 1, "Hoogte": -1.91999996, "Breedte": 0.600000024, "Afv_coeff": 0, "Stroomrcht": 0}}, {"type": "Feature", "id": 155, "geometry": {"type": "Point", "coordinates": [105224.448, 460991.824]}, "properties": {"OBJECTID": 155, "Vorm": "rechthoek", "Datum": "20190423", "Van_knpnr": "A1568", "Naar_knpnr": "A1568C", "Drempelnr": 1, "Hoogte": -1.41999996, "Breedte": 1, "Afv_coeff": 0, "Stroomrcht": 0}}, {"type": "Feature", "id": 156, "geometry": {"type": "Point", "coordinates": [101273.076, 460759.654]}, "properties": {"OBJECTID": 156, "Vorm": "rechthoek", "Datum": "20160804", "Van_knpnr": "BBB_40", "Naar_knpnr": "BBB_40C", "Drempelnr": 1, "Hoogte": -1.35000002, "Breedte": 7, "Afv_coeff": 0, "Stroomrcht": 1}}, {"type": "Feature", "id": 157, "geometry": {"type": "Point", "coordinates": [98656.45, 460473.63]}, "properties": {"OBJECTID": 157, "Vorm": "rechthoek", "Datum": "20160720", "Van_knpnr": "BG0015", "Naar_knpnr": "", "Drempelnr": 1, "Hoogte": 0, "Breedte": 0, "Afv_coeff": 0, "Stroomrcht": 1}}, {"type": "Feature", "id": 158, "geometry": {"type": "Point", "coordinates": [103655.749, 453747.565]}, "properties": {"OBJECTID": 158, "Vorm": "rechthoek", "Datum": "20190521", "Van_knpnr": "BK1097", "Naar_knpnr": "BK1097C", "Drempelnr": 1, "Hoogte": -5.71000004, "Breedte": 1.89999998, "Afv_coeff": 0, "Stroomrcht": 0}}, {"type": "Feature", "id": 159, "geometry": {"type": "Point", "coordinates": [101658.904, 460982.622]}, "properties": {"OBJECTID": 159, "Vorm": "rechthoek", "Datum": "20190430", "Van_knpnr": "K3070", "Naar_knpnr": "K3070C", "Drempelnr": 1, "Hoogte": -1.67999995, "Breedte": 0.200000003, "Afv_coeff": 0, "Stroomrcht": 0}}, {"type": "Feature", "id": 160, "geometry": {"type": "Point", "coordinates": [100392.494, 460659.295]}, "properties": {"OBJECTID": 160, "Vorm": "rechthoek", "Datum": "20160720", "Van_knpnr": "K4150", "Naar_knpnr": "", "Drempelnr": 1, "Hoogte": 0, "Breedte": 0, "Afv_coeff": 0, "Stroomrcht": 1}}, {"type": "Feature", "id": 161, "geometry": {"type": "Point", "coordinates": [99846.478, 460364.695]}, "properties": {"OBJECTID": 161, "Vorm": "rechthoek", "Datum": "20160728", "Van_knpnr": "K4280", "Naar_knpnr": "F07408U", "Drempelnr": 1, "Hoogte": -0.449999988, "Breedte": 1, "Afv_coeff": 0, "Stroomrcht": 1}}, {"type": "Feature", "id": 162, "geometry": {"type": "Point", "coordinates": [104508.31, 462087.013]}, "properties": {"OBJECTID": 162, "Vorm": "rechthoek", "Datum": "20180409", "Van_knpnr": "A12345", "Naar_knpnr": "A12345C", "Drempelnr": 1, "Hoogte": -1.79999995, "Breedte": 1, "Afv_coeff": 0, "Stroomrcht": 0}}, {"type": "Feature", "id": 163, "geometry": {"type": "Point", "coordinates": [105599.008, 458480.75]}, "properties": {"OBJECTID": 163, "Vorm": "rechthoek", "Datum": "20180409", "Van_knpnr": "A11917", "Naar_knpnr": "A11917C", "Drempelnr": 1, "Hoogte": -1.60000002, "Breedte": 1.5, "Afv_coeff": 0, "Stroomrcht": 0}}, {"type": "Feature", "id": 164, "geometry": {"type": "Point", "coordinates": [104391.647, 462098.53]}, "properties": {"OBJECTID": 164, "Vorm": "rechthoek", "Datum": "20180409", "Van_knpnr": "A12329", "Naar_knpnr": "A12329C", "Drempelnr": 1, "Hoogte": -1.80999994, "Breedte": 1, "Afv_coeff": 0, "Stroomrcht": 0}}, {"type": "Feature", "id": 165, "geometry": {"type": "Point", "coordinates": [106576.35, 461710.7]}, "properties": {"OBJECTID": 165, "Vorm": "rechthoek", "Datum": "20180409", "Van_knpnr": "A10181", "Naar_knpnr": "A10181C", "Drempelnr": 1, "Hoogte": -1.97000003, "Breedte": 1.89999998, "Afv_coeff": 0, "Stroomrcht": 0}}, {"type": "Feature", "id": 166, "geometry": {"type": "Point", "coordinates": [101297.148, 461237.009]}, "properties": {"OBJECTID": 166, "Vorm": "rechthoek", "Datum": "20200102", "Van_knpnr": "K0060", "Naar_knpnr": "DP0086", "Drempelnr": 1, "Hoogte": 0, "Breedte": 0.600000024, "Afv_coeff": 0, "Stroomrcht": 0}}, {"type": "Feature", "id": 167, "geometry": {"type": "Point", "coordinates": [104521.056, 453762.934]}, "properties": {"OBJECTID": 167, "Vorm": "rechthoek", "Datum": "20181212", "Van_knpnr": "BK2607", "Naar_knpnr": "BK2607C", "Drempelnr": 1, "Hoogte": -2.50999999, "Breedte": 0.800000012, "Afv_coeff": 0, "Stroomrcht": 0}}, {"type": "Feature", "id": 168, "geometry": {"type": "Point", "coordinates": [104252.393, 453849.743]}, "properties": {"OBJECTID": 168, "Vorm": "rechthoek", "Datum": "20181212", "Van_knpnr": "BK2626", "Naar_knpnr": "BK2626C", "Drempelnr": 1, "Hoogte": -2.46000004, "Breedte": 1, "Afv_coeff": 0, "Stroomrcht": 0}}, {"type": "Feature", "id": 169, "geometry": {"type": "Point", "coordinates": [110036.471, 461353.144]}, "properties": {"OBJECTID": 169, "Vorm": "rechthoek", "Datum": "20180409", "Van_knpnr": "AV0072", "Naar_knpnr": "AV0072C", "Drempelnr": 1, "Hoogte": -2.0999999, "Breedte": 1, "Afv_coeff": 0, "Stroomrcht": 0}}, {"type": "Feature", "id": 170, "geometry": {"type": "Point", "coordinates": [105822.71, 461045.73]}, "properties": {"OBJECTID": 170, "Vorm": "rechthoek", "Datum": "20180404", "Van_knpnr": "A18347", "Naar_knpnr": "A18347C", "Drempelnr": 1, "Hoogte": -1.89999998, "Breedte": 6.69999981, "Afv_coeff": 0, "Stroomrcht": 0}}]}