{"type": "FeatureCollection", "features": [{"type": "Feature", "id": 1, "geometry": {"type": "Point", "coordinates": [111199.2100000009, 454638.69000000134]}, "properties": {"OBJECTID": 1, "Vorm": "onbekend", "Breedte": 0, "Hoogte": 0, "Van_knpnr": "BG0762", "Naar_knpnr": "", "Drempelnr": 4, "Afv_coeff": 0, "Stroomrcht": 0, "Datum": "20180226", "Afmeting": 0, "BOB": 0, "Afv_coef_1": 0, "Geknepen": 0}}, {"type": "Feature", "id": 2, "geometry": {"type": "Point", "coordinates": [111199.2100000009, 454638.69000000134]}, "properties": {"OBJECTID": 2, "Vorm": "onbekend", "Breedte": 0, "Hoogte": 0, "Van_knpnr": "BG0762", "Naar_knpnr": "", "Drempelnr": 5, "Afv_coeff": 0, "Stroomrcht": 0, "Datum": "20180226", "Afmeting": 0, "BOB": 0, "Afv_coef_1": 0, "Geknepen": 0}}, {"type": "Feature", "id": 3, "geometry": {"type": "Point", "coordinates": [110275.87000000104, 456061.55999999866]}, "properties": {"OBJECTID": 3, "Vorm": "onbekend", "Breedte": 2000, "Hoogte": 310, "Van_knpnr": "BG1677", "Naar_knpnr": "BG1677B", "Drempelnr": 10, "Afv_coeff": 1, "Stroomrcht": 1, "Datum": "20190312", "Afmeting": 2, "BOB": -4.05999994, "Afv_coef_1": 1, "Geknepen": 0}}, {"type": "Feature", "id": 4, "geometry": {"type": "Point", "coordinates": [110275.87000000104, 456061.55999999866]}, "properties": {"OBJECTID": 4, "Vorm": "onbekend", "Breedte": 0, "Hoogte": 0, "Van_knpnr": "BG1677", "Naar_knpnr": "", "Drempelnr": 11, "Afv_coeff": 0, "Stroomrcht": 0, "Datum": "20180226", "Afmeting": 0, "BOB": 0, "Afv_coef_1": 0, "Geknepen": 0}}, {"type": "Feature", "id": 5, "geometry": {"type": "Point", "coordinates": [110309.37000000104, 456133.87999999896]}, "properties": {"OBJECTID": 5, "Vorm": "onbekend", "Breedte": 0, "Hoogte": 0, "Van_knpnr": "BG1678", "Naar_knpnr": "", "Drempelnr": 12, "Afv_coeff": 0, "Stroomrcht": 0, "Datum": "20190312", "Afmeting": 0, "BOB": 0, "Afv_coef_1": 0, "Geknepen": 0}}, {"type": "Feature", "id": 6, "geometry": {"type": "Point", "coordinates": [110309.37000000104, 456133.87999999896]}, "properties": {"OBJECTID": 6, "Vorm": "onbekend", "Breedte": 0, "Hoogte": 0, "Van_knpnr": "BG1678", "Naar_knpnr": "", "Drempelnr": 13, "Afv_coeff": 0, "Stroomrcht": 0, "Datum": "20180226", "Afmeting": 0, "BOB": 0, "Afv_coef_1": 0, "Geknepen": 0}}, {"type": "Feature", "id": 7, "geometry": {"type": "Point", "coordinates": [111818.30900000036, 455371.4519999996]}, "properties": {"OBJECTID": 7, "Vorm": "onbekend", "Breedte": 700, "Hoogte": 700, "Van_knpnr": "BG1175C", "Naar_knpnr": "BG1175", "Drempelnr": 1, "Afv_coeff": 1, "Stroomrcht": 1, "Datum": "20190130", "Afmeting": 0, "BOB": -3.78999996, "Afv_coef_1": 1, "Geknepen": 0}}, {"type": "Feature", "id": 8, "geometry": {"type": "Point", "coordinates": [110285.7100000009, 456042.4699999988]}, "properties": {"OBJECTID": 8, "Vorm": "onbekend", "Breedte": 310, "Hoogte": 310, "Van_knpnr": "BG1564", "Naar_knpnr": "BG1564B", "Drempelnr": 1, "Afv_coeff": 1, "Stroomrcht": 1, "Datum": "20190312", "Afmeting": 0, "BOB": -4.07999992, "Afv_coef_1": 1, "Geknepen": 0}}, {"type": "Feature", "id": 9, "geometry": {"type": "Point", "coordinates": [110307.57400000095, 456133.73099999875]}, "properties": {"OBJECTID": 9, "Vorm": "onbekend", "Breedte": 310, "Hoogte": 0, "Van_knpnr": "BG1678A", "Naar_knpnr": "BG167B", "Drempelnr": 2, "Afv_coeff": 1, "Stroomrcht": 1, "Datum": "20190312", "Afmeting": 0, "BOB": -3.8499999, "Afv_coef_1": 1, "Geknepen": 0}}]}