{"type": "FeatureCollection", "features": [{"type": "Feature", "id": 1, "geometry": {"type": "Point", "coordinates": [110993, 455330.6000000015]}, "properties": {"OBJECTID": 1, "Datum": "20190408", "Knoopnr": "BG0010", "X": 110993, "Y": 455330.6, "CKwaliteit": "onbekend", "Peil_mv": -0.26, "MKwaliteit": "onbekend", "Peil_bodem": 0, "Peil_water": 0, "Vorm": "onbekend", "Breedte": 1000, "Lengte": 1000, "Type": "inspectieput", "NMK": "onbekend", "Territory": "onbekend", "Materiaal": "beton", "Jaar": "1979", "Oppervlak": 1, "Afvoertype": "gemengd", "Dekseltype": "dicht gietijzer", "StrProtype": "onbekend", "Construct": "onbekend", "Adres": 0, "InstrmInw": 0, "InstrmBdr": 0, "Verlies": 0, "opmerking": "", "Nr_positie": 0, "OBJ_ID": "0"}}]}