{"type": "FeatureCollection", "features": [{"type": "Feature", "id": 1, "geometry": {"type": "Point", "coordinates": [111161.39999999851, 454702.4600000009]}, "properties": {"OBJECTID": 1, "Vorm": "onbekend", "Datum": "20180226", "Van_knpnr": "c1-a", "Naar_knpnr": "c1-a", "Drempelnr": 1, "Hoogte": 0, "Breedte": 0, "Afv_coeff": 0, "Stroomrcht": 0}}, {"type": "Feature", "id": 2, "geometry": {"type": "Point", "coordinates": [112000.46999999881, 454209.80000000075]}, "properties": {"OBJECTID": 2, "Vorm": "onbekend", "Datum": "20180226", "Van_knpnr": "c1-h", "Naar_knpnr": "c2-i", "Drempelnr": 1, "Hoogte": -1.85000002, "Breedte": 0, "Afv_coeff": 0, "Stroomrcht": 0}}, {"type": "Feature", "id": 3, "geometry": {"type": "Point", "coordinates": [112424.69000000134, 454308.4299999997]}, "properties": {"OBJECTID": 3, "Vorm": "onbekend", "Datum": "20180226", "Van_knpnr": "c1-m", "Naar_knpnr": "c2-n", "Drempelnr": 1, "Hoogte": -1.83000004, "Breedte": 0, "Afv_coeff": 0, "Stroomrcht": 0}}, {"type": "Feature", "id": 4, "geometry": {"type": "Point", "coordinates": [111101.01999999955, 456075.80000000075]}, "properties": {"OBJECTID": 4, "Vorm": "onbekend", "Datum": "20180226", "Van_knpnr": "c1-o", "Naar_knpnr": "c2-p", "Drempelnr": 1, "Hoogte": -1.20000005, "Breedte": 0, "Afv_coeff": 0, "Stroomrcht": 0}}, {"type": "Feature", "id": 5, "geometry": {"type": "Point", "coordinates": [109515.2899999991, 451518.7899999991]}, "properties": {"OBJECTID": 5, "Vorm": "onbekend", "Datum": "20180226", "Van_knpnr": "c1-z", "Naar_knpnr": "c2-x", "Drempelnr": 1, "Hoogte": -2.11999989, "Breedte": 800, "Afv_coeff": 0, "Stroomrcht": 0}}, {"type": "Feature", "id": 6, "geometry": {"type": "Point", "coordinates": [111153.20600000024, 454483.8040000014]}, "properties": {"OBJECTID": 6, "Vorm": "onbekend", "Datum": "20190212", "Van_knpnr": "BG1255A", "Naar_knpnr": "BG1255B", "Drempelnr": 1, "Hoogte": -2.0999999, "Breedte": 9, "Afv_coeff": 0.800000012, "Stroomrcht": 0}}, {"type": "Feature", "id": 7, "geometry": {"type": "Point", "coordinates": [111172.46499999985, 454474.0870000012]}, "properties": {"OBJECTID": 7, "Vorm": "onbekend", "Datum": "20190212", "Van_knpnr": "BG1255C", "Naar_knpnr": "BG1255D", "Drempelnr": 1, "Hoogte": -1.85000002, "Breedte": 9, "Afv_coeff": 0.800000012, "Stroomrcht": 0}}, {"type": "Feature", "id": 8, "geometry": {"type": "Point", "coordinates": [111817.88500000164, 455371.66899999976]}, "properties": {"OBJECTID": 8, "Vorm": "onbekend", "Datum": "20190212", "Van_knpnr": "BG1175", "Naar_knpnr": "BG1175C", "Drempelnr": 1, "Hoogte": -2, "Breedte": 2, "Afv_coeff": 0.800000012, "Stroomrcht": 0}}, {"type": "Feature", "id": 9, "geometry": {"type": "Point", "coordinates": [111885.16000000015, 455339.5210000016]}, "properties": {"OBJECTID": 9, "Vorm": "onbekend", "Datum": "20190212", "Van_knpnr": "GT1176C", "Naar_knpnr": "BG1176", "Drempelnr": 1, "Hoogte": -1.60000002, "Breedte": 4.30000019, "Afv_coeff": 0.800000012, "Stroomrcht": 0}}, {"type": "Feature", "id": 10, "geometry": {"type": "Point", "coordinates": [114635.36199999973, 450711.5689999983]}, "properties": {"OBJECTID": 10, "Vorm": "onbekend", "Datum": "20190130", "Van_knpnr": "DR0078", "Naar_knpnr": "DR0078C", "Drempelnr": 1, "Hoogte": -2.5, "Breedte": 4, "Afv_coeff": 1, "Stroomrcht": 0}}, {"type": "Feature", "id": 11, "geometry": {"type": "Point", "coordinates": [114656.21700000018, 450714.6979999989]}, "properties": {"OBJECTID": 11, "Vorm": "onbekend", "Datum": "20190130", "Van_knpnr": "DR0079C", "Naar_knpnr": "DR0079", "Drempelnr": 1, "Hoogte": -2.29999995, "Breedte": 5, "Afv_coeff": 1, "Stroomrcht": 0}}, {"type": "Feature", "id": 12, "geometry": {"type": "Point", "coordinates": [111765.19700000063, 454500.9200000018]}, "properties": {"OBJECTID": 12, "Vorm": "onbekend", "Datum": "20190130", "Van_knpnr": "BG1264C", "Naar_knpnr": "BG1264", "Drempelnr": 1, "Hoogte": -1.85000002, "Breedte": 0, "Afv_coeff": 0, "Stroomrcht": 0}}, {"type": "Feature", "id": 13, "geometry": {"type": "Point", "coordinates": [111781.21799999848, 454521.9360000007]}, "properties": {"OBJECTID": 13, "Vorm": "onbekend", "Datum": "20190130", "Van_knpnr": "BG1263", "Naar_knpnr": "BG1263C", "Drempelnr": 1, "Hoogte": -2.20000005, "Breedte": 4.5, "Afv_coeff": 1, "Stroomrcht": 1}}, {"type": "Feature", "id": 14, "geometry": {"type": "Point", "coordinates": [111431.79800000042, 454372.6240000017]}, "properties": {"OBJECTID": 14, "Vorm": "onbekend", "Datum": "20190130", "Van_knpnr": "BG1257", "Naar_knpnr": "BG1257C", "Drempelnr": 1, "Hoogte": -2.20000005, "Breedte": 4.5, "Afv_coeff": 1, "Stroomrcht": 0}}, {"type": "Feature", "id": 15, "geometry": {"type": "Point", "coordinates": [111440.07499999925, 454347.63500000164]}, "properties": {"OBJECTID": 15, "Vorm": "onbekend", "Datum": "20190130", "Van_knpnr": "BG1258C", "Naar_knpnr": "BG1258", "Drempelnr": 1, "Hoogte": -1.85000002, "Breedte": 4.5, "Afv_coeff": 1, "Stroomrcht": 0}}, {"type": "Feature", "id": 16, "geometry": {"type": "Point", "coordinates": [111529.4299999997, 454108.00499999896]}, "properties": {"OBJECTID": 16, "Vorm": "onbekend", "Datum": "20190130", "Van_knpnr": "BG1260C", "Naar_knpnr": "BG1260", "Drempelnr": 1, "Hoogte": -1.85000002, "Breedte": 4.5, "Afv_coeff": 1, "Stroomrcht": 0}}, {"type": "Feature", "id": 17, "geometry": {"type": "Point", "coordinates": [111553.02699999884, 454095.0469999984]}, "properties": {"OBJECTID": 17, "Vorm": "onbekend", "Datum": "20190130", "Van_knpnr": "BG1259", "Naar_knpnr": "BG1259C", "Drempelnr": 1, "Hoogte": -2.20000005, "Breedte": 4.5, "Afv_coeff": 1, "Stroomrcht": 0}}, {"type": "Feature", "id": 18, "geometry": {"type": "Point", "coordinates": [115720.79600000009, 454255.8020000011]}, "properties": {"OBJECTID": 18, "Vorm": "onbekend", "Datum": "20190130", "Van_knpnr": "NI0001", "Naar_knpnr": "NI0001C", "Drempelnr": 1, "Hoogte": -1.5, "Breedte": 4.6500001, "Afv_coeff": 1, "Stroomrcht": 0}}, {"type": "Feature", "id": 19, "geometry": {"type": "Point", "coordinates": [115741.8759999983, 454251.0240000002]}, "properties": {"OBJECTID": 19, "Vorm": "onbekend", "Datum": "20190130", "Van_knpnr": "NI0002C", "Naar_knpnr": "NI0002", "Drempelnr": 1, "Hoogte": -1.25, "Breedte": 4.6500001, "Afv_coeff": 1, "Stroomrcht": 0}}, {"type": "Feature", "id": 20, "geometry": {"type": "Point", "coordinates": [111391.11499999836, 455838.4129999988]}, "properties": {"OBJECTID": 20, "Vorm": "onbekend", "Datum": "20190130", "Van_knpnr": "BG1253", "Naar_knpnr": "BG1253C", "Drempelnr": 1, "Hoogte": -1.10000002, "Breedte": 12.1000004, "Afv_coeff": 1, "Stroomrcht": 0}}, {"type": "Feature", "id": 21, "geometry": {"type": "Point", "coordinates": [111418.5390000008, 455840.8280000016]}, "properties": {"OBJECTID": 21, "Vorm": "onbekend", "Datum": "20190130", "Van_knpnr": "BG1254C", "Naar_knpnr": "BG1254", "Drempelnr": 1, "Hoogte": -1.14999998, "Breedte": 12.1000004, "Afv_coeff": 1, "Stroomrcht": 0}}, {"type": "Feature", "id": 22, "geometry": {"type": "Point", "coordinates": [109402.4299999997, 451459.9299999997]}, "properties": {"OBJECTID": 22, "Vorm": "onbekend", "Datum": "20190312", "Van_knpnr": "RB0127", "Naar_knpnr": "RB0127A", "Drempelnr": 1, "Hoogte": -1.85000002, "Breedte": 0.620000005, "Afv_coeff": 0.899999976, "Stroomrcht": 0}}, {"type": "Feature", "id": 23, "geometry": {"type": "Point", "coordinates": [110899.17100000009, 454141.436999999]}, "properties": {"OBJECTID": 23, "Vorm": "onbekend", "Datum": "20190312", "Van_knpnr": "BG0381", "Naar_knpnr": "BG0381B", "Drempelnr": 1, "Hoogte": -2.1099999, "Breedte": 1.88, "Afv_coeff": 1, "Stroomrcht": 1}}, {"type": "Feature", "id": 24, "geometry": {"type": "Point", "coordinates": [109188.83999999985, 449870.30999999866]}, "properties": {"OBJECTID": 24, "Vorm": "onbekend", "Datum": "20190312", "Van_knpnr": "RB0001", "Naar_knpnr": "RB0001A", "Drempelnr": 1, "Hoogte": -2.04999995, "Breedte": 0.800000012, "Afv_coeff": 0.899999976, "Stroomrcht": 0}}, {"type": "Feature", "id": 25, "geometry": {"type": "Point", "coordinates": [109287.64200000092, 450723.0210000016]}, "properties": {"OBJECTID": 25, "Vorm": "onbekend", "Datum": "20190212", "Van_knpnr": "RB1126B", "Naar_knpnr": "RB1126", "Drempelnr": 1, "Hoogte": -1.95000005, "Breedte": 6, "Afv_coeff": 0.800000012, "Stroomrcht": 1}}, {"type": "Feature", "id": 26, "geometry": {"type": "Point", "coordinates": [109283.39799999818, 450702.15199999884]}, "properties": {"OBJECTID": 26, "Vorm": "onbekend", "Datum": "20190212", "Van_knpnr": "RB1126D", "Naar_knpnr": "RB1126C", "Drempelnr": 1, "Hoogte": -1.95000005, "Breedte": 5, "Afv_coeff": 0.800000012, "Stroomrcht": 0}}, {"type": "Feature", "id": 27, "geometry": {"type": "Point", "coordinates": [109562.73000000045, 451020.58999999985]}, "properties": {"OBJECTID": 27, "Vorm": "onbekend", "Datum": "20190212", "Van_knpnr": "RB1205", "Naar_knpnr": "RB1205B", "Drempelnr": 1, "Hoogte": -3, "Breedte": 1.20000005, "Afv_coeff": 0.800000012, "Stroomrcht": 0}}, {"type": "Feature", "id": 28, "geometry": {"type": "Point", "coordinates": [109550.85099999979, 451020.5480000004]}, "properties": {"OBJECTID": 28, "Vorm": "onbekend", "Datum": "20190212", "Van_knpnr": "RB2386", "Naar_knpnr": "RB2386B", "Drempelnr": 1, "Hoogte": -2.1500001, "Breedte": 8.69999981, "Afv_coeff": 0.800000012, "Stroomrcht": 0}}, {"type": "Feature", "id": 29, "geometry": {"type": "Point", "coordinates": [109531.45100000128, 451025.63899999857]}, "properties": {"OBJECTID": 29, "Vorm": "onbekend", "Datum": "20190212", "Van_knpnr": "RB2386C", "Naar_knpnr": "RB2386D", "Drempelnr": 1, "Hoogte": -1.95000005, "Breedte": 8.69999981, "Afv_coeff": 0.800000012, "Stroomrcht": 0}}, {"type": "Feature", "id": 30, "geometry": {"type": "Point", "coordinates": [116220.58799999952, 452634.0940000005]}, "properties": {"OBJECTID": 30, "Vorm": "onbekend", "Datum": "20190312", "Van_knpnr": "WA0110A", "Naar_knpnr": "WA0110B", "Drempelnr": 1, "Hoogte": -2.00999999, "Breedte": 2, "Afv_coeff": 0.800000012, "Stroomrcht": 0}}, {"type": "Feature", "id": 31, "geometry": {"type": "Point", "coordinates": [110861.1099999994, 455096.1479999982]}, "properties": {"OBJECTID": 31, "Vorm": "onbekend", "Datum": "20190312", "Van_knpnr": "BG0047", "Naar_knpnr": "BG0047B", "Drempelnr": 1, "Hoogte": -1.92999995, "Breedte": 2.9000001, "Afv_coeff": 0.800000012, "Stroomrcht": 0}}, {"type": "Feature", "id": 32, "geometry": {"type": "Point", "coordinates": [111047.84899999946, 454513.01199999824]}, "properties": {"OBJECTID": 32, "Vorm": "onbekend", "Datum": "20190312", "Van_knpnr": "BG0164B", "Naar_knpnr": "BG0164", "Drempelnr": 1, "Hoogte": -1.99000001, "Breedte": 4.07999992, "Afv_coeff": 0.800000012, "Stroomrcht": 0}}, {"type": "Feature", "id": 33, "geometry": {"type": "Point", "coordinates": [114497.59899999946, 450633.57400000095]}, "properties": {"OBJECTID": 33, "Vorm": "onbekend", "Datum": "20190312", "Van_knpnr": "DR0050", "Naar_knpnr": "DR0050B", "Drempelnr": 1, "Hoogte": -2.30999994, "Breedte": 0.75, "Afv_coeff": 1, "Stroomrcht": 0}}, {"type": "Feature", "id": 34, "geometry": {"type": "Point", "coordinates": [110286.19900000095, 456042.3029999994]}, "properties": {"OBJECTID": 34, "Vorm": "onbekend", "Datum": "20190312", "Van_knpnr": "BG1564B", "Naar_knpnr": "BG1755", "Drempelnr": 1, "Hoogte": -1.95000005, "Breedte": 2, "Afv_coeff": 0.800000012, "Stroomrcht": 1}}, {"type": "Feature", "id": 35, "geometry": {"type": "Point", "coordinates": [110275.85799999908, 456062.06599999964]}, "properties": {"OBJECTID": 35, "Vorm": "onbekend", "Datum": "20190312", "Van_knpnr": "BG1677B", "Naar_knpnr": "BG1677C", "Drempelnr": 1, "Hoogte": -1.95000005, "Breedte": 1, "Afv_coeff": 0.800000012, "Stroomrcht": 1}}, {"type": "Feature", "id": 36, "geometry": {"type": "Point", "coordinates": [110308.2650000006, 456133.5879999995]}, "properties": {"OBJECTID": 36, "Vorm": "onbekend", "Datum": "20190312", "Van_knpnr": "BG167B", "Naar_knpnr": "BG1678", "Drempelnr": 1, "Hoogte": -1.96000004, "Breedte": 2, "Afv_coeff": 0.800000012, "Stroomrcht": 1}}, {"type": "Feature", "id": 37, "geometry": {"type": "Point", "coordinates": [114640.41000000015, 450927.75]}, "properties": {"OBJECTID": 37, "Vorm": "onbekend", "Datum": "20190312", "Van_knpnr": "DR0158", "Naar_knpnr": "DR0158A", "Drempelnr": 1, "Hoogte": -2.11999989, "Breedte": 1.88, "Afv_coeff": 0.899999976, "Stroomrcht": 0}}, {"type": "Feature", "id": 38, "geometry": {"type": "Point", "coordinates": [109306.66000000015, 450540.44000000134]}, "properties": {"OBJECTID": 38, "Vorm": "onbekend", "Datum": "20190312", "Van_knpnr": "RB0025", "Naar_knpnr": "RB0025A", "Drempelnr": 1, "Hoogte": -2.25999999, "Breedte": 0.600000024, "Afv_coeff": 0.899999976, "Stroomrcht": 0}}, {"type": "Feature", "id": 39, "geometry": {"type": "Point", "coordinates": [109073.4299999997, 450216.6799999997]}, "properties": {"OBJECTID": 39, "Vorm": "onbekend", "Datum": "20190312", "Van_knpnr": "RB0031", "Naar_knpnr": "RB0031A", "Drempelnr": 1, "Hoogte": -2.07999992, "Breedte": 0.600000024, "Afv_coeff": 0.899999976, "Stroomrcht": 0}}, {"type": "Feature", "id": 40, "geometry": {"type": "Point", "coordinates": [109008.26000000164, 450247.4200000018]}, "properties": {"OBJECTID": 40, "Vorm": "onbekend", "Datum": "20190312", "Van_knpnr": "RB0072", "Naar_knpnr": "RB0072A", "Drempelnr": 1, "Hoogte": -1.86000001, "Breedte": 0.600000024, "Afv_coeff": 0.800000012, "Stroomrcht": 0}}, {"type": "Feature", "id": 41, "geometry": {"type": "Point", "coordinates": [109006.83999999985, 450244.2899999991]}, "properties": {"OBJECTID": 41, "Vorm": "onbekend", "Datum": "20190312", "Van_knpnr": "RB2035", "Naar_knpnr": "RB2035A", "Drempelnr": 1, "Hoogte": -1.92999995, "Breedte": 1, "Afv_coeff": 0.899999976, "Stroomrcht": 0}}, {"type": "Feature", "id": 42, "geometry": {"type": "Point", "coordinates": [109339.57999999821, 451455.73000000045]}, "properties": {"OBJECTID": 42, "Vorm": "onbekend", "Datum": "20190312", "Van_knpnr": "RB0165", "Naar_knpnr": "RB0165A", "Drempelnr": 1, "Hoogte": -1.73000002, "Breedte": 0.620000005, "Afv_coeff": 0.899999976, "Stroomrcht": 0}}, {"type": "Feature", "id": 43, "geometry": {"type": "Point", "coordinates": [109192.07999999821, 450765.19999999925]}, "properties": {"OBJECTID": 43, "Vorm": "onbekend", "Datum": "20190312", "Van_knpnr": "RB0197", "Naar_knpnr": "RB0197A", "Drempelnr": 1, "Hoogte": -1.86000001, "Breedte": 0.600000024, "Afv_coeff": 0.899999976, "Stroomrcht": 0}}, {"type": "Feature", "id": 44, "geometry": {"type": "Point", "coordinates": [109319.7100000009, 451427.19999999925]}, "properties": {"OBJECTID": 44, "Vorm": "onbekend", "Datum": "20190319", "Van_knpnr": "RB0208", "Naar_knpnr": "RB0208B", "Drempelnr": 1, "Hoogte": -2.29999995, "Breedte": 0.600000024, "Afv_coeff": 0.899999976, "Stroomrcht": 0}}, {"type": "Feature", "id": 45, "geometry": {"type": "Point", "coordinates": [109038.71999999881, 451231.05999999866]}, "properties": {"OBJECTID": 45, "Vorm": "onbekend", "Datum": "20190319", "Van_knpnr": "RB0224", "Naar_knpnr": "RB0224B", "Drempelnr": 1, "Hoogte": -1.99000001, "Breedte": 0.600000024, "Afv_coeff": 0.899999976, "Stroomrcht": 0}}, {"type": "Feature", "id": 46, "geometry": {"type": "Point", "coordinates": [110040.3440000005, 450703.8420000002]}, "properties": {"OBJECTID": 46, "Vorm": "onbekend", "Datum": "20190319", "Van_knpnr": "RB0363", "Naar_knpnr": "RB0363B", "Drempelnr": 1, "Hoogte": -2.02999997, "Breedte": 0.899999976, "Afv_coeff": 0.899999976, "Stroomrcht": 0}}, {"type": "Feature", "id": 47, "geometry": {"type": "Point", "coordinates": [109950.48999999836, 451394.0700000003]}, "properties": {"OBJECTID": 47, "Vorm": "onbekend", "Datum": "20190319", "Van_knpnr": "RB0553", "Naar_knpnr": "RB0553B", "Drempelnr": 1, "Hoogte": -1.77999997, "Breedte": 1.69000006, "Afv_coeff": 0.800000012, "Stroomrcht": 0}}, {"type": "Feature", "id": 48, "geometry": {"type": "Point", "coordinates": [109652.8200000003, 451494.2800000012]}, "properties": {"OBJECTID": 48, "Vorm": "onbekend", "Datum": "20190319", "Van_knpnr": "RB0556", "Naar_knpnr": "RB0556B", "Drempelnr": 1, "Hoogte": -1.77999997, "Breedte": 1.65999997, "Afv_coeff": 0.800000012, "Stroomrcht": 0}}, {"type": "Feature", "id": 49, "geometry": {"type": "Point", "coordinates": [109769.12000000104, 450760.5]}, "properties": {"OBJECTID": 49, "Vorm": "onbekend", "Datum": "20190319", "Van_knpnr": "RB0737", "Naar_knpnr": "RB0737B", "Drempelnr": 1, "Hoogte": -1.86000001, "Breedte": 0.600000024, "Afv_coeff": 0.899999976, "Stroomrcht": 0}}, {"type": "Feature", "id": 50, "geometry": {"type": "Point", "coordinates": [109925.2899999991, 451414.51000000164]}, "properties": {"OBJECTID": 50, "Vorm": "onbekend", "Datum": "20190319", "Van_knpnr": "RB0879", "Naar_knpnr": "RB0879B", "Drempelnr": 1, "Hoogte": -1.87, "Breedte": 1.69000006, "Afv_coeff": 0.800000012, "Stroomrcht": 0}}, {"type": "Feature", "id": 51, "geometry": {"type": "Point", "coordinates": [109889.2190000005, 450716.69200000167]}, "properties": {"OBJECTID": 51, "Vorm": "u-vormig", "Datum": "20190319", "Van_knpnr": "RB0966", "Naar_knpnr": "RB0966B", "Drempelnr": 1, "Hoogte": -1.21000004, "Breedte": 0.100000001, "Afv_coeff": 0.699999988, "Stroomrcht": 0}}, {"type": "Feature", "id": 52, "geometry": {"type": "Point", "coordinates": [108962.76999999955, 450904.83999999985]}, "properties": {"OBJECTID": 52, "Vorm": "onbekend", "Datum": "20190319", "Van_knpnr": "RB0977", "Naar_knpnr": "RB0977B", "Drempelnr": 1, "Hoogte": -1.80999994, "Breedte": 0.600000024, "Afv_coeff": 0.899999976, "Stroomrcht": 0}}, {"type": "Feature", "id": 53, "geometry": {"type": "Point", "coordinates": [107187.08999999985, 452310.83999999985]}, "properties": {"OBJECTID": 53, "Vorm": "onbekend", "Datum": "20190319", "Van_knpnr": "RD0034", "Naar_knpnr": "RD0034B", "Drempelnr": 1, "Hoogte": -5.51000023, "Breedte": 0.600000024, "Afv_coeff": 0.899999976, "Stroomrcht": 0}}, {"type": "Feature", "id": 54, "geometry": {"type": "Point", "coordinates": [111305.23900000006, 454923.91099999845]}, "properties": {"OBJECTID": 54, "Vorm": "onbekend", "Datum": "20190326", "Van_knpnr": "BG0106", "Naar_knpnr": "BG0106B", "Drempelnr": 1, "Hoogte": -1.85000002, "Breedte": 1.20000005, "Afv_coeff": 0.400000006, "Stroomrcht": 0}}, {"type": "Feature", "id": 55, "geometry": {"type": "Point", "coordinates": [111484.35200000182, 454913.0069999993]}, "properties": {"OBJECTID": 55, "Vorm": "onbekend", "Datum": "20190326", "Van_knpnr": "BG1262", "Naar_knpnr": "BG1262A", "Drempelnr": 1, "Hoogte": -2.0999999, "Breedte": 8.5, "Afv_coeff": 0.800000012, "Stroomrcht": 0}}, {"type": "Feature", "id": 56, "geometry": {"type": "Point", "coordinates": [111497.66800000146, 454936.05700000003]}, "properties": {"OBJECTID": 56, "Vorm": "onbekend", "Datum": "20190326", "Van_knpnr": "BG1262B", "Naar_knpnr": "BG1262C", "Drempelnr": 1, "Hoogte": -1.85000002, "Breedte": 18, "Afv_coeff": 0.800000012, "Stroomrcht": 0}}]}