{"type": "FeatureCollection", "features": [{"type": "Feature", "id": 1, "geometry": {"type": "Point", "coordinates": [111176.98000000045, 454653.7800000012]}, "properties": {"OBJECTID": 1, "Van_knpnr": "c1-b", "Naar_knpnr": "c1-b", "Pompnr": 1, "Datum": "20180226", "Tag_ID": "0", "Groep_ID": "onbekend", "UP_OnLevel": 0, "Up_OfLevel": 0, "DS_OnLevel": 0, "DS_OfLevel": 0, "Bodempeil": 0, "Capaciteit": 0, "Pomp_type": "onbekend", "Datum_inst": "", "Uitvoering": "onbekend", "IO_type": "onbekend", "Jaar": "0000", "Nummer": "onbekend", "Waaier": "onbekend", "Afmeting": 0, "Wattage": 0, "Voltage": 0, "Cos_Phi": 0, "Toeren": 0, "Inominaal": 0, "Oliegevuld": 0, "Valrooster": 0, "Uren_meter": 0, "Kwh_indica": 0, "Frq_omvorm": 0, "Telemetrie": 0, "Gereviserd": 0}}, {"type": "Feature", "id": 2, "geometry": {"type": "Point", "coordinates": [111380.7100000009, 453641.2800000012]}, "properties": {"OBJECTID": 2, "Van_knpnr": "c1-d", "Naar_knpnr": "c1-d", "Pompnr": 1, "Datum": "20180226", "Tag_ID": "0", "Groep_ID": "onbekend", "UP_OnLevel": 0, "Up_OfLevel": 0, "DS_OnLevel": 0, "DS_OfLevel": 0, "Bodempeil": 0, "Capaciteit": 0, "Pomp_type": "onbekend", "Datum_inst": "", "Uitvoering": "onbekend", "IO_type": "onbekend", "Jaar": "0000", "Nummer": "onbekend", "Waaier": "onbekend", "Afmeting": 0, "Wattage": 0, "Voltage": 0, "Cos_Phi": 0, "Toeren": 0, "Inominaal": 0, "Oliegevuld": 0, "Valrooster": 0, "Uren_meter": 0, "Kwh_indica": 0, "Frq_omvorm": 0, "Telemetrie": 0, "Gereviserd": 0}}, {"type": "Feature", "id": 3, "geometry": {"type": "Point", "coordinates": [112054.78000000119, 453683.51000000164]}, "properties": {"OBJECTID": 3, "Van_knpnr": "c1-e", "Naar_knpnr": "c1-e", "Pompnr": 1, "Datum": "20180226", "Tag_ID": "0", "Groep_ID": "onbekend", "UP_OnLevel": 0, "Up_OfLevel": 0, "DS_OnLevel": 0, "DS_OfLevel": 0, "Bodempeil": 0, "Capaciteit": 0, "Pomp_type": "onbekend", "Datum_inst": "", "Uitvoering": "onbekend", "IO_type": "onbekend", "Jaar": "0000", "Nummer": "onbekend", "Waaier": "onbekend", "Afmeting": 0, "Wattage": 0, "Voltage": 0, "Cos_Phi": 0, "Toeren": 0, "Inominaal": 0, "Oliegevuld": 0, "Valrooster": 0, "Uren_meter": 0, "Kwh_indica": 0, "Frq_omvorm": 0, "Telemetrie": 0, "Gereviserd": 0}}, {"type": "Feature", "id": 4, "geometry": {"type": "Point", "coordinates": [111013.39999999851, 453617.69999999925]}, "properties": {"OBJECTID": 4, "Van_knpnr": "c1-l", "Naar_knpnr": "c1-l", "Pompnr": 1, "Datum": "20180226", "Tag_ID": "0", "Groep_ID": "onbekend", "UP_OnLevel": 0, "Up_OfLevel": 0, "DS_OnLevel": 0, "DS_OfLevel": 0, "Bodempeil": 0, "Capaciteit": 0, "Pomp_type": "onbekend", "Datum_inst": "", "Uitvoering": "onbekend", "IO_type": "onbekend", "Jaar": "0000", "Nummer": "onbekend", "Waaier": "onbekend", "Afmeting": 0, "Wattage": 0, "Voltage": 0, "Cos_Phi": 0, "Toeren": 0, "Inominaal": 0, "Oliegevuld": 0, "Valrooster": 0, "Uren_meter": 0, "Kwh_indica": 0, "Frq_omvorm": 0, "Telemetrie": 0, "Gereviserd": 0}}, {"type": "Feature", "id": 5, "geometry": {"type": "Point", "coordinates": [111987.48999999836, 455444.51000000164]}, "properties": {"OBJECTID": 5, "Van_knpnr": "c1-r", "Naar_knpnr": "c1-r", "Pompnr": 1, "Datum": "20180226", "Tag_ID": "0", "Groep_ID": "onbekend", "UP_OnLevel": 0, "Up_OfLevel": 0, "DS_OnLevel": 0, "DS_OfLevel": 0, "Bodempeil": 0, "Capaciteit": 0, "Pomp_type": "onbekend", "Datum_inst": "", "Uitvoering": "onbekend", "IO_type": "onbekend", "Jaar": "0000", "Nummer": "onbekend", "Waaier": "onbekend", "Afmeting": 0, "Wattage": 0, "Voltage": 0, "Cos_Phi": 0, "Toeren": 0, "Inominaal": 0, "Oliegevuld": 0, "Valrooster": 0, "Uren_meter": 0, "Kwh_indica": 0, "Frq_omvorm": 0, "Telemetrie": 0, "Gereviserd": 0}}, {"type": "Feature", "id": 6, "geometry": {"type": "Point", "coordinates": [111211.26000000164, 454709.75]}, "properties": {"OBJECTID": 6, "Van_knpnr": "c1-s", "Naar_knpnr": "c1-s", "Pompnr": 1, "Datum": "20180226", "Tag_ID": "0", "Groep_ID": "onbekend", "UP_OnLevel": 0, "Up_OfLevel": 0, "DS_OnLevel": 0, "DS_OfLevel": 0, "Bodempeil": 0, "Capaciteit": 0, "Pomp_type": "onbekend", "Datum_inst": "", "Uitvoering": "onbekend", "IO_type": "onbekend", "Jaar": "0000", "Nummer": "onbekend", "Waaier": "onbekend", "Afmeting": 0, "Wattage": 0, "Voltage": 0, "Cos_Phi": 0, "Toeren": 0, "Inominaal": 0, "Oliegevuld": 0, "Valrooster": 0, "Uren_meter": 0, "Kwh_indica": 0, "Frq_omvorm": 0, "Telemetrie": 0, "Gereviserd": 0}}, {"type": "Feature", "id": 7, "geometry": {"type": "Point", "coordinates": [109731.89999999851, 451732.19000000134]}, "properties": {"OBJECTID": 7, "Van_knpnr": "c1-w", "Naar_knpnr": "c1-w", "Pompnr": 1, "Datum": "20180226", "Tag_ID": "0", "Groep_ID": "onbekend", "UP_OnLevel": 0, "Up_OfLevel": 0, "DS_OnLevel": 0, "DS_OfLevel": 0, "Bodempeil": 0, "Capaciteit": 0, "Pomp_type": "onbekend", "Datum_inst": "", "Uitvoering": "onbekend", "IO_type": "onbekend", "Jaar": "0000", "Nummer": "onbekend", "Waaier": "onbekend", "Afmeting": 0, "Wattage": 0, "Voltage": 0, "Cos_Phi": 0, "Toeren": 0, "Inominaal": 0, "Oliegevuld": 0, "Valrooster": 0, "Uren_meter": 0, "Kwh_indica": 0, "Frq_omvorm": 0, "Telemetrie": 0, "Gereviserd": 0}}, {"type": "Feature", "id": 8, "geometry": {"type": "Point", "coordinates": [109778.9299999997, 451576.62999999896]}, "properties": {"OBJECTID": 8, "Van_knpnr": "c1-x", "Naar_knpnr": "c1-x", "Pompnr": 1, "Datum": "20180226", "Tag_ID": "0", "Groep_ID": "onbekend", "UP_OnLevel": 0, "Up_OfLevel": 0, "DS_OnLevel": 0, "DS_OfLevel": 0, "Bodempeil": 0, "Capaciteit": 0, "Pomp_type": "onbekend", "Datum_inst": "", "Uitvoering": "onbekend", "IO_type": "onbekend", "Jaar": "0000", "Nummer": "onbekend", "Waaier": "onbekend", "Afmeting": 0, "Wattage": 0, "Voltage": 0, "Cos_Phi": 0, "Toeren": 0, "Inominaal": 0, "Oliegevuld": 0, "Valrooster": 0, "Uren_meter": 0, "Kwh_indica": 0, "Frq_omvorm": 0, "Telemetrie": 0, "Gereviserd": 0}}, {"type": "Feature", "id": 9, "geometry": {"type": "Point", "coordinates": [109010.6099999994, 450197.2800000012]}, "properties": {"OBJECTID": 9, "Van_knpnr": "c1-y", "Naar_knpnr": "c1-y", "Pompnr": 1, "Datum": "20180226", "Tag_ID": "0", "Groep_ID": "onbekend", "UP_OnLevel": 0, "Up_OfLevel": 0, "DS_OnLevel": 0, "DS_OfLevel": 0, "Bodempeil": 0, "Capaciteit": 0, "Pomp_type": "onbekend", "Datum_inst": "", "Uitvoering": "onbekend", "IO_type": "onbekend", "Jaar": "0000", "Nummer": "onbekend", "Waaier": "onbekend", "Afmeting": 0, "Wattage": 0, "Voltage": 0, "Cos_Phi": 0, "Toeren": 0, "Inominaal": 0, "Oliegevuld": 0, "Valrooster": 0, "Uren_meter": 0, "Kwh_indica": 0, "Frq_omvorm": 0, "Telemetrie": 0, "Gereviserd": 0}}, {"type": "Feature", "id": 10, "geometry": {"type": "Point", "coordinates": [109518.46999999881, 451521.12000000104]}, "properties": {"OBJECTID": 10, "Van_knpnr": "c1-0", "Naar_knpnr": "c1-0", "Pompnr": 1, "Datum": "20180226", "Tag_ID": "0", "Groep_ID": "onbekend", "UP_OnLevel": 0, "Up_OfLevel": 0, "DS_OnLevel": 0, "DS_OfLevel": 0, "Bodempeil": 0, "Capaciteit": 0, "Pomp_type": "onbekend", "Datum_inst": "", "Uitvoering": "onbekend", "IO_type": "onbekend", "Jaar": "0000", "Nummer": "onbekend", "Waaier": "onbekend", "Afmeting": 0, "Wattage": 0, "Voltage": 0, "Cos_Phi": 0, "Toeren": 0, "Inominaal": 0, "Oliegevuld": 0, "Valrooster": 0, "Uren_meter": 0, "Kwh_indica": 0, "Frq_omvorm": 0, "Telemetrie": 0, "Gereviserd": 0}}, {"type": "Feature", "id": 11, "geometry": {"type": "Point", "coordinates": [109518.46999999881, 451521.12000000104]}, "properties": {"OBJECTID": 11, "Van_knpnr": "RB1192", "Naar_knpnr": "", "Pompnr": 29, "Datum": "20180226", "Tag_ID": "0", "Groep_ID": "onbekend", "UP_OnLevel": 0, "Up_OfLevel": 0, "DS_OnLevel": 0, "DS_OfLevel": 0, "Bodempeil": 0, "Capaciteit": 0, "Pomp_type": "onbekend", "Datum_inst": "", "Uitvoering": "onbekend", "IO_type": "onbekend", "Jaar": "0000", "Nummer": "onbekend", "Waaier": "onbekend", "Afmeting": 0, "Wattage": 0, "Voltage": 0, "Cos_Phi": 0, "Toeren": 0, "Inominaal": 0, "Oliegevuld": 0, "Valrooster": 0, "Uren_meter": 0, "Kwh_indica": 0, "Frq_omvorm": 0, "Telemetrie": 0, "Gereviserd": 0}}, {"type": "Feature", "id": 12, "geometry": {"type": "Point", "coordinates": [111385.69000000134, 455858.8200000003]}, "properties": {"OBJECTID": 12, "Van_knpnr": "BG1242", "Naar_knpnr": "", "Pompnr": 1, "Datum": "20180516", "Tag_ID": "0", "Groep_ID": "onbekend", "UP_OnLevel": -3.22000003, "Up_OfLevel": -4, "DS_OnLevel": 0, "DS_OfLevel": 0, "Bodempeil": 0, "Capaciteit": 0.1, "Pomp_type": "onbekend", "Datum_inst": "", "Uitvoering": "onbekend", "IO_type": "onbekend", "Jaar": "0", "Nummer": "onbekend", "Waaier": "onbekend", "Afmeting": 0, "Wattage": 0, "Voltage": 0, "Cos_Phi": 0, "Toeren": 0, "Inominaal": 0, "Oliegevuld": 0, "Valrooster": 0, "Uren_meter": 0, "Kwh_indica": 0, "Frq_omvorm": 0, "Telemetrie": 0, "Gereviserd": 0}}, {"type": "Feature", "id": 13, "geometry": {"type": "Point", "coordinates": [111385.69000000134, 455858.8200000003]}, "properties": {"OBJECTID": 13, "Van_knpnr": "BG1242", "Naar_knpnr": "", "Pompnr": 2, "Datum": "20180516", "Tag_ID": "0", "Groep_ID": "onbekend", "UP_OnLevel": -3, "Up_OfLevel": -4, "DS_OnLevel": 0, "DS_OfLevel": 0, "Bodempeil": 0, "Capaciteit": 0.175, "Pomp_type": "onbekend", "Datum_inst": "", "Uitvoering": "onbekend", "IO_type": "onbekend", "Jaar": "0", "Nummer": "onbekend", "Waaier": "onbekend", "Afmeting": 0, "Wattage": 0, "Voltage": 0, "Cos_Phi": 0, "Toeren": 0, "Inominaal": 0, "Oliegevuld": 0, "Valrooster": 0, "Uren_meter": 0, "Kwh_indica": 0, "Frq_omvorm": 0, "Telemetrie": 0, "Gereviserd": 0}}, {"type": "Feature", "id": 14, "geometry": {"type": "Point", "coordinates": [111153.90900000185, 454483.51199999824]}, "properties": {"OBJECTID": 14, "Van_knpnr": "BG1255B", "Naar_knpnr": "BG1255A", "Pompnr": 1, "Datum": "20190130", "Tag_ID": "0", "Groep_ID": "onbekend", "UP_OnLevel": -3.67000008, "Up_OfLevel": -3.9000001, "DS_OnLevel": -3.67000008, "DS_OfLevel": -4, "Bodempeil": 0, "Capaciteit": 0.05, "Pomp_type": "onbekend", "Datum_inst": "19006-20", "Uitvoering": "onbekend", "IO_type": "onbekend", "Jaar": "0", "Nummer": "onbekend", "Waaier": "onbekend", "Afmeting": 0, "Wattage": 0, "Voltage": 0, "Cos_Phi": 0, "Toeren": 0, "Inominaal": 0, "Oliegevuld": 0, "Valrooster": 0, "Uren_meter": 0, "Kwh_indica": 0, "Frq_omvorm": 0, "Telemetrie": 0, "Gereviserd": 0}}, {"type": "Feature", "id": 15, "geometry": {"type": "Point", "coordinates": [114636.5859999992, 450710.30000000075]}, "properties": {"OBJECTID": 15, "Van_knpnr": "DR0078C", "Naar_knpnr": "DR0078", "Pompnr": 1, "Datum": "20190130", "Tag_ID": "0", "Groep_ID": "onbekend", "UP_OnLevel": -3.8499999, "Up_OfLevel": -4.05000019, "DS_OnLevel": 0, "DS_OfLevel": 0, "Bodempeil": 0, "Capaciteit": 0.05, "Pomp_type": "onbekend", "Datum_inst": "", "Uitvoering": "onbekend", "IO_type": "onbekend", "Jaar": "0", "Nummer": "onbekend", "Waaier": "onbekend", "Afmeting": 0, "Wattage": 0, "Voltage": 0, "Cos_Phi": 0, "Toeren": 0, "Inominaal": 0, "Oliegevuld": 0, "Valrooster": 0, "Uren_meter": 0, "Kwh_indica": 0, "Frq_omvorm": 0, "Telemetrie": 0, "Gereviserd": 0}}, {"type": "Feature", "id": 16, "geometry": {"type": "Point", "coordinates": [111780.44299999997, 454520.90300000086]}, "properties": {"OBJECTID": 16, "Van_knpnr": "BG1263C", "Naar_knpnr": "BG1263", "Pompnr": 1, "Datum": "20190130", "Tag_ID": "0", "Groep_ID": "onbekend", "UP_OnLevel": -3.76999998, "Up_OfLevel": -3.95000005, "DS_OnLevel": 0, "DS_OfLevel": 0, "Bodempeil": 0, "Capaciteit": 0.05, "Pomp_type": "onbekend", "Datum_inst": "", "Uitvoering": "onbekend", "IO_type": "onbekend", "Jaar": "0", "Nummer": "onbekend", "Waaier": "onbekend", "Afmeting": 0, "Wattage": 0, "Voltage": 0, "Cos_Phi": 0, "Toeren": 0, "Inominaal": 0, "Oliegevuld": 0, "Valrooster": 0, "Uren_meter": 0, "Kwh_indica": 0, "Frq_omvorm": 0, "Telemetrie": 0, "Gereviserd": 0}}, {"type": "Feature", "id": 17, "geometry": {"type": "Point", "coordinates": [111432.01799999923, 454371.93200000003]}, "properties": {"OBJECTID": 17, "Van_knpnr": "BG1257C", "Naar_knpnr": "BG1257", "Pompnr": 1, "Datum": "20190130", "Tag_ID": "0", "Groep_ID": "onbekend", "UP_OnLevel": -3.76999998, "Up_OfLevel": -3.95000005, "DS_OnLevel": 0, "DS_OfLevel": 0, "Bodempeil": 0, "Capaciteit": 0.05, "Pomp_type": "onbekend", "Datum_inst": "", "Uitvoering": "onbekend", "IO_type": "onbekend", "Jaar": "0", "Nummer": "onbekend", "Waaier": "onbekend", "Afmeting": 0, "Wattage": 0, "Voltage": 0, "Cos_Phi": 0, "Toeren": 0, "Inominaal": 0, "Oliegevuld": 0, "Valrooster": 0, "Uren_meter": 0, "Kwh_indica": 0, "Frq_omvorm": 0, "Telemetrie": 0, "Gereviserd": 0}}, {"type": "Feature", "id": 18, "geometry": {"type": "Point", "coordinates": [111551.59099999815, 454095.8509999998]}, "properties": {"OBJECTID": 18, "Van_knpnr": "BG1259C", "Naar_knpnr": "BG1259", "Pompnr": 1, "Datum": "20190130", "Tag_ID": "0", "Groep_ID": "onbekend", "UP_OnLevel": -3.76999998, "Up_OfLevel": -3.95000005, "DS_OnLevel": 0, "DS_OfLevel": 0, "Bodempeil": 0, "Capaciteit": 0.05, "Pomp_type": "onbekend", "Datum_inst": "", "Uitvoering": "onbekend", "IO_type": "onbekend", "Jaar": "0", "Nummer": "onbekend", "Waaier": "onbekend", "Afmeting": 0, "Wattage": 0, "Voltage": 0, "Cos_Phi": 0, "Toeren": 0, "Inominaal": 0, "Oliegevuld": 0, "Valrooster": 0, "Uren_meter": 0, "Kwh_indica": 0, "Frq_omvorm": 0, "Telemetrie": 0, "Gereviserd": 0}}, {"type": "Feature", "id": 19, "geometry": {"type": "Point", "coordinates": [115722.86499999836, 454255.3579999991]}, "properties": {"OBJECTID": 19, "Van_knpnr": "NI0001C", "Naar_knpnr": "NI0001", "Pompnr": 1, "Datum": "20190130", "Tag_ID": "0", "Groep_ID": "onbekend", "UP_OnLevel": -3.08999991, "Up_OfLevel": -3.29999995, "DS_OnLevel": 0, "DS_OfLevel": 0, "Bodempeil": 0, "Capaciteit": 0.05, "Pomp_type": "onbekend", "Datum_inst": "", "Uitvoering": "onbekend", "IO_type": "onbekend", "Jaar": "0", "Nummer": "onbekend", "Waaier": "onbekend", "Afmeting": 0, "Wattage": 0, "Voltage": 0, "Cos_Phi": 0, "Toeren": 0, "Inominaal": 0, "Oliegevuld": 0, "Valrooster": 0, "Uren_meter": 0, "Kwh_indica": 0, "Frq_omvorm": 0, "Telemetrie": 0, "Gereviserd": 0}}, {"type": "Feature", "id": 20, "geometry": {"type": "Point", "coordinates": [111393.99100000039, 455833.4620000012]}, "properties": {"OBJECTID": 20, "Van_knpnr": "BG1253C", "Naar_knpnr": "BG1253", "Pompnr": 1, "Datum": "20190130", "Tag_ID": "0", "Groep_ID": "onbekend", "UP_OnLevel": -2.94000006, "Up_OfLevel": -3.20000005, "DS_OnLevel": 0, "DS_OfLevel": 0, "Bodempeil": 0, "Capaciteit": 0.05, "Pomp_type": "onbekend", "Datum_inst": "", "Uitvoering": "onbekend", "IO_type": "onbekend", "Jaar": "0", "Nummer": "onbekend", "Waaier": "onbekend", "Afmeting": 0, "Wattage": 0, "Voltage": 0, "Cos_Phi": 0, "Toeren": 0, "Inominaal": 0, "Oliegevuld": 0, "Valrooster": 0, "Uren_meter": 0, "Kwh_indica": 0, "Frq_omvorm": 0, "Telemetrie": 0, "Gereviserd": 0}}, {"type": "Feature", "id": 21, "geometry": {"type": "Point", "coordinates": [109283.52899999917, 450702.65399999917]}, "properties": {"OBJECTID": 21, "Van_knpnr": "RB1126C", "Naar_knpnr": "RB1126D", "Pompnr": 1, "Datum": "20190212", "Tag_ID": "0", "Groep_ID": "onbekend", "UP_OnLevel": -4, "Up_OfLevel": -4.19999981, "DS_OnLevel": 0, "DS_OfLevel": 0, "Bodempeil": 0, "Capaciteit": 0.05, "Pomp_type": "onbekend", "Datum_inst": "", "Uitvoering": "onbekend", "IO_type": "onbekend", "Jaar": "0", "Nummer": "onbekend", "Waaier": "onbekend", "Afmeting": 0, "Wattage": 0, "Voltage": 0, "Cos_Phi": 0, "Toeren": 0, "Inominaal": 0, "Oliegevuld": 0, "Valrooster": 0, "Uren_meter": 0, "Kwh_indica": 0, "Frq_omvorm": 0, "Telemetrie": 0, "Gereviserd": 0}}, {"type": "Feature", "id": 22, "geometry": {"type": "Point", "coordinates": [109675.34800000116, 450631.2670000009]}, "properties": {"OBJECTID": 22, "Van_knpnr": "RB1186A", "Naar_knpnr": "", "Pompnr": 1, "Datum": "20190312", "Tag_ID": "0", "Groep_ID": "onbekend", "UP_OnLevel": 0, "Up_OfLevel": 0, "DS_OnLevel": 0, "DS_OfLevel": 0, "Bodempeil": 0, "Capaciteit": 0, "Pomp_type": "onbekend", "Datum_inst": "", "Uitvoering": "onbekend", "IO_type": "onbekend", "Jaar": "0", "Nummer": "onbekend", "Waaier": "onbekend", "Afmeting": 0, "Wattage": 0, "Voltage": 0, "Cos_Phi": 0, "Toeren": 0, "Inominaal": 0, "Oliegevuld": 0, "Valrooster": 0, "Uren_meter": 0, "Kwh_indica": 0, "Frq_omvorm": 0, "Telemetrie": 0, "Gereviserd": 0}}, {"type": "Feature", "id": 23, "geometry": {"type": "Point", "coordinates": [111486.1559999995, 454913.87900000066]}, "properties": {"OBJECTID": 23, "Van_knpnr": "BG1262A", "Naar_knpnr": "BG1262", "Pompnr": 1, "Datum": "20190326", "Tag_ID": "0", "Groep_ID": "onbekend", "UP_OnLevel": -3.4000001, "Up_OfLevel": -3.5999999, "DS_OnLevel": 0, "DS_OfLevel": 0, "Bodempeil": 0, "Capaciteit": 0.05, "Pomp_type": "onbekend", "Datum_inst": "", "Uitvoering": "onbekend", "IO_type": "onbekend", "Jaar": "0", "Nummer": "onbekend", "Waaier": "onbekend", "Afmeting": 0, "Wattage": 0, "Voltage": 0, "Cos_Phi": 0, "Toeren": 0, "Inominaal": 0, "Oliegevuld": 0, "Valrooster": 0, "Uren_meter": 0, "Kwh_indica": 0, "Frq_omvorm": 0, "Telemetrie": 0, "Gereviserd": 0}}, {"type": "Feature", "id": 24, "geometry": {"type": "Point", "coordinates": [110357.7340000011, 455730.9820000008]}, "properties": {"OBJECTID": 24, "Van_knpnr": "BG1547A", "Naar_knpnr": "BG1547", "Pompnr": 1, "Datum": "20190408", "Tag_ID": "0", "Groep_ID": "onbekend", "UP_OnLevel": 0, "Up_OfLevel": 0, "DS_OnLevel": 0, "DS_OfLevel": 0, "Bodempeil": 0, "Capaciteit": 0, "Pomp_type": "onbekend", "Datum_inst": "", "Uitvoering": "onbekend", "IO_type": "onbekend", "Jaar": "0", "Nummer": "onbekend", "Waaier": "onbekend", "Afmeting": 0, "Wattage": 0, "Voltage": 0, "Cos_Phi": 0, "Toeren": 0, "Inominaal": 0, "Oliegevuld": 0, "Valrooster": 0, "Uren_meter": 0, "Kwh_indica": 0, "Frq_omvorm": 0, "Telemetrie": 0, "Gereviserd": 0}}, {"type": "Feature", "id": 25, "geometry": {"type": "Point", "coordinates": [111680.19999999925, 454860.37000000104]}, "properties": {"OBJECTID": 25, "Van_knpnr": "BG1757", "Naar_knpnr": "BG1757B", "Pompnr": 1, "Datum": "20190408", "Tag_ID": "0", "Groep_ID": "onbekend", "UP_OnLevel": 0, "Up_OfLevel": 0, "DS_OnLevel": 0, "DS_OfLevel": 0, "Bodempeil": 0, "Capaciteit": 0, "Pomp_type": "onbekend", "Datum_inst": "", "Uitvoering": "onbekend", "IO_type": "onbekend", "Jaar": "0", "Nummer": "onbekend", "Waaier": "onbekend", "Afmeting": 0, "Wattage": 0, "Voltage": 0, "Cos_Phi": 0, "Toeren": 0, "Inominaal": 0, "Oliegevuld": 0, "Valrooster": 0, "Uren_meter": 0, "Kwh_indica": 0, "Frq_omvorm": 0, "Telemetrie": 0, "Gereviserd": 0}}]}