{"type": "FeatureCollection", "features": [{"type": "Feature", "id": 1, "geometry": {"type": "Polygon", "coordinates": [[[110852.7899999991, 454481.51000000164], [110853.0399999991, 454486.30999999866], [110854.80000000075, 454486.4699999988], [110854.66000000015, 454487.4600000009], [110854.71999999881, 454488.48000000045], [110855.0399999991, 454489.5700000003], [110855.3599999994, 454490.1799999997], [110856.2899999991, 454491.25], [110857.19999999925, 454491.80999999866], [110857.89999999851, 454492.08999999985], [110858.6400000006, 454492.2800000012], [110859.30000000075, 454492.2899999991], [110860.0399999991, 454492.19999999925], [110860.55999999866, 454492.0799999982], [110861.16000000015, 454491.8500000015], [110861.89999999851, 454491.37999999896], [110862.55000000075, 454490.8200000003], [110862.94000000134, 454490.41000000015], [110863.26000000164, 454489.8999999985], [110863.5399999991, 454489.2899999991], [110863.76999999955, 454488.2899999991], [110863.82999999821, 454487.4600000009], [110863.7100000009, 454486.91000000015], [110863.62999999896, 454486.4299999997], [110869.53000000119, 454485.8200000003], [110870.82999999821, 454486.30999999866], [110872.4600000009, 454486.44999999925], [110873.69000000134, 454486.23000000045], [110874.69999999925, 454486], [110876.10000000149, 454485.19000000134], [110876.98999999836, 454484.5], [110877.6799999997, 454483.5300000012], [110878.21999999881, 454482.26999999955], [110878.5700000003, 454481.2100000009], [110878.62000000104, 454480.26000000164], [110878.62000000104, 454479.1400000006], [110878.1400000006, 454477.8500000015], [110877.76000000164, 454476.91000000015], [110877.12999999896, 454476.12999999896], [110876.46999999881, 454475.41000000015], [110875.46999999881, 454474.80999999866], [110874.41000000015, 454474.41000000015], [110873.08999999985, 454474.1000000015], [110871.7100000009, 454474.1499999985], [110870.05000000075, 454474.5799999982], [110870.0399999991, 454474.6000000015], [110869.41000000015, 454473.1000000015], [110867.6099999994, 454469.87000000104], [110865.01000000164, 454466.66000000015], [110865.0399999991, 454466.08999999985], [110864.91000000015, 454465.19000000134], [110864.3200000003, 454464.26000000164], [110863.51999999955, 454463.6000000015], [110862.55999999866, 454463.12000000104], [110861.28000000119, 454463.19000000134], [110860.30999999866, 454463.5300000012], [110859.62000000104, 454463.98000000045], [110858.7899999991, 454465.12000000104], [110858.48000000045, 454466.19000000134], [110858.69000000134, 454467.5700000003], [110858.89999999851, 454468.12999999896], [110857.03000000119, 454470.6799999997], [110854.98000000045, 454474.26999999955], [110853.83999999985, 454477.5300000012], [110852.7899999991, 454481.51000000164]]]}, "properties": {"OBJECTID": 1, "Datum": "20190102", "Van_knpnr": "BG5195", "Naar_knpnr": "BG5195", "Strengnr": 1, "Offset": 0, "Strengtype": "drain", "Afvoertype": "grondwater", "Jaar": "2010", "Jaar_recon": "2010", "Materiaal": "pvc", "Vorm": "rond", "Voeg": "onbekend", "Grondslag": "onbekend", "Fundatie": "onbekend", "VanBobpeil": "-2.300", "NarBobpeil": "-2.300", "Straat": "dronenpark", "Straattype": "onbekend", "Verh_type": "onbekend", "Breedte": 80, "Hoogte": 80, "BodemBrdt": 0, "Lengte": 90.6999969, "Gebied": "bg/bodegraven", "Inspectie": "", "JaarVerv": "0", "Beslismodl": "Geen beoordeling", "Beoordeeld": "0000", "Tactisch": 7, "Act_Direct": 0, "Act_In_5Y": 0, "Act_In_10Y": 0, "Geen_actie": 0, "Niet_beord": 90.7, "Operationl": 0, "Project": "", "APM": 0, "APV": "", "Kosten": 4058.69, "Opmerking": "", "Tekening": "onbekend", "OBJ_ID": "BG2596", "Shape_Length": 91.03005609782686, "Shape_Area": -431.49279999030085}}, {"type": "Feature", "id": 2, "geometry": {"type": "Polygon", "coordinates": [[[109356.5399999991, 451607.7100000009], [109335.60000000149, 451624.6400000006], [109335.62000000104, 451623.7800000012], [109356.5399999991, 451607.7100000009]]]}, "properties": {"OBJECTID": 2, "Datum": "20190319", "Van_knpnr": "RB2037", "Naar_knpnr": "RB0759", "Strengnr": 1, "Offset": 0, "Strengtype": "vrijverval rioolleiding", "Afvoertype": "rwa", "Jaar": "1900", "Jaar_recon": "1900", "Materiaal": "onbekend", "Vorm": "rond", "Voeg": "onbekend", "Grondslag": "onbekend", "Fundatie": "onbekend", "VanBobpeil": "-3.500", "NarBobpeil": "-3.500", "Straat": "buitenomweg", "Straattype": "onbekend", "Verh_type": "onbekend", "Breedte": 315, "Hoogte": 315, "BodemBrdt": 130, "Lengte": 67.1999969, "Gebied": "rb/reeuwijk brug", "Inspectie": "", "JaarVerv": "0", "Beslismodl": "Geen beoordeling", "Beoordeeld": "0000", "Tactisch": 7, "Act_Direct": 0, "Act_In_5Y": 0, "Act_In_10Y": 0, "Geen_actie": 0, "Niet_beord": 67.2, "Operationl": 0, "Project": "", "APM": 0, "APV": "", "Kosten": 16298.84, "Opmerking": "", "Tekening": "onbekend", "OBJ_ID": "RB1322", "Shape_Length": 54.16782298208744, "Shape_Area": 8.83489999652133}}]}