{"type": "FeatureCollection", "features": [{"type": "Feature", "id": 1, "geometry": {"type": "Polygon", "coordinates": [[[103660.16059999913, 453169.96730000153], [103859.07429999858, 452128.382100001], [103909.50239999965, 452135.10810000077], [103847.52230000123, 452456.6361999996], [103841.27569999918, 452604.3797999993], [103807.9123999998, 452815.6807000004], [103741.18580000103, 453176.3222000003], [103741.18580000103, 453176.3222000003], [103741.18580000103, 453176.3222000003], [103741.18580000103, 453176.3222000003], [103660.16059999913, 453169.96730000153]]]}, "properties": {"OBJECTID": 1, "GPGIDENT": "1", "GPGNAAM": "Noordeinde oneven", "GPGSOORT": 4, "GPGOPPVL": 0, "GBNR": 40, "GPGSOORT2": "Druk", "Inspectie": " ", "zuivering": "Rijnland", "Planning": 0, "Shape_Length": 2248.561499630944, "Shape_Area": 71081.6907086135}}, {"type": "Feature", "id": 2, "geometry": {"type": "Polygon", "coordinates": [[[103847.50780000165, 452456.63980000094], [103909.76469999924, 452134.9791000001], [103859.36620000005, 452128.308699999], [103879.37739999965, 452007.5007000007], [103937.92850000039, 452012.6887000017], [104027.60810000077, 452023.06489999965], [104112.84079999849, 452070.49870000035], [104137.29890000075, 452074.2045000009], [104234.3900000006, 452084.5806999989], [104249.21310000122, 452013.42990000173], [104276.63580000028, 452007.5007000007], [104328.5166000016, 452010.4653000012], [104283.30620000139, 452447.0047999993], [104026.12579999864, 452476.65100000054], [103989.06819999963, 452449.2283000015], [103989.80930000171, 452450.7105999999], [103989.80930000171, 452450.7105999999], [103847.50780000165, 452456.63980000094]]]}, "properties": {"OBJECTID": 2, "GPGIDENT": "1", "GPGNAAM": "Groenswaard III", "GPGSOORT": 4, "GPGOPPVL": 0, "GBNR": 39, "GPGSOORT2": "Gemengd", "Inspectie": "2019", "zuivering": "Rijnland", "Planning": 0, "Shape_Length": 1910.5456405025925, "Shape_Area": 180215.61066676446}}, {"type": "Feature", "id": 3, "geometry": {"type": "Polygon", "coordinates": [[[104921.18299999833, 451906.0789999999], [104705.53290000185, 451911.2879000008], [104705.53290000185, 451928.998300001], [104604.47940000147, 451938.374400001], [104594.0615000017, 451545.6202000007], [104521.13639999926, 451541.4530999996], [104528.42889999971, 451486.2382999994], [104669.07030000165, 451487.28009999916], [104703.44929999858, 451487.28009999916], [104845.1325000003, 451502.9068999998], [104920.14130000025, 451510.1994000003], [104919.09950000048, 451532.0769999996], [104913.89050000161, 451701.8885000013], [104921.18299999833, 451708.13919999823], [104921.18299999833, 451906.0789999999]]]}, "properties": {"OBJECTID": 3, "GPGIDENT": "1", "GPGNAAM": "Oranjewijk Noord", "GPGSOORT": 1, "GPGOPPVL": 0, "GBNR": 1, "GPGSOORT2": "Gescheiden", "Inspectie": "2021", "zuivering": "Rijnland", "Planning": 0, "Shape_Length": 1648.809076255852, "Shape_Area": 139192.64710429945}}, {"type": "Feature", "id": 4, "geometry": {"type": "Polygon", "coordinates": [[[104325.28020000085, 452417.59699999914], [104367.99350000173, 451962.3354999982], [104694.07319999859, 451930.0401000008], [104705.53290000185, 451928.998300001], [104705.53290000185, 451910.24610000104], [104922.22480000183, 451905.03720000014], [104923.2666000016, 451984.2131000012], [104903.47260000184, 452151.94099999964], [104894.09650000185, 452193.61250000075], [104867.0100999996, 452376.96719999984], [104583.6435999982, 452431.14020000026], [104565.93320000172, 452418.6387999989], [104565.93320000172, 452418.6387999989], [104565.93320000172, 452418.6387999989], [104566.97500000149, 452418.6387999989], [104566.97500000149, 452418.6387999989], [104325.28020000085, 452417.59699999914]]]}, "properties": {"OBJECTID": 4, "GPGIDENT": "1", "GPGNAAM": "Vondelwijk", "GPGSOORT": 1, "GPGOPPVL": 0, "GBNR": 2, "GPGSOORT2": "Gescheiden", "Inspectie": "2021", "zuivering": "Rijnland", "Planning": 2019, "Shape_Length": 2060.9973885375834, "Shape_Area": 263647.65959422715}}, {"type": "Feature", "id": 5, "geometry": {"type": "Polygon", "coordinates": [[[103877.69480000064, 452007.7716999985], [103886.02910000086, 451934.84650000185], [103874.56940000132, 451622.30999999866], [103925.61699999869, 451621.2681999989], [103927.70059999824, 451608.76680000126], [104002.70939999819, 451595.22349999845], [104274.61609999835, 451498.3372000009], [104380.87849999964, 451493.1283], [104328.78909999877, 452009.8552000001], [104272.53249999881, 452009.8552000001], [104247.52959999815, 452014.0223999992], [104233.98629999906, 452085.90579999983], [104138.14180000126, 452073.4043000005], [104116.26429999992, 452071.320700001], [104027.71229999885, 452022.3566999994], [103878.73649999872, 452007.7716999985], [103878.73649999872, 452007.7716999985], [103877.69480000064, 452007.7716999985]]]}, "properties": {"OBJECTID": 5, "GPGIDENT": "1", "GPGNAAM": "Groenswaard II", "GPGSOORT": 1, "GPGOPPVL": 0, "GBNR": 38, "GPGSOORT2": "Gemengd", "Inspectie": "2018", "zuivering": "Rijnland", "Planning": 2019, "Shape_Length": 1965.7909980135717, "Shape_Area": 228685.09828727363}}, {"type": "Feature", "id": 6, "geometry": {"type": "Polygon", "coordinates": [[[104386.57919999957, 450011.9127999991], [104362.2173999995, 449309.4807000011], [104593.65459999815, 449526.7067999989], [104609.8957999982, 449579.49069999903], [104622.07669999823, 449589.6414999999], [104534.78020000085, 449723.6314000003], [104559.14200000092, 449754.08370000124], [104512.44860000163, 449879.9530000016], [104524.62950000167, 449918.52589999884], [104494.17720000073, 449971.309799999], [104469.81540000066, 449987.55099999905], [104453.57420000061, 449995.67159999907], [104427.18219999969, 450005.82239999995], [104386.57919999957, 450011.9127999991]]]}, "properties": {"OBJECTID": 6, "GPGIDENT": "1", "GPGNAAM": "Coenecoop III", "GPGSOORT": 1, "GPGOPPVL": 0, "GBNR": 13, "GPGSOORT2": "Gemengd", "Inspectie": "2024", "zuivering": "Rijnland", "Planning": 0, "Shape_Length": 1642.6764571833182, "Shape_Area": 105863.10221871712}}, {"type": "Feature", "id": 7, "geometry": {"type": "Polygon", "coordinates": [[[104365.46570000052, 449309.2776999995], [104358.76619999856, 449036.83150000125], [104544.11890000105, 449036.83150000125], [104876.86059999838, 448695.1572000012], [105142.6072999984, 448956.4375], [104597.71489999816, 449528.12790000066], [104365.46570000052, 449309.2776999995]]]}, "properties": {"OBJECTID": 7, "GPGIDENT": "1", "GPGNAAM": "Coenecoop I", "GPGSOORT": 1, "GPGOPPVL": 0, "GBNR": 11, "GPGSOORT2": "Gemengd", "Inspectie": "2025", "zuivering": "Rijnland", "Planning": 0, "Shape_Length": 2416.3717110724738, "Shape_Area": 314477.0006996226}}, {"type": "Feature", "id": 8, "geometry": {"type": "Polygon", "coordinates": [[[104358.76619999856, 449036.83150000125], [104340.90080000088, 448458.4415999986], [104340.90080000088, 448458.4415999986], [104338.66770000011, 448460.6748000011], [104338.66770000011, 448460.6748000011], [104338.66770000011, 448460.6748000011], [104403.42949999869, 448458.4415999986], [104720.5390000008, 448543.3018999994], [104879.09380000085, 448690.6908], [104845.59629999846, 448735.3541000001], [104711.6063000001, 448876.04360000044], [104541.88569999859, 449036.83150000125], [104358.76619999856, 449036.83150000125]]]}, "properties": {"OBJECTID": 8, "GPGIDENT": "1", "GPGNAAM": "Coenecoop II", "GPGSOORT": 1, "GPGOPPVL": 0, "GBNR": 12, "GPGSOORT2": "Gescheiden", "Inspectie": "2025", "zuivering": "Rijnland", "Planning": 0, "Shape_Length": 1858.3951058426603, "Shape_Area": 211993.60526241123}}, {"type": "Feature", "id": 9, "geometry": {"type": "Polygon", "coordinates": [[[103420.01330000162, 451150.8861999996], [103406.28849999979, 451093.6990999989], [103441.74439999834, 451068.5368000008], [103481.77529999986, 451065.1055999994], [103500.07519999892, 451074.25549999997], [103508.08139999956, 451081.1180000007], [103805.45389999822, 451013.6372999996], [103782.5791000016, 450977.03759999946], [104181.74460000172, 450581.3033999987], [104286.96869999915, 450470.3605000004], [104300.69359999895, 450478.36670000106], [104354.44940000027, 450445.1981999986], [104364.74300000072, 450444.0544999987], [104378.46790000051, 450768.87680000067], [104407.0614, 450879.81969999894], [104065.08300000057, 450985.0438000001], [103697.9422999993, 451091.4116999991], [103420.01330000162, 451150.8861999996]]]}, "properties": {"OBJECTID": 9, "GPGIDENT": "1", "GPGNAAM": "Bomenwijk", "GPGSOORT": 1, "GPGOPPVL": 0, "GBNR": 31, "GPGSOORT2": "Gescheiden", "Inspectie": "2024", "zuivering": "Rijnland", "Planning": 0, "Shape_Length": 2789.9070070216544, "Shape_Area": 194962.27718925668}}, {"type": "Feature", "id": 10, "geometry": {"type": "Polygon", "coordinates": [[[103765.42300000042, 450966.74390000105], [103707.09219999984, 450888.9695999995], [103760.84800000116, 450834.0700000003], [103651.04890000075, 450732.27710000053], [103988.4523999989, 450393.72989999875], [104166.87590000033, 450581.3033999987], [103765.42300000042, 450966.74390000105]]]}, "properties": {"OBJECTID": 10, "GPGIDENT": "1", "GPGNAAM": "Sportpark De Sniep", "GPGSOORT": 1, "GPGOPPVL": 0, "GBNR": 33, "GPGSOORT2": "Gemengd", "Inspectie": "2024", "zuivering": "Rijnland", "Planning": 0, "Shape_Length": 1617.1610305045288, "Shape_Area": 127592.95192978557}}, {"type": "Feature", "id": 11, "geometry": {"type": "Polygon", "coordinates": [[[104175.57420000061, 450580.31280000135], [104089.1435999982, 450491.23640000075], [104179.10200000182, 450398.63219999894], [104270.82420000061, 450486.82669999823], [104175.57420000061, 450580.31280000135]]]}, "properties": {"OBJECTID": 11, "GPGIDENT": "1", "GPGNAAM": "Kastagnelaan", "GPGSOORT": 1, "GPGOPPVL": 0, "GBNR": 34, "GPGSOORT2": "Gemengd", "Inspectie": "2024", "zuivering": "Rijnland", "Planning": 0, "Shape_Length": 513.9282750324231, "Shape_Area": 16496.14193878039}}, {"type": "Feature", "id": 12, "geometry": {"type": "Polygon", "coordinates": [[[104084.73389999941, 450489.47250000015], [103991.24780000001, 450394.22250000015], [104041.5185999982, 450342.18780000135], [104141.1783999987, 450433.91000000015], [104084.73389999941, 450489.47250000015]]]}, "properties": {"OBJECTID": 12, "GPGIDENT": "1", "GPGNAAM": "Sportpad", "GPGSOORT": 1, "GPGOPPVL": 0, "GBNR": 28, "GPGSOORT2": "Gemengd", "Inspectie": "2024", "zuivering": "Rijnland", "Planning": 0, "Shape_Length": 420.46128797706234, "Shape_Area": 10183.688111323841}}, {"type": "Feature", "id": 13, "geometry": {"type": "Polygon", "coordinates": [[[104045.9283999987, 450341.30579999834], [104071.5047999993, 450311.31969999894], [104195.85889999941, 450310.43780000135], [104276.99780000001, 450382.75719999894], [104292.87280000001, 450388.04890000075], [104325.5047999993, 450420.68079999834], [104294.63670000061, 450448.90309999883], [104279.6435999982, 450452.43079999834], [104261.12280000001, 450472.71559999883], [104182.6297999993, 450398.63219999894], [104140.29639999941, 450431.26419999823], [104045.9283999987, 450341.30579999834]]]}, "properties": {"OBJECTID": 13, "GPGIDENT": "1", "GPGNAAM": "Limaweg (politie en bibliotheek)", "GPGSOORT": 2, "GPGOPPVL": 0, "GBNR": 35, "GPGSOORT2": "Gescheiden", "Inspectie": "2024", "zuivering": "Rijnland", "Planning": 0, "Shape_Length": 711.7969449230714, "Shape_Area": 22520.784523493447}}, {"type": "Feature", "id": 14, "geometry": {"type": "Polygon", "coordinates": [[[104404.43879999965, 450395.98640000075], [104397.38320000097, 450034.38919999823], [104524.38320000097, 450006.16699999943], [104556.13320000097, 450106.70859999955], [104579.06379999965, 450191.37530000135], [104593.17489999905, 450371.29199999943], [104404.43879999965, 450395.98640000075]]]}, "properties": {"OBJECTID": 14, "GPGIDENT": "1", "GPGNAAM": "Coenecoop College", "GPGSOORT": 1, "GPGOPPVL": 0, "GBNR": 18, "GPGSOORT2": "Gemengd", "Inspectie": "2024", "zuivering": "Rijnland", "Planning": 0, "Shape_Length": 1055.7306242164882, "Shape_Area": 62170.0779996288}}, {"type": "Feature", "id": 15, "geometry": {"type": "Polygon", "coordinates": [[[104425.60539999977, 450859.88919999823], [104418.54989999905, 450658.80579999834], [104487.34149999917, 450649.98640000075], [104497.92489999905, 450840.48640000075], [104425.60539999977, 450859.88919999823]]]}, "properties": {"OBJECTID": 15, "GPGIDENT": "1", "GPGNAAM": "Spoorstraat/Houtstraat", "GPGSOORT": 2, "GPGOPPVL": 0, "GBNR": 3, "GPGSOORT2": "Gescheiden", "Inspectie": "2024", "zuivering": "Rijnland", "Planning": 0, "Shape_Length": 536.2326308043139, "Shape_Area": 13938.643219749581}}, {"type": "Feature", "id": 16, "geometry": {"type": "Polygon", "coordinates": [[[104502.52749999985, 450835.47040000185], [104488.41640000045, 450644.97040000185], [104409.04140000045, 450648.49810000136], [104406.39559999853, 450428.01199999824], [104602.18730000034, 450401.55370000005], [104639.22890000045, 450673.19260000065], [104665.68730000034, 450782.55370000005], [104502.52749999985, 450835.47040000185]]]}, "properties": {"OBJECTID": 16, "GPGIDENT": "1", "GPGNAAM": "Nieuw Centrum", "GPGSOORT": 2, "GPGOPPVL": 0, "GBNR": 21, "GPGSOORT2": "Gescheiden", "Inspectie": "2024", "zuivering": "Rijnland", "Planning": 0, "Shape_Length": 1246.743987378377, "Shape_Area": 74827.65511043413}}, {"type": "Feature", "id": 17, "geometry": {"type": "Polygon", "coordinates": [[[104424.68659999967, 451456.8198999986], [104449.47080000117, 451112.4050000012], [104437.50600000098, 451048.30790000036], [104712.69610000029, 450979.93769999966], [104721.24240000173, 451014.97740000114], [104706.7137000002, 451045.743999999], [104710.98680000007, 451182.4844000004], [104753.71819999814, 451188.4668000005], [104771.66539999843, 451250], [104887.89479999989, 451255.9824000001], [104925.49839999899, 451430.3264000006], [104920.37060000002, 451475.6217], [104853.70960000157, 451485.02259999886], [104822.08839999884, 451483.31329999864], [104716.11459999904, 451470.49390000105], [104666.54619999975, 451461.0929999985], [104498.18459999934, 451468.7846999988], [104424.68659999967, 451456.8198999986]]]}, "properties": {"OBJECTID": 17, "GPGIDENT": "1", "GPGNAAM": "Oranjewijk Zuid", "GPGSOORT": 1, "GPGOPPVL": 0, "GBNR": 1, "GPGSOORT2": "Gescheiden", "Inspectie": "2025", "zuivering": "Rijnland", "Planning": 2021, "Shape_Length": 1847.7197459197187, "Shape_Area": 171399.49863311034}}, {"type": "Feature", "id": 18, "geometry": {"type": "Polygon", "coordinates": [[[104894.90150000155, 452430.3187999986], [104951.01520000026, 452134.6468999982], [104949.25140000135, 452048.2162999995], [104959.83469999954, 451991.7718999982], [104965.12640000135, 451938.8552000001], [104968.65410000086, 451870.0634999983], [104966.89020000026, 451774.8134999983], [104972.18189999834, 451684.8552000001], [104979.23750000075, 451482.0080000013], [104972.18189999834, 451446.7302000001], [104959.83469999954, 451370.8830000013], [104943.95969999954, 451286.2162999995], [105079.77910000086, 451261.5218999982], [105070.95969999954, 451208.6052000001], [105100.94579999894, 451194.4941000007], [105127.40410000086, 451325.0218999982], [105143.27910000086, 451446.7302000001], [105182.08469999954, 451550.7996999994], [105215.59860000014, 451631.9384999983], [105222.65410000086, 451734.2441000007], [105220.89020000026, 451808.3273999989], [105237.09600000083, 451894.09650000185], [105267.08210000023, 452010.5131999999], [105286.48490000144, 452079.30490000173], [105307.65150000155, 452171.02710000053], [105323.52650000155, 452246.8742999993], [105337.63760000095, 452290.97150000185], [105348.22100000083, 452328.0131999999], [105349.98490000144, 452361.52710000053], [105342.92929999903, 452402.09650000185], [104894.90150000155, 452430.3187999986]]]}, "properties": {"OBJECTID": 18, "GPGIDENT": "1", "GPGNAAM": "Bedrijventerrein Noord", "GPGSOORT": 1, "GPGOPPVL": 0, "GBNR": 41, "GPGSOORT2": "Gemengd", "Inspectie": "2020", "zuivering": "Rijnland", "Planning": 0, "Shape_Length": 3069.5483468676507, "Shape_Area": 325559.9525324212}}, {"type": "Feature", "id": 19, "geometry": {"type": "Polygon", "coordinates": [[[104432.50789999962, 451043.30110000074], [104442.95100000128, 450869.94530000165], [104731.18120000139, 450778.0458999984], [104904.53700000048, 450717.47580000013], [105036.12029999867, 450665.2602000013], [105061.1838000007, 450734.184799999], [105059.09519999847, 450796.8434999995], [105057.00659999996, 450853.23629999906], [105088.33590000123, 450938.86989999935], [105096.69040000066, 450980.64240000024], [105090.42460000142, 451020.3262999989], [105077.89279999956, 451066.27600000054], [105071.62689999864, 451118.49159999937], [105092.51319999993, 451179.06170000136], [105096.69040000066, 451193.6821000017], [105071.62689999864, 451206.21379999816], [105082.07009999827, 451262.6066999994], [104937.95499999821, 451279.3156999983], [104919.15740000084, 451187.4162000008], [104812.63749999925, 451206.21379999816], [104768.25429999828, 451067.32030000165], [104739.71029999852, 451060.26199999824], [104726.48119999841, 450976.4772000015], [104432.50789999962, 451043.30110000074]]]}, "properties": {"OBJECTID": 19, "GPGIDENT": "1", "GPGNAAM": "Centrum", "GPGSOORT": 1, "GPGOPPVL": 0, "GBNR": 1, "GPGSOORT2": "Gemengd", "Inspectie": "2016", "zuivering": "Rijnland", "Planning": 0, "Shape_Length": 2341.246381973315, "Shape_Area": 221028.5928364535}}, {"type": "Feature", "id": 20, "geometry": {"type": "Polygon", "coordinates": [[[104680.62000000104, 450785.09530000016], [104672.84789999947, 450655.8903999999], [104650.79930000007, 450450.3973999992], [104632.27849999815, 450296.9389999993], [104602.29239999875, 450063.2237999998], [104840.41739999875, 450044.7028999999], [104947.13259999827, 450029.7098999992], [104950.66039999947, 450096.7375999987], [104954.18820000067, 450165.5293000005], [104955.95210000128, 450165.5293000005], [104776.03539999947, 450190.2237999998], [104799.84789999947, 450380.7237999998], [104967.41739999875, 450357.7932000011], [104974.47289999947, 450317.2237999998], [104991.06450000033, 450314.13699999824], [104992.82840000093, 450347.6508000009], [104993.71029999852, 450383.81060000136], [104999.00200000033, 450443.78280000016], [105012.23119999841, 450503.75499999896], [105018.40480000153, 450548.73420000076], [105019.28669999912, 450548.73420000076], [105023.69640000165, 450559.31749999896], [105028.10619999841, 450623.69949999824], [105033.39779999852, 450659.85920000076], [104680.62000000104, 450785.09530000016]]]}, "properties": {"OBJECTID": 20, "GPGIDENT": "1", "GPGNAAM": "Oostpolderwijk", "GPGSOORT": 1, "GPGOPPVL": 0, "GBNR": 1, "GPGSOORT2": "Gemengd", "Inspectie": "2023", "zuivering": "Rijnland", "Planning": 2022, "Shape_Length": 2535.9830816916055, "Shape_Area": 201358.0906861081}}, {"type": "Feature", "id": 21, "geometry": {"type": "Polygon", "coordinates": [[[104801.61180000007, 450378.9598999992], [104776.03539999947, 450191.9875999987], [104984.17430000007, 450162.8834999986], [104990.34789999947, 450215.8000999987], [104991.22989999875, 450252.8418000005], [104992.11180000007, 450303.1125999987], [104993.87570000067, 450313.6959999986], [104974.47289999947, 450314.5778999999], [104969.18120000139, 450356.9112999998], [104801.61180000007, 450378.9598999992]]]}, "properties": {"OBJECTID": 21, "GPGIDENT": "1", "GPGNAAM": "Alblas", "GPGSOORT": 2, "GPGOPPVL": 0, "GBNR": 0, "GPGSOORT2": "Gescheiden", "Inspectie": "2023", "zuivering": "Rijnland", "Planning": 2022, "Shape_Length": 781.3124387125356, "Shape_Area": 37731.960413874185}}, {"type": "Feature", "id": 22, "geometry": {"type": "Polygon", "coordinates": [[[104955.22720000148, 450165.9721999988], [104947.85949999839, 450030.58989999816], [104951.54329999909, 450025.064100001], [104952.003800001, 449932.96719999984], [104957.99010000005, 449883.23490000144], [104978.71189999953, 449887.3792999983], [104969.50219999999, 449965.66160000116], [104964.8973999992, 450027.3665000014], [104978.71189999953, 450120.84479999915], [104988.84259999916, 450160.9068999998], [104955.22720000148, 450165.9721999988]]]}, "properties": {"OBJECTID": 22, "GPGIDENT": "1", "GPGNAAM": "Zuidkade 76 - 98", "GPGSOORT": 4, "GPGOPPVL": 0, "GBNR": 9, "GPGSOORT2": "Druk", "Inspectie": " ", "zuivering": "Rijnland", "Planning": 0, "Shape_Length": 616.0555709070122, "Shape_Area": 5908.443161447929}}, {"type": "Feature", "id": 23, "geometry": {"type": "Polygon", "coordinates": [[[104803.72789999843, 449862.51309999824], [104807.87220000103, 449751.9968999997], [104946.9384999983, 449761.6671000011], [104942.79410000145, 449851.0009999983], [104941.87319999933, 449880.93250000104], [104861.7489, 449874.02519999817], [104860.82789999992, 449865.27600000054], [104803.72789999843, 449862.51309999824]]]}, "properties": {"OBJECTID": 23, "GPGIDENT": "1", "GPGNAAM": "Maarten Schoutenstraat", "GPGSOORT": 1, "GPGOPPVL": 0, "GBNR": 8, "GPGSOORT2": "Gemengd", "Inspectie": "2023", "zuivering": "Rijnland", "Planning": 2022, "Shape_Length": 515.7574596389978, "Shape_Area": 15980.61238736223}}, {"type": "Feature", "id": 24, "geometry": {"type": "Polygon", "coordinates": [[[104942.33359999955, 449881.3929999992], [104943.71510000154, 449855.1453999989], [104984.2377000004, 449860.67119999975], [104979.63289999962, 449886.9188000001], [104958.45059999824, 449882.77439999953], [104942.33359999955, 449881.3929999992]]]}, "properties": {"OBJECTID": 24, "GPGIDENT": "1", "GPGNAAM": "Zuidkade 100 - 103", "GPGSOORT": 4, "GPGOPPVL": 0, "GBNR": 9, "GPGSOORT2": "Druk", "Inspectie": " ", "zuivering": "Rijnland", "Planning": 2022, "Shape_Length": 131.5900381300225, "Shape_Area": 1019.0915667122757}}, {"type": "Feature", "id": 25, "geometry": {"type": "Polygon", "coordinates": [[[104900.96519999951, 449373.3247000016], [104916.73559999838, 449353.8344999999], [104987.99670000002, 449270.5788999982], [105058.5522999987, 449188.7344999984], [105150.62730000168, 449083.6066999994], [105197.1939000003, 449137.5817000009], [105186.61059999838, 449159.1011000015], [105167.2078000009, 449201.4345000014], [105144.98279999942, 449234.5956000015], [105117.8189000003, 449222.248399999], [105106.00090000033, 449226.4816999994], [105104.23699999973, 449230.0095000006], [105076.72030000016, 449277.6345000006], [105049.20369999856, 449333.02059999853], [105069.31199999899, 449347.13170000166], [105060.13980000094, 449363.3594999984], [105037.09679999948, 449350.9873000011], [105034.14660000056, 449401.9840000011], [104900.96519999951, 449373.3247000016]]]}, "properties": {"OBJECTID": 25, "GPGIDENT": "1", "GPGNAAM": "St. Victorwijk", "GPGSOORT": 1, "GPGOPPVL": 0, "GBNR": 10, "GPGSOORT2": "Gemengd", "Inspectie": "2023", "zuivering": "Rijnland", "Planning": 2022, "Shape_Length": 984.0784323920927, "Shape_Area": 30073.902316340067}}, {"type": "Feature", "id": 26, "geometry": {"type": "Polygon", "coordinates": [[[104318.60090000182, 452534.6552999988], [104323.89249999821, 452418.23860000074], [104512.6286999993, 452418.23860000074], [104517.92029999942, 452425.2941999994], [104521.44810000062, 452442.9331], [104517.92029999942, 452534.6552999988], [104318.60090000182, 452534.6552999988]]]}, "properties": {"OBJECTID": 26, "GPGIDENT": "1", "GPGNAAM": "Tennispark De Woerd", "GPGSOORT": 4, "GPGOPPVL": 0, "GBNR": 4, "GPGSOORT2": "Druk", "Inspectie": " ", "zuivering": "Rijnland", "Planning": 0, "Shape_Length": 623.190180691201, "Shape_Area": 23070.325826550306}}, {"type": "Feature", "id": 27, "geometry": {"type": "Polygon", "coordinates": [[[104299.19810000062, 452716.3359000012], [104318.60090000182, 452536.4191999994], [104521.44810000062, 452532.8913999982], [104526.7397999987, 452418.23860000074], [104565.54529999942, 452420.00250000134], [104588.47590000182, 452434.11360000074], [104588.47590000182, 452661.6552999988], [104540.85090000182, 452672.23860000074], [104498.51749999821, 452674.00250000134], [104500.28139999881, 452711.0441999994], [104456.18420000002, 452721.62750000134], [104454.42029999942, 452735.73860000074], [104299.19810000062, 452716.3359000012]]]}, "properties": {"OBJECTID": 27, "GPGIDENT": "1", "GPGNAAM": "Begraafplaats Thijmhof", "GPGSOORT": 4, "GPGOPPVL": 0, "GBNR": 5, "GPGSOORT2": "Druk", "Inspectie": " ", "zuivering": "Rijnland", "Planning": 0, "Shape_Length": 1136.1655773619048, "Shape_Area": 55427.88051993144}}, {"type": "Feature", "id": 28, "geometry": {"type": "Polygon", "coordinates": [[[103701.2397999987, 450888.9470000006], [102976.28139999881, 450162.22480000183], [103246.15639999881, 449887.0581], [103494.8647999987, 449638.34980000183], [103516.03139999881, 449629.5302999988], [103761.21200000122, 449871.1831], [104082.2397999987, 450197.50250000134], [104068.1286999993, 450250.4191999994], [103775.32310000062, 450569.6831], [103768.26749999821, 450604.9609000012], [103644.79529999942, 450731.9609000012], [103761.21200000122, 450832.50250000134], [103701.2397999987, 450888.9470000006]]]}, "properties": {"OBJECTID": 28, "GPGIDENT": "1", "GPGNAAM": "Zuidplas 80", "GPGSOORT": 1, "GPGOPPVL": 0, "GBNR": 22, "GPGSOORT2": "Gemengd", "Inspectie": "2022", "zuivering": "Rijnland", "Planning": 0, "Shape_Length": 3525.8359548965827, "Shape_Area": 661786.8455187046}}, {"type": "Feature", "id": 29, "geometry": {"type": "Polygon", "coordinates": [[[103124.44810000062, 450010.5302999988], [102877.5036999993, 449735.36360000074], [103254.16970000044, 449367.38610000163], [103307.96829999983, 449422.0667000003], [103313.26000000164, 449457.3443999998], [103374.99610000104, 449521.7263999991], [103408.51000000164, 449525.2542000003], [103505.52389999852, 449619.62220000103], [103492.29470000044, 449639.9068999998], [103124.44810000062, 450010.5302999988]]]}, "properties": {"OBJECTID": 29, "GPGIDENT": "1", "GPGNAAM": "Zuidplas 90", "GPGSOORT": 2, "GPGOPPVL": 0, "GBNR": 24, "GPGSOORT2": "Gescheiden", "Inspectie": "2017", "zuivering": "Rijnland", "Planning": 0, "Shape_Length": 1813.3230835099894, "Shape_Area": 192907.15117459005}}, {"type": "Feature", "id": 30, "geometry": {"type": "Polygon", "coordinates": [[[102971.06560000032, 450164.6638999991], [102706.48220000044, 449908.8999999985], [102874.93360000104, 449733.3929999992], [103122.76000000164, 450012.0874999985], [102971.06560000032, 450164.6638999991]]]}, "properties": {"OBJECTID": 30, "GPGIDENT": "1", "GPGNAAM": "Zuidplas 90+", "GPGSOORT": 2, "GPGOPPVL": 0, "GBNR": 25, "GPGSOORT2": "Gescheiden", "Inspectie": "2022", "zuivering": "Rijnland", "Planning": 0, "Shape_Length": 1199.3590550011431, "Shape_Area": 84804.44035328296}}, {"type": "Feature", "id": 31, "geometry": {"type": "Polygon", "coordinates": [[[102940.63850000128, 450741.4554999992], [103027.06899999827, 450644.4417000003], [102931.81899999827, 450550.9554999992], [103122.31899999827, 450344.5804999992], [103236.97179999948, 450457.4693999998], [103155.83289999887, 450540.37220000103], [103348.09679999948, 450720.2888999991], [103134.66629999876, 450931.9554999992], [102940.63850000128, 450741.4554999992]]]}, "properties": {"OBJECTID": 31, "GPGIDENT": "1", "GPGNAAM": "Zevende Tochtweg/Sportpark 't Suyt", "GPGSOORT": 4, "GPGOPPVL": 0, "GBNR": 30, "GPGSOORT2": "Druk", "Inspectie": " ", "zuivering": "Rijnland", "Planning": 0, "Shape_Length": 1656.9746087108258, "Shape_Area": 123716.33697721334}}, {"type": "Feature", "id": 32, "geometry": {"type": "Polygon", "coordinates": [[[103157.59679999948, 450540.37220000103], [103236.97179999948, 450455.7054999992], [103575.63850000128, 450790.8443999998], [103499.79129999876, 450868.4554999992], [103157.59679999948, 450540.37220000103]]]}, "properties": {"OBJECTID": 32, "GPGIDENT": "1", "GPGNAAM": "'t Suyt", "GPGSOORT": 2, "GPGOPPVL": 0, "GBNR": 29, "GPGSOORT2": "Gescheiden", "Inspectie": " ", "zuivering": "Rijnland", "Planning": 0, "Shape_Length": 1175.0959459943765, "Shape_Area": 53358.8666541705}}, {"type": "Feature", "id": 33, "geometry": {"type": "Polygon", "coordinates": [[[103653.24960000068, 451036.0249999985], [103505.08289999887, 451071.3027999997], [103480.38850000128, 451057.1917000003], [103459.22179999948, 451055.4277999997], [103439.81899999827, 451062.48330000043], [103429.23570000008, 451055.4277999997], [103468.04129999876, 451021.9138999991], [103550.94399999827, 450931.9554999992], [103653.24960000068, 451036.0249999985]]]}, "properties": {"OBJECTID": 33, "GPGIDENT": "1", "GPGNAAM": "Nooitgedacht", "GPGSOORT": 2, "GPGOPPVL": 0, "GBNR": 32, "GPGSOORT2": "Gescheiden", "Inspectie": " ", "zuivering": "Rijnland", "Planning": 0, "Shape_Length": 554.8976644552337, "Shape_Area": 14546.906055025447}}, {"type": "Feature", "id": 34, "geometry": {"type": "Polygon", "coordinates": [[[103699.11070000008, 451028.9693999998], [103651.48570000008, 450972.5249999985], [103684.99960000068, 450939.01110000163], [103665.59679999948, 450916.0804999992], [103653.24960000068, 450921.37220000103], [103580.9301000014, 450850.8167000003], [103579.16629999876, 450856.10830000043], [103552.70789999887, 450829.6499999985], [103584.45789999887, 450794.37220000103], [103759.08289999887, 450974.2888999991], [103785.54129999876, 451007.8027999997], [103699.11070000008, 451028.9693999998]]]}, "properties": {"OBJECTID": 34, "GPGIDENT": "1", "GPGNAAM": "Plasweg 1 - 27c", "GPGSOORT": 4, "GPGOPPVL": 0, "GBNR": 0, "GPGSOORT2": "Druk", "Inspectie": " ", "zuivering": "Rijnland", "Planning": 0, "Shape_Length": 738.622418038924, "Shape_Area": 14448.892040688961}}, {"type": "Feature", "id": 35, "geometry": {"type": "Polygon", "coordinates": [[[103540.36070000008, 454233.9556000009], [103423.94399999827, 454225.13610000163], [103448.63850000128, 454054.0388999991], [103425.70789999887, 454024.0527999997], [103432.76350000128, 453934.0943999998], [103498.02739999816, 453928.8027999997], [103487.44399999827, 453731.24720000103], [103460.98570000008, 453717.13610000163], [103478.62460000068, 453538.98330000043], [103430.99960000068, 453533.6917000003], [103436.29129999876, 453459.60830000043], [103482.15239999816, 453454.3167000003], [103473.33289999887, 453270.87220000103], [103535.06899999827, 453269.10830000043], [103538.59679999948, 453173.85830000043], [103476.86070000008, 453172.0943999998], [103494.49960000068, 453069.7888999991], [103579.16629999876, 453073.3167000003], [103628.5551000014, 452722.3027999997], [103651.48570000008, 452533.5667000003], [103593.27739999816, 452530.0388999991], [103626.79129999876, 452346.5943999998], [103695.58289999887, 452336.01110000163], [103699.11070000008, 452156.0943999998], [103655.01350000128, 452150.8027999997], [103670.88850000128, 452074.9556000009], [103725.56899999827, 452066.13610000163], [103713.22179999948, 451926.7888999991], [103750.26350000128, 451921.49720000103], [103737.91629999876, 451722.1777999997], [103688.52739999816, 451720.4138999991], [103684.99960000068, 451558.13610000163], [103741.44399999827, 451540.49720000103], [103720.27739999816, 451394.0943999998], [103672.65239999816, 451399.38610000163], [103663.83289999887, 451348.23330000043], [103598.56899999827, 451349.99720000103], [103572.11070000008, 451226.5249999985], [103676.1801000014, 451212.4138999991], [103753.79129999876, 451261.8027999997], [103789.06899999827, 451362.3443999998], [103806.70789999887, 451487.5804999992], [103822.58289999887, 451544.0249999985], [103850.8051000014, 451572.24720000103], [103859.62460000068, 451642.8027999997], [103866.6801000014, 451889.74720000103], [103864.91629999876, 451960.3027999997], [103838.45789999887, 452149.0388999991], [103803.1801000014, 452327.1917000003], [103774.95789999887, 452480.6499999985], [103741.44399999827, 452625.2888999991], [103700.87460000068, 452870.4693999998], [103649.72179999948, 453101.5388999991], [103625.02739999816, 453265.5806000009], [103609.15239999816, 453390.8167000003], [103591.51350000128, 453657.1638999991], [103577.40239999816, 453879.4138999991], [103554.47179999948, 454145.76110000163], [103545.65239999816, 454232.1917000003], [103540.36070000008, 454233.9556000009]]]}, "properties": {"OBJECTID": 35, "GPGIDENT": "1", "GPGNAAM": "Noordeinde even", "GPGSOORT": 4, "GPGOPPVL": 0, "GBNR": 40, "GPGSOORT2": "Druk", "Inspectie": " ", "zuivering": "Rijnland", "Planning": 0, "Shape_Length": 7173.502658139741, "Shape_Area": 377765.1887817291}}, {"type": "Feature", "id": 36, "geometry": {"type": "Polygon", "coordinates": [[[104120.6801000014, 450166.4277999997], [104085.40239999816, 450127.62220000103], [104185.94399999827, 450020.0249999985], [104221.22179999948, 450062.35830000043], [104120.6801000014, 450166.4277999997]]]}, "properties": {"OBJECTID": 36, "GPGIDENT": "1", "GPGNAAM": "Pater Jornaweg", "GPGSOORT": 4, "GPGOPPVL": 0, "GBNR": 27, "GPGSOORT2": "Druk", "Inspectie": " ", "zuivering": "Rijnland", "Planning": 0, "Shape_Length": 399.5141703671326, "Shape_Area": 7812.4819058154635}}, {"type": "Feature", "id": 37, "geometry": {"type": "Polygon", "coordinates": [[[103469.36419999972, 449343.57360000163], [103394.39889999852, 449258.0249999985], [103423.50310000032, 449235.0943999998], [103472.89189999923, 449288.8929999992], [103469.36419999972, 449343.57360000163]]]}, "properties": {"OBJECTID": 37, "GPGIDENT": "1", "GPGNAAM": "Afvalbrengstation", "GPGSOORT": 4, "GPGOPPVL": 0, "GBNR": 26, "GPGSOORT2": "Druk", "Inspectie": " ", "zuivering": "Rijnland", "Planning": 0, "Shape_Length": 278.6245119154575, "Shape_Area": 3549.608705502565}}, {"type": "Feature", "id": 38, "geometry": {"type": "Polygon", "coordinates": [[[104370.71139999852, 450401.9068999998], [104324.85029999912, 450386.9138999991], [104275.46139999852, 450341.0527999997], [104162.57250000164, 450230.80970000103], [104160.80860000104, 450206.99720000103], [104221.66279999912, 450150.5527999997], [104256.94060000032, 450187.5943999998], [104287.80860000104, 450246.68470000103], [104323.08639999852, 450283.7263999991], [104358.36419999972, 450257.2679999992], [104370.71139999852, 450401.9068999998]]]}, "properties": {"OBJECTID": 38, "GPGIDENT": "1", "GPGNAAM": "Tweede Blokweg 2-6", "GPGSOORT": 4, "GPGOPPVL": 0, "GBNR": 79, "GPGSOORT2": "Druk", "Inspectie": " ", "zuivering": "Rijnland", "Planning": 0, "Shape_Length": 738.5508400657743, "Shape_Area": 22215.10563670485}}, {"type": "Feature", "id": 39, "geometry": {"type": "Polygon", "coordinates": [[[104256.10860000178, 450063.7707999982], [104197.90019999817, 450005.5625], [103509.98360000178, 449314.1180000007], [103508.21970000118, 449181.8264000006], [103511.74749999866, 449167.7153000012], [103534.67799999937, 449134.2014000006], [103584.06689999998, 449084.8125], [104187.31689999998, 448483.3264000006], [104219.06689999998, 448463.9235999994], [104254.34470000118, 448463.9235999994], [104319.60860000178, 448463.9235999994], [104376.05299999937, 450002.0346999988], [104328.42799999937, 450007.3264000006], [104256.10860000178, 450063.7707999982]]]}, "properties": {"OBJECTID": 39, "GPGIDENT": "1", "GPGNAAM": "De triangel", "GPGSOORT": 2, "GPGOPPVL": 0, "GBNR": 0, "GPGSOORT2": "Gescheiden", "Inspectie": " ", "zuivering": "Schieland", "Planning": 0, "Shape_Length": 3983.4133686390023, "Shape_Area": 815550.5542709734}}, {"type": "Feature", "id": 40, "geometry": {"type": "Polygon", "coordinates": [[[105140.6436999999, 450715.1970000006], [105177.6854000017, 450665.8081], [105195.32429999858, 450641.1136999987], [105223.5465000011, 450598.7804000005], [105237.6576000005, 450558.2109000012], [105230.60209999979, 450524.6970000006], [105200.6158999987, 450478.8359000012], [105151.22709999979, 450415.3359000012], [105115.94929999858, 450369.47480000183], [105184.7408999987, 450373.0025999993], [105191.7965000011, 450427.6831], [105276.46319999918, 450432.97480000183], [105281.7547999993, 450480.59980000183], [105313.5047999993, 450491.1831], [105311.7408999987, 450528.22480000183], [105347.0186999999, 450529.9886999987], [105350.5465000011, 450556.4470000006], [105348.7826000005, 450639.34980000183], [105257.0604000017, 450637.5859000012], [105257.0604000017, 450667.5720000006], [105232.3658999987, 450669.3359000012], [105218.2547999993, 450720.4886999987], [105140.6436999999, 450715.1970000006]]]}, "properties": {"OBJECTID": 40, "GPGIDENT": "1", "GPGNAAM": "Kromme Esse", "GPGSOORT": 4, "GPGOPPVL": 0, "GBNR": 50, "GPGSOORT2": "Druk", "Inspectie": " ", "zuivering": "Rijnland", "Planning": 0, "Shape_Length": 1162.8535938359166, "Shape_Area": 31344.822972924812}}, {"type": "Feature", "id": 41, "geometry": {"type": "Polygon", "coordinates": [[[105281.3601000011, 451837.89550000057], [105257.71200000122, 451837.89550000057], [105250.95540000126, 451675.7373000011], [105244.19889999926, 451611.5496999994], [105201.97019999847, 451493.3093000017], [105180.0111999996, 451415.6085000001], [105159.7415000014, 451321.01630000025], [105137.78249999881, 451143.65569999814], [105134.40419999883, 451071.0223999992], [105139.47170000151, 450981.49749999866], [105139.47170000151, 450910.5533000007], [105109.06700000167, 450763.59750000015], [105141.16079999879, 450716.3013000004], [105220.55079999939, 450717.9904999994], [105208.72679999843, 450810.8935999982], [105131.02600000054, 450810.8935999982], [105149.60660000145, 450881.83779999986], [105198.59189999849, 450880.14869999886], [105208.72679999843, 450913.9316000007], [105228.99650000036, 451006.83480000123], [105262.77950000018, 451010.2131000012], [105252.64460000023, 451049.0634999983], [105185.07869999856, 451054.1308999993], [105203.65929999948, 451152.1015000008], [105210.41589999944, 451229.8022999987], [105240.82059999928, 451231.4913999997], [105244.19889999926, 451418.9868000001], [105213.79419999942, 451434.189199999], [105254.33370000124, 451547.3621000014], [105303.31899999827, 451540.60550000146], [105313.45389999822, 451579.45589999855], [105261.0903000012, 451589.5907999985], [105266.15780000016, 451611.5496999994], [105306.69729999825, 451606.48220000044], [105306.69729999825, 451645.33260000125], [105274.60350000113, 451648.7109000012], [105281.3601000011, 451706.1420000009], [105293.18409999833, 451707.8310999982], [105301.62990000099, 451721.34430000186], [105333.72370000184, 451717.96599999815], [105338.7910999991, 451741.61410000175], [105288.11670000106, 451743.30319999903], [105294.87330000103, 451780.46449999884], [105335.41279999912, 451782.15359999985], [105337.10200000182, 451834.5172000006], [105281.3601000011, 451837.89550000057]]]}, "properties": {"OBJECTID": 41, "GPGIDENT": "1", "GPGNAAM": "Henegouwerweg 1-35", "GPGSOORT": 4, "GPGOPPVL": 0, "GBNR": 51, "GPGSOORT2": "Druk", "Inspectie": " ", "zuivering": "Rijnland", "Planning": 0, "Shape_Length": 3024.911458694882, "Shape_Area": 71136.50846212909}}, {"type": "Feature", "id": 42, "geometry": {"type": "Polygon", "coordinates": [[[105338.7910999991, 451015.2804999985], [105291.49500000104, 451015.2804999985], [105299.94069999829, 450915.6207999997], [105212.10500000045, 450917.3099000007], [105196.90269999951, 450881.83779999986], [105152.98490000144, 450880.14869999886], [105137.78249999881, 450810.8935999982], [105218.86160000041, 450814.2718999982], [105627.63540000096, 450836.2307999991], [105634.39200000092, 450790.6237999983], [105744.18659999967, 450794.0020999983], [105752.6323999986, 450837.9200000018], [105881.00759999827, 450853.122299999], [105891.14249999821, 450826.09589999914], [105992.49130000174, 450841.29830000177], [105992.49130000174, 450853.122299999], [106026.27430000156, 450854.8115000017], [106021.20690000057, 450898.7292999998], [106056.6790000014, 450905.48589999974], [106054.9897999987, 450939.2688000016], [105869.18360000104, 450934.2014000006], [105634.39200000092, 450947.71460000053], [105620.878800001, 450925.75569999963], [105524.59739999846, 450922.37739999965], [105396.2221999988, 450922.37739999965], [105406.35709999874, 450924.06650000066], [105404.66789999977, 450964.60610000044], [105362.43919999897, 450962.91690000147], [105362.43919999897, 451011.9021999985], [105338.7910999991, 451015.2804999985]]]}, "properties": {"OBJECTID": 42, "GPGIDENT": "1", "GPGNAAM": "Brugweg", "GPGSOORT": 4, "GPGOPPVL": 0, "GBNR": 53, "GPGSOORT2": "Druk", "Inspectie": " ", "zuivering": "Rijnland", "Planning": 0, "Shape_Length": 2337.75116891789, "Shape_Area": 98510.30893456859}}, {"type": "Feature", "id": 43, "geometry": {"type": "Polygon", "coordinates": [[[106440.11549999937, 451650.4001000002], [106364.10390000045, 451657.15670000017], [106360.72560000047, 451623.37370000035], [106348.90150000155, 451623.37370000035], [106348.90150000155, 451591.2798999995], [106386.06280000135, 451589.5907999985], [106380.99540000036, 451559.18609999865], [106380.99540000036, 451523.71400000155], [106330.32090000063, 451528.7813999988], [106335.38839999959, 451473.0395999998], [106335.38839999959, 451403.78449999914], [106333.69920000061, 451391.9604999982], [106304.98369999975, 451391.9604999982], [106310.05110000074, 451373.3797999993], [106359.0364000015, 451370.0014999993], [106359.0364000015, 451336.2186000012], [106320.18600000069, 451332.8403000012], [106315.1185999997, 451305.81390000135], [106301.60539999977, 451300.74650000036], [106303.29459999874, 451263.58520000055], [106359.0364000015, 451258.51779999956], [106342.14499999955, 451163.92550000176], [106294.8487999998, 451163.92550000176], [106291.47049999982, 451064.26579999924], [106235.7285999991, 451062.57660000026], [106235.7285999991, 451015.2804999985], [106242.48519999906, 450967.9844000004], [106244.17440000176, 450951.0929000005], [106217.14799999818, 450952.7820000015], [106212.08060000092, 450920.6882000007], [106247.55270000175, 450922.37739999965], [106245.86349999905, 450880.14869999886], [106321.87519999966, 450875.0811999999], [106473.8984999992, 451652.0892000012], [106440.11549999937, 451650.4001000002]]]}, "properties": {"OBJECTID": 43, "GPGIDENT": "1", "GPGNAAM": "Middelburgseweg", "GPGSOORT": 4, "GPGOPPVL": 0, "GBNR": 52, "GPGSOORT2": "Druk", "Inspectie": " ", "zuivering": "Gouda", "Planning": 0, "Shape_Length": 2200.740246478228, "Shape_Area": 67388.80744688188}}, {"type": "Feature", "id": 44, "geometry": {"type": "Polygon", "coordinates": [[[106027.96350000054, 450900.4184000008], [106027.4149999991, 450875.0923999995], [106062.69280000031, 450852.1618999988], [106265.5399999991, 450848.6341000013], [106272.59560000151, 450820.4118999988], [106544.23449999839, 450830.9952000007], [106549.5262000002, 450790.4257999994], [106687.10949999839, 450799.2452000007], [106852.9149999991, 450808.0647], [106849.88340000063, 450837.83029999956], [106856.93890000135, 450812.25389999896], [106899.27219999954, 450817.54560000077], [106943.36950000003, 450777.85810000077], [106955.71669999883, 450739.9345000014], [106970.70969999954, 450703.7747000009], [106893.09860000014, 450697.6011000015], [106900.15419999883, 450649.9761000015], [106943.36950000003, 450649.09420000017], [106944.25140000135, 450653.50389999896], [106948.66110000014, 450643.80249999836], [106947.77919999883, 450623.51779999956], [106899.27219999954, 450619.98999999836], [106898.39029999822, 450613.81639999896], [106900.15419999883, 450587.35810000077], [106954.83469999954, 450590.00389999896], [106960.12640000135, 450526.50389999896], [106892.21669999883, 450527.3858000003], [106893.09860000014, 450476.23310000077], [106961.00840000063, 450483.2886000015], [106968.94590000063, 450448.0108000003], [106939.84169999883, 450442.71920000017], [106945.13340000063, 450395.09420000017], [106994.52219999954, 450399.50389999896], [107003.34169999883, 450313.95529999956], [106989.0885999985, 450315.9732999988], [106946.85990000144, 450309.2166999988], [106980.64279999956, 450106.51900000125], [107012.73660000041, 450099.7624000013], [107027.93899999931, 450022.06159999967], [107002.60179999843, 450013.6158000007], [107002.60179999843, 449961.2522], [107075.2351000011, 449961.2522], [107088.74830000103, 449917.3343999982], [107144.49020000175, 449920.71269999817], [107169.8273999989, 449837.9444999993], [107120.84209999815, 449834.5661999993], [107125.90949999914, 449755.1761999987], [107144.49020000175, 449753.4871000014], [106967.12970000133, 449748.41959999874], [106968.81879999861, 449701.1235000007], [107073.54600000009, 449709.56920000166], [107100.57229999825, 449677.4754000008], [107274.55460000038, 449814.2963999994], [107362.39020000026, 449706.1909000017], [107463.73910000175, 449603.1528999992], [107482.31969999894, 449621.7335000001], [107448.53680000082, 449672.4079999998], [107524.54839999974, 449733.21730000153], [107489.07629999891, 449780.5133999996], [107396.17320000008, 449712.94750000164], [107320.16149999946, 449810.9180999994], [107240.77160000056, 449885.24060000107], [107323.53979999945, 449890.30799999833], [107325.22899999842, 449908.88870000094], [107318.47239999846, 449961.2522], [107228.9475999996, 449954.4957000017], [107228.9475999996, 449991.6568999998], [107171.51649999991, 449989.9677999988], [107159.69249999896, 450033.8856000006], [107139.42269999906, 450028.81819999963], [107130.97700000182, 450057.5337000005], [107100.57229999825, 450141.99109999835], [107080.30260000005, 450141.99109999835], [107076.92430000007, 450158.8825000003], [107136.04439999908, 450175.7740000002], [107125.90949999914, 450275.433699999], [107049.89790000021, 450266.98800000176], [107044.83049999923, 450275.433699999], [107125.90949999914, 450282.19029999897], [107120.84209999815, 450341.3104999997], [107038.07389999926, 450329.4864999987], [107031.3172999993, 450386.91750000045], [107075.2351000011, 450390.29580000043], [107078.61340000108, 450419.0113000013], [107038.07389999926, 450419.0113000013], [107043.14130000025, 450439.2811000012], [107132.6660999991, 450447.72679999843], [107115.77470000088, 450599.7501000017], [107058.34360000119, 450594.6827000007], [107061.72190000117, 450638.6004999988], [107000.91259999946, 450630.15480000153], [106997.53429999948, 450679.14009999856], [106977.26449999958, 450858.1897], [106526.26209999993, 450885.21609999985], [106473.8984999992, 450876.7703999989], [106320.18600000069, 450876.7703999989], [106244.17440000176, 450880.14869999886], [106244.17440000176, 450897.0401000008], [106131.00149999931, 450913.9316000007], [106114.1099999994, 450893.6618999988], [106027.96350000054, 450900.4184000008]]]}, "properties": {"OBJECTID": 44, "GPGIDENT": "1", "GPGNAAM": "Zwarte weg/Bloemendaalseweg", "GPGSOORT": 4, "GPGOPPVL": 0, "GBNR": 60, "GPGSOORT2": "Druk", "Inspectie": " ", "zuivering": "Gouda", "Planning": 0, "Shape_Length": 7165.734621468426, "Shape_Area": 220165.0927963642}}, {"type": "Feature", "id": 45, "geometry": {"type": "Polygon", "coordinates": [[[105057.71709999815, 450388.2591000013], [105053.30739999935, 450334.4604999982], [105052.42550000176, 450213.6341000013], [105047.13379999995, 450157.1897], [105037.43239999935, 450096.3354999982], [105026.84910000116, 450032.8354999982], [105033.90459999815, 449978.1548999995], [105056.83520000055, 449814.1132999994], [105073.59209999815, 449695.9327000007], [105110.63379999995, 449513.3702000007], [105130.03660000116, 449458.6897], [105168.84209999815, 449381.9604999982], [105247.33520000055, 449255.8423999995], [105286.14070000127, 449193.2243999988], [105335.52959999815, 449139.4257999994], [105492.51570000127, 449009.7798999995], [105503.09910000116, 449009.7798999995], [105549.84209999815, 449026.5368999988], [105547.19629999995, 449038.0022], [105537.49489999935, 449093.5647], [105487.22410000116, 449092.6827000007], [105441.36300000176, 449092.6827000007], [105444.00879999995, 449112.9673999995], [105429.89770000055, 449113.8493999988], [105423.72410000116, 449147.3632999994], [105384.03660000116, 449148.2452000007], [105379.62680000067, 449169.4118999988], [105403.43930000067, 449174.7034999989], [105403.43930000067, 449201.1618999988], [105381.39070000127, 449198.5159999989], [105377.86300000176, 449233.7938000001], [105333.76570000127, 449230.2659999989], [105331.11989999935, 449243.4952000007], [105329.35599999875, 449317.5784999989], [105292.31430000067, 449315.8147], [105257.03660000116, 449368.7313000001], [105249.98099999875, 449400.4813000001], [105272.91160000116, 449407.5368999988], [105269.38379999995, 449465.7452000007], [105197.06430000067, 449465.7452000007], [105195.30050000176, 449525.7173999995], [105170.60599999875, 449527.4813000001], [105130.03660000116, 449529.2452000007], [105119.45320000127, 449560.9952000007], [105140.61989999935, 449568.0507999994], [105145.91160000116, 449608.6202000007], [105122.98099999875, 449610.3841000013], [105108.86989999935, 449636.8423999995], [105160.02270000055, 449647.4257999994], [105152.96709999815, 449705.6341000013], [105121.21709999815, 449712.6897], [105112.39770000055, 449749.7313000001], [105156.49489999935, 449762.0784999989], [105160.02270000055, 449793.8284999989], [105124.74489999935, 449795.5923999995], [105114.16160000116, 449857.3284999989], [105096.52270000055, 449987.8563000001], [105177.66160000116, 449998.4397], [105172.36989999935, 450039.0091000013], [105142.38379999995, 450039.0091000013], [105142.38379999995, 450044.3007999994], [105131.80050000176, 450158.9534999989], [105098.28660000116, 450158.9534999989], [105098.28660000116, 450185.4118999988], [105063.00879999995, 450190.7034999989], [105064.77270000055, 450263.0229999982], [105089.46709999815, 450280.6618999988], [105087.70320000127, 450331.8147], [105110.63379999995, 450379.4397], [105057.71709999815, 450388.2591000013]]]}, "properties": {"OBJECTID": 45, "GPGIDENT": "1", "GPGNAAM": "Henegouwerweg 93-120", "GPGSOORT": 4, "GPGOPPVL": 0, "GBNR": 51, "GPGSOORT2": "Druk", "Inspectie": " ", "zuivering": "Rijnland", "Planning": 0, "Shape_Length": 3802.5860094280406, "Shape_Area": 101717.86712358535}}, {"type": "Feature", "id": 46, "geometry": {"type": "Polygon", "coordinates": [[[105110.63379999995, 450737.5091000013], [105096.52270000055, 450618.4466000013], [105095.64070000127, 450589.3423999995], [105079.76570000127, 450509.0854999982], [105063.00879999995, 450445.5854999982], [105055.95320000127, 450385.6132999994], [105109.75180000067, 450379.4397], [105130.91849999875, 450413.8354999982], [105170.60599999875, 450454.4048999995], [105199.71020000055, 450484.3909999989], [105230.57820000127, 450535.5438000001], [105227.05050000176, 450567.2938000001], [105211.17550000176, 450599.0438000001], [105158.25879999995, 450670.4813000001], [105110.63379999995, 450737.5091000013]]]}, "properties": {"OBJECTID": 46, "GPGIDENT": "1", "GPGNAAM": "Zeeheldenwijk", "GPGSOORT": 1, "GPGOPPVL": 0, "GBNR": 50, "GPGSOORT2": "Gemengd", "Inspectie": "2016", "zuivering": "Rijnland", "Planning": 0, "Shape_Length": 848.2786552289467, "Shape_Area": 32462.57143343031}}, {"type": "Feature", "id": 47, "geometry": {"type": "Polygon", "coordinates": [[[105134.44629999995, 448931.2868999988], [105082.41160000116, 448876.6063000001], [105239.39770000055, 448718.7382999994], [105252.62680000067, 448724.0298999995], [105293.19629999995, 448746.9604999982], [105285.25879999995, 448774.3007999994], [105259.68239999935, 448809.5784999989], [105205.00180000067, 448882.7798999995], [105160.02270000055, 448933.9327000007], [105147.67550000176, 448945.3979999982], [105134.44629999995, 448931.2868999988]]]}, "properties": {"OBJECTID": 47, "GPGIDENT": "1", "GPGNAAM": "Akkeroord", "GPGSOORT": 4, "GPGOPPVL": 0, "GBNR": 42, "GPGSOORT2": "Druk", "Inspectie": " ", "zuivering": "Rijnland", "Planning": 0, "Shape_Length": 626.688488062985, "Shape_Area": 19866.053992657296}}, {"type": "Feature", "id": 48, "geometry": {"type": "Polygon", "coordinates": [[[105180.66019999981, 449117.72989999875], [105152.08520000055, 449083.15769999847], [105387.56430000067, 448798.1132999994], [105399.02959999815, 448795.4673999995], [105433.42550000176, 448800.7591000013], [105484.57820000127, 448820.1618999988], [105533.96709999815, 448753.1341000013], [105487.22410000116, 448731.0854999982], [105471.34910000116, 448716.9743999988], [105474.87680000067, 448699.3354999982], [105516.32820000127, 448649.9466000013], [105546.31430000067, 448593.5022], [105556.01570000127, 448571.4534999989], [105565.71709999815, 448572.3354999982], [105596.58520000055, 448485.0229999982], [105605.40459999815, 448452.3909999989], [105614.22410000116, 448410.9397], [105623.04349999875, 448369.4882999994], [105693.59910000116, 448388.0091000013], [105737.69629999995, 448399.4743999988], [105776.50180000067, 448410.0577000007], [105778.26570000127, 448399.4743999988], [105753.57129999995, 448393.3007999994], [105766.80050000176, 448346.5577000007], [105806.48800000176, 448354.4952000007], [105804.72410000116, 448397.7104999982], [105823.24489999935, 448400.3563000001], [105893.80050000176, 448303.3423999995], [105911.43930000067, 448290.9952000007], [105968.76570000127, 448208.0923999995], [106011.98099999875, 448100.4952000007], [106026.09209999815, 448075.8007999994], [106035.79349999875, 448076.6827000007], [106054.31430000067, 448087.2659999989], [106069.30739999935, 448074.9188000001], [106108.11300000176, 448084.6202000007], [106122.22410000116, 448073.1548999995], [106175.14070000127, 448089.0298999995], [106230.70320000127, 448106.6688000001], [106246.57820000127, 448097.8493999988], [106260.68930000067, 448093.4397], [106275.68239999935, 448095.2034999989], [106292.43930000067, 448111.0784999989], [106294.20320000127, 448125.1897], [106288.91160000116, 448133.1272], [106246.57820000127, 448134.8909999989], [106201.59910000116, 448120.7798999995], [106191.89770000055, 448143.7104999982], [106188.36989999935, 448149.0022], [106204.24489999935, 448166.6409999989], [106176.02270000055, 448201.0368999988], [106143.39070000127, 448177.2243999988], [106140.74489999935, 448142.8284999989], [106112.52270000055, 448115.4882999994], [106105.46709999815, 448108.4327000007], [106072.83520000055, 448112.8423999995], [106046.37680000067, 448126.9534999989], [105911.43930000067, 448314.8077000007], [105916.73099999875, 448311.2798999995], [105926.43239999935, 448321.8632999994], [105952.89070000127, 448422.4048999995], [105811.77959999815, 448462.0923999995], [105770.32820000127, 448501.7798999995], [105734.16849999875, 448536.1757999994], [105697.12680000067, 448562.6341000013], [105661.84910000116, 448598.7938000001], [105631.86300000176, 448644.6548999995], [105617.75180000067, 448674.6409999989], [105600.11300000176, 448702.8632999994], [105589.52959999815, 448724.9118999988], [105573.65459999815, 448750.4882999994], [105556.89770000055, 448762.8354999982], [105503.09910000116, 448821.9257999994], [105473.99489999935, 448868.6688000001], [105456.35599999875, 448886.3077000007], [105450.18239999935, 448908.3563000001], [105436.07129999995, 448954.2173999995], [105411.37680000067, 448984.2034999989], [105389.32820000127, 449013.3077000007], [105362.86989999935, 449035.3563000001], [105308.18930000067, 449062.6966000013], [105266.73800000176, 449089.1548999995], [105249.09910000116, 449114.7313000001], [105238.86850000173, 449136.42720000073], [105233.22410000116, 449148.77439999953], [105197.94629999995, 449138.01469999924], [105180.66019999981, 449117.72989999875]]]}, "properties": {"OBJECTID": 48, "GPGIDENT": "1", "GPGNAAM": "Kouwe hoek/Wilhelminakade/Broekhuizen", "GPGSOORT": 4, "GPGOPPVL": 0, "GBNR": 15, "GPGSOORT2": "Druk", "Inspectie": " ", "zuivering": "Rijnland", "Planning": 0, "Shape_Length": 3974.7599219439726, "Shape_Area": 136262.95796804517}}, {"type": "Feature", "id": 49, "geometry": {"type": "Polygon", "coordinates": [[[104983.25690000132, 449861.69790000096], [104941.80550000072, 449854.64229999855], [104946.2153000012, 449759.39229999855], [104950.625, 449747.9270000011], [104968.2639000006, 449751.45479999855], [104986.7846999988, 449672.07979999855], [104999.13190000132, 449601.52419999987], [105010.5971999988, 449578.59369999915], [105010.5971999988, 449566.24650000036], [105031.7639000006, 449483.34369999915], [104976.2014000006, 449470.1145000011], [104978.8471999988, 449448.94790000096], [104981.49300000072, 449432.1909000017], [104992.0764000006, 449420.72560000047], [104999.13190000132, 449418.07979999855], [105008.8332999982, 449419.84369999915], [105017.6528000012, 449427.78119999915], [105019.41660000011, 449430.4270000011], [105029.11800000072, 449428.66310000047], [105031.7639000006, 449402.20479999855], [105036.1735999994, 449392.5034000017], [105036.1735999994, 449350.17009999976], [105059.9860999994, 449365.16310000047], [105068.80550000072, 449345.76040000096], [105049.4028000012, 449331.64919999987], [105074.97910000011, 449276.96869999915], [105104.9653000012, 449230.22560000047], [105107.6110999994, 449225.8159000017], [105117.3125, 449224.93400000036], [105146.41660000011, 449235.51729999855], [105167.5832999982, 449202.0034000017], [105189.63190000132, 449156.14229999855], [105195.80550000072, 449137.62150000036], [105234.6110999994, 449148.20479999855], [105222.2639000006, 449191.42009999976], [105185.2221999988, 449258.44790000096], [105163.1735999994, 449299.01729999855], [105143.7707999982, 449330.76729999855], [105108.49300000072, 449388.09369999915], [105094.38190000132, 449417.19790000096], [105073.2153000012, 449468.35060000047], [105051.16660000011, 449534.49650000036], [105030, 449627.98259999976], [104989.43050000072, 449863.46169999987], [104983.25690000132, 449861.69790000096]]]}, "properties": {"OBJECTID": 49, "GPGIDENT": "1", "GPGNAAM": "Zuidkade 114-232/Victorstraat 10", "GPGSOORT": 4, "GPGOPPVL": 0, "GBNR": 9, "GPGSOORT2": "Druk", "Inspectie": " ", "zuivering": "Rijnland", "Planning": 2022, "Shape_Length": 1833.58743887383, "Shape_Area": 41970.325524288804}}, {"type": "Feature", "id": 50, "geometry": {"type": "Polygon", "coordinates": [[[102740.03119999915, 449867.87150000036], [102708.28119999915, 449910.20479999855], [102764.72569999844, 449963.12150000036], [102669.47569999844, 450040.73259999976], [102478.97569999844, 449862.57979999855], [102556.58680000156, 449783.20479999855], [102073.28119999915, 449292.84369999915], [102129.72569999844, 449208.1770000011], [102249.67009999976, 449356.34369999915], [102214.39229999855, 449395.14919999987], [102274.36459999904, 449441.01040000096], [102309.64229999855, 449430.4270000011], [102351.97569999844, 449483.34369999915], [102387.25340000167, 449453.35759999976], [102408.42009999976, 449474.52419999987], [102438.40619999915, 449442.77419999987], [102794.71180000156, 449816.71869999915], [102740.03119999915, 449867.87150000036]]]}, "properties": {"OBJECTID": 50, "GPGIDENT": "1", "GPGNAAM": "Plasweg", "GPGSOORT": 1, "GPGOPPVL": 0, "GBNR": 75, "GPGSOORT2": "Druk", "Inspectie": " ", "zuivering": "Schieland", "Planning": 0, "Shape_Length": 2549.718531907553, "Shape_Area": 135299.7317512338}}, {"type": "Feature", "id": 51, "geometry": {"type": "Polygon", "coordinates": [[[102410.18400000036, 449470.99650000036], [102383.72569999844, 449458.64919999987], [102353.73959999904, 449483.34369999915], [102306.11459999904, 449426.89919999987], [102265.54509999976, 449444.53810000047], [102216.15619999915, 449393.38540000096], [102247.90619999915, 449358.10759999976], [102187.93400000036, 449282.26040000096], [102290.23959999904, 449178.1909000017], [102235.55900000036, 449123.51040000096], [102553.05900000036, 448806.01040000096], [102667.71180000156, 448903.02419999987], [102724.15619999915, 448848.34369999915], [102782.36459999904, 448895.96869999915], [102911.12840000167, 449022.96869999915], [102861.73959999904, 449081.1770000011], [102826.46180000156, 449052.95479999855], [102410.18400000036, 449470.99650000036]]]}, "properties": {"OBJECTID": 51, "GPGIDENT": "1", "GPGNAAM": "G. van Dort Kroonweg", "GPGSOORT": 1, "GPGOPPVL": 0, "GBNR": 76, "GPGSOORT2": "Druk", "Inspectie": " ", "zuivering": "Schieland", "Planning": 0, "Shape_Length": 2269.9811993913922, "Shape_Area": 239971.75839784005}}, {"type": "Feature", "id": 52, "geometry": {"type": "Polygon", "coordinates": [[[104197.00340000167, 450008.98259999976], [104073.53119999915, 450146.5659000017], [103397.96180000156, 449465.70479999855], [103346.80900000036, 449412.78810000047], [102930.53119999915, 448998.27419999987], [102711.80900000036, 448790.13540000096], [102521.30900000036, 448603.16310000047], [102313.17009999976, 448384.4409000017], [102362.55900000036, 448326.23259999976], [102500.14229999855, 448470.87150000036], [102553.05900000036, 448421.48259999976], [102614.79509999976, 448486.74650000036], [102600.68400000036, 448514.96869999915], [102847.62840000167, 448737.21869999915], [102872.32290000096, 448708.99650000036], [102944.64229999855, 448774.26040000096], [103011.67009999976, 448696.64919999987], [103057.53119999915, 448746.03810000047], [102937.58680000156, 448830.70479999855], [103001.08680000156, 448892.4409000017], [103046.94790000096, 448945.35759999976], [103031.07290000096, 448955.9409000017], [103135.14229999855, 449042.37150000036], [103099.86459999904, 449068.82979999855], [103168.65619999915, 449149.96869999915], [103203.93400000036, 449116.45479999855], [103240.97569999844, 449151.73259999976], [103200.40619999915, 449187.01040000096], [103297.42009999976, 449268.14919999987], [103392.67009999976, 449347.52419999987], [103427.94790000096, 449381.03810000047], [103468.51729999855, 449439.24650000036], [103494.97569999844, 449472.76040000096], [103600.80900000036, 449569.77419999987], [103657.25340000167, 449513.32979999855], [103756.03119999915, 449605.0520000011], [103697.82290000096, 449663.26040000096], [103789.54509999976, 449733.8159000017], [103844.22569999844, 449672.07979999855], [103877.73959999904, 449700.3020000011], [103905.96180000156, 449737.34369999915], [103847.75340000167, 449786.73259999976], [103913.01729999855, 449862.57979999855], [103983.57290000096, 449790.26040000096], [104108.80900000036, 449920.78810000047], [104198.76729999855, 450008.98259999976], [104197.00340000167, 450008.98259999976]]]}, "properties": {"OBJECTID": 52, "GPGIDENT": "1", "GPGNAAM": "Tweede Blokweg 20-70", "GPGSOORT": 1, "GPGOPPVL": 0, "GBNR": 79, "GPGSOORT2": "Druk", "Inspectie": " ", "zuivering": "Schieland", "Planning": 0, "Shape_Length": 6274.412419851628, "Shape_Area": 293666.6155463034}}, {"type": "Feature", "id": 53, "geometry": {"type": "Polygon", "coordinates": [[[104235.80900000036, 448192.1770000011], [103611.39229999855, 447578.34369999915], [103699.58680000156, 447479.5659000017], [104327.53119999915, 448107.51040000096], [104235.80900000036, 448192.1770000011]]]}, "properties": {"OBJECTID": 53, "GPGIDENT": "1", "GPGNAAM": "Zuidelijke Dwarsweg", "GPGSOORT": 4, "GPGOPPVL": 0, "GBNR": 0, "GPGSOORT2": "Druk", "Inspectie": " ", "zuivering": "Schieland", "Planning": 0, "Shape_Length": 2020.9009777725864, "Shape_Area": 113288.79862035828}}, {"type": "Feature", "id": 54, "geometry": {"type": "Polygon", "coordinates": [[[101755.78119999915, 450788.62150000036], [100623.36459999904, 449617.39919999987], [100729.19790000096, 449529.20479999855], [101776.94790000096, 450615.76040000096], [101953.33680000156, 450506.39919999987], [102002.72569999844, 450573.4270000011], [101755.78119999915, 450788.62150000036]]]}, "properties": {"OBJECTID": 54, "GPGIDENT": "1", "GPGNAAM": "Abraham Kroesweg", "GPGSOORT": 4, "GPGOPPVL": 0, "GBNR": 71, "GPGSOORT2": "Druk", "Inspectie": " ", "zuivering": "Schieland", "Planning": 0, "Shape_Length": 3894.6958975631687, "Shape_Area": 241648.7336727765}}, {"type": "Feature", "id": 55, "geometry": {"type": "Polygon", "coordinates": [[[104601.26150000095, 450058.06980000064], [104597.4123999998, 449994.1737000011], [104599.72190000117, 449904.87310000136], [104608.9598999992, 449835.5881000012], [104632.82470000163, 449757.8350000009], [104658.9990000017, 449687.01040000096], [104705.9587999992, 449611.5667999983], [104746.75989999995, 449549.2102999985], [104798.3387000002, 449486.85379999876], [104851.4571999982, 449427.57669999823], [104977.70980000123, 449451.44150000066], [104977.70980000123, 449470.6873999983], [105031.59809999913, 449482.23490000144], [105011.58240000159, 449568.4560999982], [105010.8126000017, 449579.23380000144], [104999.26509999856, 449601.55889999866], [104969.24159999937, 449751.67639999837], [104949.22599999979, 449748.59699999914], [104944.60700000077, 449760.14449999854], [104806.80689999834, 449750.1367000006], [104802.95769999921, 449871.7703000009], [104951.53550000116, 449885.6273000017], [104951.53550000116, 450024.9670000002], [104601.26150000095, 450058.06980000064]]]}, "properties": {"OBJECTID": 55, "GPGIDENT": "1", "GPGNAAM": "Bedrijventerrein Zuid", "GPGSOORT": 1, "GPGOPPVL": 0, "GBNR": 7, "GPGSOORT2": "Gemengd", "Inspectie": "2023", "zuivering": "Rijnland", "Planning": 2022, "Shape_Length": 2117.315553630648, "Shape_Area": 167482.862707317}}, {"type": "Feature", "id": 56, "geometry": {"type": "Polygon", "coordinates": [[[104414.79050000012, 451047.2280000001], [104415.34120000154, 451047.2280000001], [104417.54439999908, 451118.8300999999], [104388.35280000046, 451477.3913999982], [104286.45749999955, 451485.6532000005], [104222.56639999896, 451325.92540000007], [104149.8627000004, 451128.74430000037], [104147.10880000144, 451119.3808999993], [104147.10880000144, 451119.3808999993], [104414.79050000012, 451047.2280000001]]]}, "properties": {"OBJECTID": 56, "GPGIDENT": " ", "GPGNAAM": "Peter Zuidlaan en Horstenbuurt", "GPGSOORT": 0, "GPGOPPVL": 0, "GBNR": 0, "GPGSOORT2": " ", "Inspectie": "2020", "zuivering": "Rijnland", "Planning": 0, "Shape_Length": 1203.3491979198063, "Shape_Area": 78055.23960215741}}, {"type": "Feature", "id": 57, "geometry": {"type": "Polygon", "coordinates": [[[103865.10660000145, 451591.40399999917], [103852.98939999938, 451561.66160000116], [103843.07519999892, 451537.4270000011], [103802.31709999964, 451344.1013999991], [103736.77360000089, 451176.1118000001], [103725.20710000023, 451103.4081000015], [104069.44799999893, 450985.5401000008], [104122.87420000136, 451098.45109999925], [104138.29619999975, 451144.16629999876], [104263.87530000135, 451482.34849999845], [104203.28889999911, 451513.74329999834], [104028.13910000026, 451575.9820000008], [104003.35379999876, 451582.5914000012], [104003.35379999876, 451582.5914000012], [104003.35379999876, 451582.5914000012], [103865.10660000145, 451591.40399999917]]]}, "properties": {"OBJECTID": 57, "GPGIDENT": " ", "GPGNAAM": "Groenswaard I", "GPGSOORT": 0, "GPGOPPVL": 0, "GBNR": 0, "GPGSOORT2": " ", "Inspectie": "2017", "zuivering": "Rijnland", "Planning": 2020, "Shape_Length": 1825.8782244047018, "Shape_Area": 211416.897782537}}, {"type": "Feature", "id": 58, "geometry": {"type": "Polygon", "coordinates": [[[105480.32200000063, 452382.6072999984], [105497.18560000136, 452242.0778999999], [105530.91259999946, 452191.4873000011], [105637.71499999985, 452208.35080000013], [105665.82079999894, 452320.77430000156], [105620.85139999911, 452438.8189999983], [105491.56439999864, 452416.3343000002], [105480.32200000063, 452382.6072999984]]]}, "properties": {"OBJECTID": 58, "GPGIDENT": "RWZI Randenburg", "GPGNAAM": "RWZI Randenburg", "GPGSOORT": 0, "GPGOPPVL": 0, "GBNR": 0, "GPGSOORT2": " ", "Inspectie": " ", "zuivering": " ", "Planning": 0, "Shape_Length": 719.4481524804477, "Shape_Area": 35484.11645939781}}, {"type": "Feature", "id": 59, "geometry": {"type": "Polygon", "coordinates": [[[103745.70729999989, 451249.5075000003], [103697.13120000064, 451094.33410000056], [104083.04069999978, 450982.33940000087], [104282.74219999835, 451486.9902999997], [103998.03269999847, 451593.58769999817], [103925.16869999841, 451605.7316999994], [103919.7712999992, 451621.9237000011], [103872.54459999874, 451623.2729999982], [103853.65399999917, 451546.36100000143], [103841.51000000164, 451227.9182000011], [103745.70729999989, 451249.5075000003]]]}, "properties": {"OBJECTID": 59, "GPGIDENT": " ", "GPGNAAM": "Centrum West", "GPGSOORT": 0, "GPGOPPVL": 0, "GBNR": 0, "GPGSOORT2": "Gescheiden", "Inspectie": " ", "zuivering": "Rijnland", "Planning": 0, "Shape_Length": 2045.4295221423558, "Shape_Area": 215547.46083258354}}, {"type": "Feature", "id": 60, "geometry": {"type": "Polygon", "coordinates": [[[104290.83819999918, 451478.8942999989], [104146.45939999819, 451106.4781000018], [104414.97690000013, 451044.40879999846], [104387.99020000175, 451481.5929000005], [104290.83819999918, 451478.8942999989]]]}, "properties": {"OBJECTID": 60, "GPGIDENT": " ", "GPGNAAM": " ", "GPGSOORT": 0, "GPGOPPVL": 0, "GBNR": 0, "GPGSOORT2": "Gemengd", "Inspectie": " ", "zuivering": " ", "Planning": 0, "Shape_Length": 1210.2270970766808, "Shape_Area": 75753.94701399941}}, {"type": "Feature", "id": 61, "geometry": {"type": "Polygon", "coordinates": [[[103743.74309999868, 451244.83509999886], [103698.23479999974, 451101.0700000003], [104140.90709999949, 450972.81920000166], [104163.66120000184, 451093.8300999999], [104406.71730000153, 451029.7047000006], [104410.85440000147, 451119.6871000007], [104375.68879999965, 451482.71979999915], [104303.28920000046, 451488.92540000007], [104008.51909999922, 451586.1479000002], [103923.70800000057, 451599.5934999995], [103860.61690000072, 451599.5934999995], [103853.37689999864, 451568.5650999993], [103853.37689999864, 451568.5650999993], [103743.74309999868, 451244.83509999886]]]}, "properties": {"OBJECTID": 61, "GPGIDENT": "1", "GPGNAAM": "Groenswaard I", "GPGSOORT": 0, "GPGOPPVL": 0, "GBNR": 0, "GPGSOORT2": "Gemengd", "Inspectie": " ", "zuivering": "Rijnland", "Planning": 2020, "Shape_Length": 2346.654350823378, "Shape_Area": 316579.12057366467}}, {"type": "Feature", "id": 62, "geometry": {"type": "Polygon", "coordinates": [[[103859.51399999857, 451598.13709999993], [103852.39420000091, 451560.34739999846], [103697.94929999858, 451101.3942999989], [104142.11520000175, 450976.5240000002], [104165.1176000014, 451094.2745000012], [104406.64310000092, 451034.57770000026], [104413.21519999951, 451123.3013000004], [104376.52089999989, 451482.02959999815], [104297.65540000051, 451489.6970999986], [104012.86349999905, 451582.80220000073], [103932.90269999951, 451599.2325000018], [103932.90269999951, 451599.2325000018], [103859.51399999857, 451598.13709999993]]]}, "properties": {"OBJECTID": 62, "GPGIDENT": "1", "GPGNAAM": "Groenswaard I", "GPGSOORT": 0, "GPGOPPVL": 0, "GBNR": 0, "GPGSOORT2": " ", "Inspectie": " ", "zuivering": "Rijnland", "Planning": 0, "Shape_Length": 2336.309281595203, "Shape_Area": 314365.8952286746}}]}